{"type":"FeatureCollection","features":[{"type":"Feature","properties":{"fonte":"APMs/APRMs da RMSP","nome":"Billings","manancial":"Billings","area_km2":582.8326452871094,"criticidade":"Crítica"},"geometry":{"type":"Polygon","coordinates":[[[-46.378922164724116,-23.680014350701594,0.0],[-46.379062712440025,-23.680203581872956,0.0],[-46.379128808990004,-23.680711300521715,0.0],[-46.379457960535355,-23.68063655061405,0.0],[-46.37977861112744,-23.680665950350516,0.0],[-46.38033156340037,-23.681278702527248,0.0],[-46.380839799345246,-23.681637156729785,0.0],[-46.380857933532624,-23.681960195457364,0.0],[-46.38074002184785,-23.682409739497913,0.0],[-46.381053694077345,-23.68298680253041,0.0],[-46.38127749409027,-23.68324316569238,0.0],[-46.381060957252515,-23.68353293528874,0.0],[-46.380912680296646,-23.684035754732893,0.0],[-46.381147451112405,-23.684213251866094,0.0],[-46.381736345042675,-23.68498604855589,0.0],[-46.38182383841779,-23.68554247495723,0.0],[-46.382061069297684,-23.685731798505294,0.0],[-46.382189515996714,-23.68621330152005,0.0],[-46.3821055640124,-23.68644145268556,0.0],[-46.382080248357084,-23.687142010124465,0.0],[-46.38200160867861,-23.68722708510377,0.0],[-46.381787859259425,-23.687238383468955,0.0],[-46.38128491420232,-23.687018178643836,0.0],[-46.38109621309749,-23.687141012839874,0.0],[-46.3809380160104,-23.687357705861384,0.0],[-46.381064221729794,-23.687920571901,0.0],[-46.38076005902993,-23.688941465522504,0.0],[-46.38025164928984,-23.68906369698351,0.0],[-46.379724209538416,-23.689526495349078,0.0],[-46.3795185432016,-23.68960939038048,0.0],[-46.37937677634993,-23.68975064953851,0.0],[-46.37925825740284,-23.69008114909932,0.0],[-46.379054763325016,-23.69010873988904,0.0],[-46.37876598779018,-23.690000099539816,0.0],[-46.378448920798164,-23.689984614366125,0.0],[-46.37791304487386,-23.690082741263296,0.0],[-46.377659849823104,-23.68977130862936,0.0],[-46.377488741476775,-23.689724027477514,0.0],[-46.376805390929896,-23.689739100800875,0.0],[-46.37645939095233,-23.68989804268586,0.0],[-46.37611441572334,-23.691002905490205,0.0],[-46.376395969984905,-23.691739170381894,0.0],[-46.37637700945861,-23.69213448929977,0.0],[-46.37614647959409,-23.69229971549912,0.0],[-46.37557382899406,-23.69230530607563,0.0],[-46.37530269991584,-23.692219370275357,0.0],[-46.375132495008955,-23.692350891029395,0.0],[-46.375231406823175,-23.69284828093318,0.0],[-46.37497830195295,-23.693340047145167,0.0],[-46.37496962233263,-23.69370326787128,0.0],[-46.375822469386506,-23.694412105829823,0.0],[-46.37587585610396,-23.695321042099582,0.0],[-46.37610858509998,-23.695750966936828,0.0],[-46.37604969081318,-23.696033917803394,0.0],[-46.376260564159544,-23.696287067738105,0.0],[-46.37590875130309,-23.696451177817703,0.0],[-46.375834685149805,-23.69697354374749,0.0],[-46.37563335132373,-23.69711582823506,0.0],[-46.37575544769494,-23.69752481912835,0.0],[-46.37597450822298,-23.69771031853397,0.0],[-46.37686083172952,-23.697768295826094,0.0],[-46.376972883557556,-23.697936631788902,0.0],[-46.37746482680287,-23.698295543082498,0.0],[-46.37764462461579,-23.69890357350645,0.0],[-46.37763335277458,-23.699667618354024,0.0],[-46.37734862216769,-23.699932400327505,0.0],[-46.376808481909364,-23.700224968464532,0.0],[-46.37674239740881,-23.700766958281033,0.0],[-46.37683373824241,-23.701848474025642,0.0],[-46.37746116782868,-23.702540194885643,0.0],[-46.377650969401294,-23.702638221267033,0.0],[-46.37781040588311,-23.702938868571092,0.0],[-46.37760962166439,-23.703376640786296,0.0],[-46.37719235162604,-23.703438170088734,0.0],[-46.37659107614484,-23.70379279256408,0.0],[-46.37604650868817,-23.703711101733294,0.0],[-46.375750167691784,-23.70405015281037,0.0],[-46.37546395857802,-23.703969942098905,0.0],[-46.37522721685362,-23.70401874039096,0.0],[-46.37508220936884,-23.704202797756384,0.0],[-46.3750350665909,-23.70501147097985,0.0],[-46.37459480555808,-23.705418843247593,0.0],[-46.374256717863474,-23.70551607355501,0.0],[-46.37412418175325,-23.7056984069367,0.0],[-46.37327051411939,-23.705970342824088,0.0],[-46.37294890744057,-23.70588575232481,0.0],[-46.372263974398145,-23.705895935339772,0.0],[-46.37203415842633,-23.7060609918689,0.0],[-46.3720440842333,-23.706661182229183,0.0],[-46.37235879855317,-23.707053485525876,0.0],[-46.37268771815063,-23.707155250243645,0.0],[-46.37278632538902,-23.707564154540968,0.0],[-46.37298748995342,-23.707694502269725,0.0],[-46.3731036886209,-23.707893169477956,0.0],[-46.37329032729109,-23.708025850276638,0.0],[-46.37383699701107,-23.70806165102852,0.0],[-46.374312729311505,-23.70820912712497,0.0],[-46.37413130827181,-23.70893397252376,0.0],[-46.374280598839974,-23.70907843220004,0.0],[-46.374630453941464,-23.709171397683505,0.0],[-46.37466976385101,-23.709413327536428,0.0],[-46.37458968759232,-23.70949863599821,0.0],[-46.37404275848301,-23.709618273888456,0.0],[-46.37378787324001,-23.709540026262797,0.0],[-46.37358195887099,-23.709565417238153,0.0],[-46.37323852035427,-23.710062903005294,0.0],[-46.37190240597182,-23.710097609176767,0.0],[-46.371529050526995,-23.71033107114397,0.0],[-46.37091584873755,-23.710417525649778,0.0],[-46.37087584386867,-23.710625698503833,0.0],[-46.37100684681759,-23.711034070228724,0.0],[-46.370889984531814,-23.711327690880573,0.0],[-46.37085145861925,-23.711923952741213,0.0],[-46.3706386547339,-23.712186787468948,0.0],[-46.37072780286029,-23.712411300101543,0.0],[-46.370725781111894,-23.712698277777438,0.0],[-46.37061974027526,-23.712917612573005,0.0],[-46.37057665807923,-23.71341833702299,0.0],[-46.370281922412545,-23.713852156267144,0.0],[-46.37017925828516,-23.71383754308463,0.0],[-46.369624297794715,-23.713377301157873,0.0],[-46.368764875075215,-23.713471862583464,0.0],[-46.3686577529345,-23.712893996682123,0.0],[-46.36847348349618,-23.712718365371387,0.0],[-46.36831082636175,-23.712720782078122,0.0],[-46.367876501478314,-23.7129293574458,0.0],[-46.36742468394761,-23.712812687539554,0.0],[-46.36724661146033,-23.712664007852872,0.0],[-46.36720054001584,-23.71243204750313,0.0],[-46.36725506928191,-23.712212409906144,0.0],[-46.367750414210334,-23.71211745452775,0.0],[-46.36819419240501,-23.7118450184525,0.0],[-46.36821169960839,-23.71117645538104,0.0],[-46.36773332669653,-23.710436986463076,0.0],[-46.36736559824364,-23.71018942560578,0.0],[-46.367313462467465,-23.709053156102694,0.0],[-46.36714253340304,-23.708712102704574,0.0],[-46.366359745952394,-23.70826704198979,0.0],[-46.36599971622872,-23.708249131505415,0.0],[-46.36515227470735,-23.708835035354983,0.0],[-46.36512557829307,-23.709055247180334,0.0],[-46.36521481480467,-23.70927984636447,0.0],[-46.36500369505803,-23.709544084779388,0.0],[-46.36480728043756,-23.710354894841593,0.0],[-46.36463753330134,-23.710652770264986,0.0],[-46.36429352103565,-23.710665982383357,0.0],[-46.36399559555853,-23.71052793131556,0.0],[-46.363558127466014,-23.71017939556479,0.0],[-46.362986526596,-23.71019242635749,0.0],[-46.3626859911045,-23.71046110672377,0.0],[-46.3625736031945,-23.710661713319638,0.0],[-46.362232967539896,-23.710890813751355,0.0],[-46.36216994769246,-23.711594133347543,0.0],[-46.36180743872595,-23.71198269975599,0.0],[-46.361736178175484,-23.712277668195174,0.0],[-46.361602472913,-23.712426934259813,0.0],[-46.361367513553,-23.712477410567285,0.0],[-46.361079411206866,-23.712395932976357,0.0],[-46.36080929441328,-23.71252317454418,0.0],[-46.3606756225113,-23.712706405309888,0.0],[-46.36037031594028,-23.712667520131664,0.0],[-46.360272242131956,-23.71310153462132,0.0],[-46.36009251369348,-23.71328011453692,0.0],[-46.359687985564925,-23.71320101712808,0.0],[-46.359439793756785,-23.71329638010573,0.0],[-46.35874937020746,-23.713358758179155,0.0],[-46.35878431400078,-23.71353451726127,0.0],[-46.35865899785072,-23.713786420846688,0.0],[-46.35829181144219,-23.713906083750743,0.0],[-46.358127139408495,-23.714073215449375,0.0],[-46.35811215565703,-23.71435794627355,0.0],[-46.358222223433444,-23.714742830008262,0.0],[-46.357737238504846,-23.714848888162855,0.0],[-46.35757703289221,-23.714983060424196,0.0],[-46.35764989294723,-23.715424886531867,0.0],[-46.35747935807586,-23.715719403330148,0.0],[-46.357276475229675,-23.715850318488208,0.0],[-46.357204707792256,-23.716233000807684,0.0],[-46.356987763009165,-23.716394891975973,0.0],[-46.35690468818258,-23.716945948691308,0.0],[-46.35626844961596,-23.717176368497874,0.0],[-46.35588880049416,-23.71750444023571,0.0],[-46.35501995063606,-23.717913370043995,0.0],[-46.35481012464336,-23.717815254155816,0.0],[-46.354224810419595,-23.717265566550132,0.0],[-46.35413999759978,-23.716855056383856,0.0],[-46.35405990385977,-23.716770619558442,0.0],[-46.353442479519636,-23.71662991409422,0.0],[-46.353018506423155,-23.71661864959933,0.0],[-46.352528112314275,-23.716749545607666,0.0],[-46.351784894981684,-23.716783274238814,0.0],[-46.351466798845095,-23.716899555498777,0.0],[-46.35057563550225,-23.716894931313433,0.0],[-46.35013994930599,-23.716551031771502,0.0],[-46.34963748732624,-23.716338668161924,0.0],[-46.34939797552549,-23.716153161588043,0.0],[-46.348748465683556,-23.715942004487637,0.0],[-46.3484781527341,-23.715614222227128,0.0],[-46.348045070017534,-23.715539988606793,0.0],[-46.347907708059005,-23.71535962673447,0.0],[-46.34777405270417,-23.715321262617017,0.0],[-46.34737572663842,-23.71542622877586,0.0],[-46.34702654078309,-23.715343972698484,0.0],[-46.3467178078383,-23.715558661522333,0.0],[-46.34639215850271,-23.715635199822362,0.0],[-46.3461018561067,-23.7159100756865,0.0],[-46.34603291530552,-23.71620560908619,0.0],[-46.34589974940724,-23.71635368363315,0.0],[-46.34537202242556,-23.716458502511703,0.0],[-46.344821252289506,-23.716937267357654,0.0],[-46.34449462705073,-23.716960839657666,0.0],[-46.34420601960067,-23.716878106932125,0.0],[-46.34361524116496,-23.717093174262285,0.0],[-46.343252508310655,-23.717102130248364,0.0],[-46.34315311722358,-23.71704602441462,0.0],[-46.3429752791356,-23.716659702633848,0.0],[-46.343103407545804,-23.71577143191638,0.0],[-46.342857260560244,-23.71554374993822,0.0],[-46.3427370605747,-23.715116430038737,0.0],[-46.34238609836404,-23.71509218301089,0.0],[-46.34176567245608,-23.71524698863045,0.0],[-46.34154000543285,-23.715482883322565,0.0],[-46.34128019999934,-23.715613457099987,0.0],[-46.341092518301025,-23.71560591122878,0.0],[-46.34079779998363,-23.715472519762802,0.0],[-46.34034225054977,-23.715076490373125,0.0],[-46.339966432792956,-23.714471856341433,0.0],[-46.339508627202136,-23.713944172330525,0.0],[-46.33918111748111,-23.713738619833126,0.0],[-46.33892763657464,-23.71339530036246,0.0],[-46.33684052036087,-23.713349791534128,0.0],[-46.33685426844508,-23.713163339770944,0.0],[-46.33671256916293,-23.712740791181222,0.0],[-46.33590675896265,-23.712126472931423,0.0],[-46.33560692660568,-23.711408424183606,0.0],[-46.335884124201655,-23.710885378903573,0.0],[-46.33609195528983,-23.710759125195082,0.0],[-46.336421014961026,-23.7102927085595,0.0],[-46.336421599025634,-23.70986834887946,0.0],[-46.33633256247813,-23.709667292135737,0.0],[-46.33639966796623,-23.709419587468737,0.0],[-46.33627419332963,-23.70900060002299,0.0],[-46.336367743322086,-23.708422829367017,0.0],[-46.33626492010199,-23.707921723170514,0.0],[-46.336529969517066,-23.707344737257873,0.0],[-46.33654170335946,-23.707157402708887,0.0],[-46.336500060430296,-23.707063472195188,0.0],[-46.33614950192891,-23.706841360267536,0.0],[-46.33590739632624,-23.706247232605925,0.0],[-46.335611556397026,-23.705841089180712,0.0],[-46.33480632472538,-23.70509186087206,0.0],[-46.33455761081988,-23.70450277540163,0.0],[-46.33438750339997,-23.704483755954744,0.0],[-46.334101095839856,-23.704695713327506,0.0],[-46.33365896840088,-23.70476971743763,0.0],[-46.33333814001429,-23.70518478954127,0.0],[-46.33325249337569,-23.705509959359855,0.0],[-46.33281944505666,-23.706326395789308,0.0],[-46.33261667063781,-23.70654577615328,0.0],[-46.33245628756477,-23.706982350042725,0.0],[-46.33241155951041,-23.707925974689836,0.0],[-46.331902334721974,-23.70858427293054,0.0],[-46.33166283856341,-23.709312301341757,0.0],[-46.33134778553539,-23.709338185645706,0.0],[-46.33073988366656,-23.70898319753043,0.0],[-46.33037795976113,-23.709088242885294,0.0],[-46.33007431510102,-23.70909004308102,0.0],[-46.32985820299503,-23.70894887438628,0.0],[-46.329737618792734,-23.708718904089945,0.0],[-46.329337232082366,-23.70835350725015,0.0],[-46.328831282124796,-23.70826974212863,0.0],[-46.328653598412956,-23.708128769630466,0.0],[-46.32847277384123,-23.707751495800913,0.0],[-46.328438852771065,-23.706917370867618,0.0],[-46.32816459879092,-23.706397530486807,0.0],[-46.328155960278245,-23.705918103064157,0.0],[-46.32828287166915,-23.705582725991047,0.0],[-46.32831424979882,-23.704850203373525,0.0],[-46.32912017889156,-23.703513485293065,0.0],[-46.32910124192437,-23.703168195891738,0.0],[-46.32878934938754,-23.70290924165093,0.0],[-46.32828089361963,-23.702824357813302,0.0],[-46.328026716217984,-23.7025827551964,0.0],[-46.328065251174266,-23.702424545234344,0.0],[-46.32799163082092,-23.702364632921654,0.0],[-46.32775169856672,-23.702433823256868,0.0],[-46.32756230681428,-23.7023997916576,0.0],[-46.327192982154415,-23.70272088369852,0.0],[-46.327051111112766,-23.70275409513763,0.0],[-46.325865437681664,-23.70250476692305,0.0],[-46.32493290193532,-23.702554861988613,0.0],[-46.32483880016581,-23.703007009197023,0.0],[-46.32432855044738,-23.703532748292552,0.0],[-46.3242075245794,-23.703923498586335,0.0],[-46.32427717179546,-23.70420473034523,0.0],[-46.32390203594734,-23.704489287426085,0.0],[-46.32386996989519,-23.704859859215805,0.0],[-46.323916154335855,-23.70504819857617,0.0],[-46.32421673253793,-23.70545398924678,0.0],[-46.324604545370065,-23.705683813432312,0.0],[-46.32476171585246,-23.705903443432845,0.0],[-46.3247605963181,-23.706290281987847,0.0],[-46.32467318961782,-23.70651929754133,0.0],[-46.32489825396586,-23.70691288587136,0.0],[-46.32492554724247,-23.707111515306263,0.0],[-46.324794000314384,-23.707567424614357,0.0],[-46.32494030354431,-23.70823928079132,0.0],[-46.324938541279785,-23.70895816074276,0.0],[-46.32480992127307,-23.70929363476583,0.0],[-46.32482803955456,-23.709616584126714,0.0],[-46.325117747453795,-23.710032183290537,0.0],[-46.32577639314076,-23.71036926135243,0.0],[-46.325729593478414,-23.710655055867214,0.0],[-46.32595739590805,-23.71083858991757,0.0],[-46.32610275865242,-23.71135609490096,0.0],[-46.32561418048701,-23.712604973187837,0.0],[-46.326288560202016,-23.713402872578484,0.0],[-46.32629845410749,-23.713629652667233,0.0],[-46.32619474679486,-23.71390991273251,0.0],[-46.32635058760346,-23.714205768776452,0.0],[-46.32689094954013,-23.714510938169287,0.0],[-46.32664693676291,-23.71533120881438,0.0],[-46.32662288151951,-23.716026368807753,0.0],[-46.326495936770726,-23.71636180749608,0.0],[-46.32650528387933,-23.716703923333757,0.0],[-46.32664491124187,-23.717120251582617,0.0],[-46.326510479331695,-23.71757851706269,0.0],[-46.32650931216796,-23.718296995622257,0.0],[-46.326542032016896,-23.718542219225988,0.0],[-46.32670849467307,-23.71884235463932,0.0],[-46.326960862723574,-23.718961442239458,0.0],[-46.32699365286764,-23.71908374682795,0.0],[-46.32628536580118,-23.719579375531094,0.0],[-46.326095821588886,-23.720234251068888,0.0],[-46.32614362143574,-23.720356881435848,0.0],[-46.326455116149255,-23.72061754571831,0.0],[-46.32670389296941,-23.720624686510718,0.0],[-46.32695274435827,-23.720522306848213,0.0],[-46.32709414930061,-23.72057563030187,0.0],[-46.327128444894036,-23.72094490464994,0.0],[-46.32699349852462,-23.721327378832523,0.0],[-46.32700295849029,-23.721888175659263,0.0],[-46.32767992691691,-23.722554162562506,0.0],[-46.32772846728072,-23.722793992038664,0.0],[-46.327686628275536,-23.722887750347933,0.0],[-46.32755353860011,-23.722929835290884,0.0],[-46.3270655482946,-23.72283692509947,0.0],[-46.32644672230221,-23.723246876828288,0.0],[-46.32599991230077,-23.72369381417926,0.0],[-46.32584659589693,-23.72400635972085,0.0],[-46.32583012504559,-23.724400847327065,0.0],[-46.32590938385745,-23.724676036832555,0.0],[-46.326247622995325,-23.72462452658486,0.0],[-46.32653456990786,-23.724741317144634,0.0],[-46.32684715940905,-23.725043755948963,0.0],[-46.3269003712647,-23.72554156541325,0.0],[-46.327024884493056,-23.72583752041442,0.0],[-46.32701897579754,-23.726356417882236,0.0],[-46.32684760029457,-23.72682979502299,0.0],[-46.326486960489596,-23.727086475252687,0.0],[-46.32633125072266,-23.727826097005355,0.0],[-46.326381645449956,-23.727928710125088,0.0],[-46.326674709772405,-23.728063496184962,0.0],[-46.32732164535099,-23.728157512128586,0.0],[-46.32745526760487,-23.7284052951748,0.0],[-46.32734030987906,-23.729062724598776,0.0],[-46.32703412225044,-23.72941376954709,0.0],[-46.32643697071692,-23.72981371444737,0.0],[-46.32564025758803,-23.729899144846847,0.0],[-46.32511177241098,-23.73052879495933,0.0],[-46.324482701317734,-23.730866315418865,0.0],[-46.324406313293785,-23.73142354707966,0.0],[-46.32415356957566,-23.73209151628021,0.0],[-46.32416282604823,-23.732668348138215,0.0],[-46.32425227459149,-23.732960022523283,0.0],[-46.323972686936216,-23.733625803630485,0.0],[-46.32360891829658,-23.734013306569157,0.0],[-46.32324084659466,-23.73497800404464,0.0],[-46.322780495530445,-23.735065379837515,0.0],[-46.32246504089213,-23.73528361941071,0.0],[-46.32143053650033,-23.735489729225232,0.0],[-46.32060847117042,-23.736359280050927,0.0],[-46.32029937184133,-23.736520341386875,0.0],[-46.319996535299154,-23.736520114354366,0.0],[-46.3194368579678,-23.736178233181437,0.0],[-46.31916453540801,-23.736156539594447,0.0],[-46.31839181097505,-23.73680393200124,0.0],[-46.31777451715294,-23.7370850186693,0.0],[-46.31717736184624,-23.737149451928836,0.0],[-46.31687211111105,-23.73759004351895,0.0],[-46.31682757857255,-23.738091227520364,0.0],[-46.31672853179037,-23.738301915975942,0.0],[-46.31700170498269,-23.73878846449503,0.0],[-46.317003179510195,-23.739229531326934,0.0],[-46.31689654452865,-23.73961989389925,0.0],[-46.31766712054857,-23.740578257111093,0.0],[-46.31785103907988,-23.740679279215964,0.0],[-46.31796697767418,-23.74098068577883,0.0],[-46.31815078346103,-23.741081809628707,0.0],[-46.31826785076736,-23.741279633987237,0.0],[-46.319038125014295,-23.74199294826272,0.0],[-46.31914408435238,-23.74220119052575,0.0],[-46.319631987348096,-23.74266658050628,0.0],[-46.31974800796429,-23.74286538856449,0.0],[-46.32098362427616,-23.7434842275802,0.0],[-46.322038146670714,-23.744278278953715,0.0],[-46.322188462086295,-23.744451887369486,0.0],[-46.32217636056179,-23.74461357021176,0.0],[-46.3217360718819,-23.745024747632783,0.0],[-46.321235206706824,-23.745243845931594,0.0],[-46.32024496705525,-23.74586596352715,0.0],[-46.31991707011577,-23.74585656736269,0.0],[-46.31947314456904,-23.745374753843716,0.0],[-46.318996606720084,-23.745362092537924,0.0],[-46.318472044763,-23.745667035661242,0.0],[-46.31822058983607,-23.74601837625472,0.0],[-46.31793456152136,-23.746165533693805,0.0],[-46.31781775004609,-23.74600333096251,0.0],[-46.31779206092953,-23.745200613899332,0.0],[-46.317619331427345,-23.744997799146006,0.0],[-46.31726723680181,-23.744849367045862,0.0],[-46.31645313959362,-23.744826478993446,0.0],[-46.31612725324055,-23.74468765250923,0.0],[-46.3159843984743,-23.74420563711921,0.0],[-46.31564269573929,-23.743976244932327,0.0],[-46.315526847699665,-23.743810715361832,0.0],[-46.31468026785015,-23.74391746819316,0.0],[-46.31457388552993,-23.74401214160465,0.0],[-46.31453196557777,-23.744511469848167,0.0],[-46.31438537490019,-23.7446921955513,0.0],[-46.31371730523143,-23.745162287681172,0.0],[-46.31333905269579,-23.745625765227448,0.0],[-46.31302317118285,-23.745709468729316,0.0],[-46.31284836093829,-23.74585350098047,0.0],[-46.31269193037801,-23.746159528652576,0.0],[-46.31262590625001,-23.74659204736995,0.0],[-46.31216331336304,-23.747277279803356,0.0],[-46.31161126820715,-23.747186030309447,0.0],[-46.31106644171832,-23.74731131718952,0.0],[-46.31026171663391,-23.747079154911017,0.0],[-46.30954764011228,-23.747702802984797,0.0],[-46.309253993718606,-23.747840177146106,0.0],[-46.30789454684423,-23.74816024499073,0.0],[-46.307453349824975,-23.748139128743173,0.0],[-46.30655689024121,-23.747676777041487,0.0],[-46.30632107564314,-23.748005493504344,0.0],[-46.30567989984392,-23.748503109545545,0.0],[-46.30557089549723,-23.748673031683303,0.0],[-46.30495933068873,-23.748758003434894,0.0],[-46.30411425572004,-23.749370121131555,0.0],[-46.30376473899586,-23.74945698428085,0.0],[-46.30318771465085,-23.74987512808968,0.0],[-46.30293657200151,-23.750319475673518,0.0],[-46.30260881141291,-23.750427286081585,0.0],[-46.302317610875726,-23.750760499978362,0.0],[-46.3015423477604,-23.750529916077237,0.0],[-46.30109272592018,-23.750528506503684,0.0],[-46.30039664808319,-23.750775654477625,0.0],[-46.299827454077075,-23.750831875126256,0.0],[-46.299398792666736,-23.75118356746417,0.0],[-46.29859421523644,-23.75134779975956,0.0],[-46.29846783517674,-23.751288267967738,0.0],[-46.29832973535263,-23.75105051801567,0.0],[-46.29810717378442,-23.75034636521638,0.0],[-46.29795462588225,-23.750170374665796,0.0],[-46.29678204918424,-23.749127631438952,0.0],[-46.29628715623746,-23.749031117171487,0.0],[-46.29610424498947,-23.748825429847763,0.0],[-46.295863314828345,-23.74882077437573,0.0],[-46.29542185492757,-23.748963246896377,0.0],[-46.29481864700477,-23.749325781966114,0.0],[-46.29407876092451,-23.74952966153938,0.0],[-46.29388765923181,-23.749837935398556,0.0],[-46.29369130506763,-23.750913235336725,0.0],[-46.29333233694046,-23.751036285031514,0.0],[-46.293083705260294,-23.751348491199682,0.0],[-46.29290255352256,-23.751453311291936,0.0],[-46.292823460790366,-23.751874635954085,0.0],[-46.2926925353442,-23.752026378398078,0.0],[-46.29226687196391,-23.752203822836677,0.0],[-46.29172817446008,-23.751995782589105,0.0],[-46.29131203150022,-23.752194670067105,0.0],[-46.29086848465204,-23.75226579764199,0.0],[-46.29074936569223,-23.752997322788787,0.0],[-46.28997718588845,-23.75350759009841,0.0],[-46.28947456958411,-23.75421667189904,0.0],[-46.28850445152309,-23.754458571439454,0.0],[-46.28825648913162,-23.7548049449902,0.0],[-46.28763078210316,-23.755414017547377,0.0],[-46.28728511761485,-23.75599665802138,0.0],[-46.286935307781796,-23.75616295879626,0.0],[-46.28645300455859,-23.756268436790812,0.0],[-46.28656340635295,-23.756653203999186,0.0],[-46.28654806339612,-23.756937579254725,0.0],[-46.285609060511035,-23.75771464551363,0.0],[-46.28528730496752,-23.7581759468733,0.0],[-46.2851641798222,-23.758565151508993,0.0],[-46.28521677552829,-23.758726339264612,0.0],[-46.28499916529734,-23.7591526303986,0.0],[-46.28511503237658,-23.759469735053443,0.0],[-46.285115809958334,-23.759894426659375,0.0],[-46.284726631483224,-23.76021681117047,0.0],[-46.28466504012192,-23.76074341533882,0.0],[-46.28441155052191,-23.76110136934618,0.0],[-46.28444946246419,-23.761592244137848,0.0],[-46.28483812979505,-23.761823854408384,0.0],[-46.2851275436511,-23.762102907203744,0.0],[-46.285145787770176,-23.762426539522366,0.0],[-46.28503653385396,-23.762711610452044,0.0],[-46.28512950461403,-23.763046918036085,0.0],[-46.284476015465415,-23.76383842626395,0.0],[-46.28423726126817,-23.76429386120461,0.0],[-46.28405251669603,-23.7643955036097,0.0],[-46.283925031024694,-23.764582783547652,0.0],[-46.2832862939033,-23.764858772185868,0.0],[-46.28330580549786,-23.764982352338397,0.0],[-46.2835304022325,-23.765231536762446,0.0],[-46.28361113639102,-23.765798524774738,0.0],[-46.28397163603572,-23.766296043489987,0.0],[-46.28370220213946,-23.76685165766748,0.0],[-46.28310029365419,-23.767427589840306,0.0],[-46.28262413087002,-23.767634927311605,0.0],[-46.28234034115974,-23.767848278082916,0.0],[-46.281866727069286,-23.767923683273093,0.0],[-46.28147780053722,-23.768377602336738,0.0],[-46.28087131305511,-23.76860140495017,0.0],[-46.28047708299822,-23.769084100055412,0.0],[-46.279852117761514,-23.769425443046664,0.0],[-46.279722873503076,-23.769610685198522,0.0],[-46.27920617725934,-23.769726205011978,0.0],[-46.278806721530074,-23.770095998748285,0.0],[-46.278773076513,-23.770207240762435,0.0],[-46.27903667087472,-23.770489963501234,0.0],[-46.27908648803382,-23.771357880960693,0.0],[-46.279459597108584,-23.77173733652515,0.0],[-46.27983716710555,-23.772704794737486,0.0],[-46.2802082044797,-23.77322282930781,0.0],[-46.28030259310177,-23.773544408860058,0.0],[-46.28109128998997,-23.774036074299918,0.0],[-46.281194414072,-23.774351417999736,0.0],[-46.2813426812558,-23.774486977167793,0.0],[-46.28158313279351,-23.774510646721854,0.0],[-46.28182836693807,-23.774435117077832,0.0],[-46.28235319388834,-23.77513328899534,0.0],[-46.28285982111162,-23.775228089306196,0.0],[-46.28280119804817,-23.77562155856565,0.0],[-46.28305055858133,-23.77607202461484,0.0],[-46.283111982930464,-23.776470639778562,0.0],[-46.2832890205753,-23.77689711549061,0.0],[-46.28419894894404,-23.777103975155242,0.0],[-46.28520832195266,-23.777702521822125,0.0],[-46.28554507467402,-23.77749204709576,0.0],[-46.28647327589564,-23.777387677256964,0.0],[-46.28674906724709,-23.777662835335065,0.0],[-46.28697575293311,-23.778500371382304,0.0],[-46.287498048381565,-23.779013429512638,0.0],[-46.28756527331984,-23.779680076934078,0.0],[-46.28788377118753,-23.77997755644633,0.0],[-46.28811556176162,-23.780010916438208,0.0],[-46.28848394366506,-23.779914065806157,0.0],[-46.28850191708309,-23.78012323203032,0.0],[-46.288932838079106,-23.780390118739724,0.0],[-46.28935741881227,-23.78043774389926,0.0],[-46.289677519664785,-23.780582219181476,0.0],[-46.28981314345978,-23.780796864216153,0.0],[-46.29013902057688,-23.781004142537313,0.0],[-46.290273480042146,-23.781185686594362,0.0],[-46.29086796006247,-23.781380507894415,0.0],[-46.291155377160514,-23.781589611494244,0.0],[-46.291481283617436,-23.78166017500948,0.0],[-46.29238460961602,-23.78231739050555,0.0],[-46.292668525610225,-23.78259813874789,0.0],[-46.292746093047256,-23.782889955425023,0.0],[-46.29289742795242,-23.78306715753583,0.0],[-46.29369258589345,-23.783644914438486,0.0],[-46.293703942302685,-23.783732523984746,0.0],[-46.29347975527955,-23.784011386457205,0.0],[-46.293490747919904,-23.78437390143423,0.0],[-46.29447334016374,-23.78528121369157,0.0],[-46.29471302896405,-23.785603776850376,0.0],[-46.29492384512179,-23.785726508291223,0.0],[-46.29509679169405,-23.786104236813834,0.0],[-46.29497818485062,-23.786629377336524,0.0],[-46.29531590290687,-23.787362121521166,0.0],[-46.2959238247545,-23.787578665957504,0.0],[-46.29605673242412,-23.787761760368536,0.0],[-46.296366851159505,-23.78791627135162,0.0],[-46.29711052867948,-23.788029373342262,0.0],[-46.297342176387474,-23.78794517675564,0.0],[-46.297792582800966,-23.787943376991834,0.0],[-46.298735725688374,-23.78832764763171,0.0],[-46.29890140012227,-23.788285495855966,0.0],[-46.29905757623814,-23.78802051321659,0.0],[-46.29926447337525,-23.787309057783123,0.0],[-46.29943156253035,-23.787015705860632,0.0],[-46.29958047980448,-23.786990351126203,0.0],[-46.29993612600471,-23.787096035541957,0.0],[-46.30045721876056,-23.78697320053999,0.0],[-46.30082426386793,-23.787044167563064,0.0],[-46.30154051764255,-23.786235293954324,0.0],[-46.30159465959534,-23.785568384796594,0.0],[-46.30185611138075,-23.78504400097312,0.0],[-46.30187241034987,-23.783940287527184,0.0],[-46.302256236591774,-23.78281060200614,0.0],[-46.30230096654437,-23.78231355689211,0.0],[-46.302420474689264,-23.782015869019187,0.0],[-46.30240277592477,-23.781497974078633,0.0],[-46.30214695052221,-23.781183766265823,0.0],[-46.30214131971264,-23.780788399826612,0.0],[-46.30250893125356,-23.78039964221727,0.0],[-46.30261217578039,-23.780056490125542,0.0],[-46.303081829875964,-23.779708958538606,0.0],[-46.303186953227154,-23.779266920714242,0.0],[-46.30393342062127,-23.77883154408191,0.0],[-46.30410218345236,-23.778852936060243,0.0],[-46.30426355225148,-23.7791809716439,0.0],[-46.30499818517777,-23.779250156356905,0.0],[-46.305151326411874,-23.779524332952473,0.0],[-46.30506976953128,-23.77990802611525,0.0],[-46.305206768417314,-23.78000643380576,0.0],[-46.30595828776487,-23.779994583449707,0.0],[-46.30644667616394,-23.779760693044388,0.0],[-46.30701618901275,-23.77963573668701,0.0],[-46.30730409481152,-23.779717805990668,0.0],[-46.307721966811705,-23.77970745208874,0.0],[-46.30821505532723,-23.77948443381794,0.0],[-46.30882839916233,-23.779826212517527,0.0],[-46.310049583196154,-23.779966810668927,0.0],[-46.310686717235825,-23.77946065763177,0.0],[-46.31108314702793,-23.779304563202572,0.0],[-46.31119617330874,-23.77936332294896,0.0],[-46.311294530729306,-23.779638367970236,0.0],[-46.311591972966845,-23.779449008474348,0.0],[-46.311726865987715,-23.779438702224088,0.0],[-46.31216609916904,-23.77977361495223,0.0],[-46.31250616002692,-23.779865936129593,0.0],[-46.31269569174903,-23.780326428595387,0.0],[-46.31274381705065,-23.780966031943958,0.0],[-46.31296667337821,-23.78128275974538,0.0],[-46.31380056387909,-23.781137772440733,0.0],[-46.31443522918405,-23.780904775574175,0.0],[-46.315006402901346,-23.78085015683244,0.0],[-46.31535242272137,-23.780680775795506,0.0],[-46.315752574093345,-23.780236295836914,0.0],[-46.31649105286194,-23.780573840946058,0.0],[-46.317240549417505,-23.780623799794732,0.0],[-46.317541694278056,-23.780797354512256,0.0],[-46.31765189344778,-23.781230908059698,0.0],[-46.31794307143282,-23.78137359207953,0.0],[-46.31820517679757,-23.781395820138144,0.0],[-46.31840985891887,-23.781345545858414,0.0],[-46.31851998201318,-23.781173543059918,0.0],[-46.318860400361494,-23.780942491033855,0.0],[-46.319069155623815,-23.78037045999799,0.0],[-46.31920284811903,-23.78022280005763,0.0],[-46.31984915017739,-23.780124295010815,0.0],[-46.320265580509336,-23.77952747144944,0.0],[-46.320903550858446,-23.779432609214233,0.0],[-46.32145133306289,-23.778953503205056,0.0],[-46.32215343008216,-23.778921477166033,0.0],[-46.32257609703467,-23.77904376103062,0.0],[-46.32314256700586,-23.779041446641926,0.0],[-46.323657754646675,-23.778665555643194,0.0],[-46.324345964795135,-23.778612621232874,0.0],[-46.324694428462834,-23.778498471529854,0.0],[-46.32486806298978,-23.77852984662912,0.0],[-46.3251343339296,-23.778730226246054,0.0],[-46.32557997175104,-23.778852998433514,0.0],[-46.32598573804603,-23.778520148903144,0.0],[-46.32642446109782,-23.77834758732718,0.0],[-46.32660852075124,-23.778366403166395,0.0],[-46.32707340835983,-23.778591096005794,0.0],[-46.32740733125272,-23.778601048777922,0.0],[-46.327651404835436,-23.77844946759442,0.0],[-46.32791790363617,-23.77808446973452,0.0],[-46.328535388410806,-23.77779945107066,0.0],[-46.3291008607955,-23.7777743965084,0.0],[-46.32929140143799,-23.777848664519396,0.0],[-46.32950936439349,-23.77878504582266,0.0],[-46.32972887435713,-23.77903503254434,0.0],[-46.32982482066466,-23.779355238262266,0.0],[-46.33035985313506,-23.779903292467317,0.0],[-46.330356254201114,-23.78067722906984,0.0],[-46.32998521652588,-23.781215768475942,0.0],[-46.33015573287742,-23.781400220846987,0.0],[-46.33087845870113,-23.781398087627778,0.0],[-46.331603537239594,-23.78064087698359,0.0],[-46.33207569002777,-23.780563983575295,0.0],[-46.33238859469863,-23.78034324863102,0.0],[-46.33316495037569,-23.780302934798986,0.0],[-46.33351356486206,-23.780183232568316,0.0],[-46.33374786470104,-23.78023135930346,0.0],[-46.33444880632238,-23.780823449083144,0.0],[-46.33487212685645,-23.780718874456024,0.0],[-46.33521400672211,-23.78081550247774,0.0],[-46.335533153201126,-23.780724193232704,0.0],[-46.33584045617824,-23.780823466892752,0.0],[-46.33641884664295,-23.780828575737896,0.0],[-46.3368898649292,-23.780709894747606,0.0],[-46.3376692710766,-23.781065202147698,0.0],[-46.33791502078408,-23.781076069238395,0.0],[-46.33871654174926,-23.78065555117482,0.0],[-46.33890688689248,-23.779982855560164,0.0],[-46.33885774594045,-23.779744240789892,0.0],[-46.33869677348445,-23.779619624435917,0.0],[-46.33833595310581,-23.77953351470667,0.0],[-46.33804816114276,-23.779123703041083,0.0],[-46.338359178563095,-23.778153093400142,0.0],[-46.33884141290582,-23.777984554203464,0.0],[-46.33957539833235,-23.777908837372603,0.0],[-46.33967687380334,-23.77759603090372,0.0],[-46.33988356695954,-23.77734281676095,0.0],[-46.339786014219136,-23.777004641947244,0.0],[-46.33986081881073,-23.77689257033448,0.0],[-46.340419617329644,-23.776869084526943,0.0],[-46.340779654925505,-23.776987377524833,0.0],[-46.341078100504305,-23.776988356770616,0.0],[-46.34131506778062,-23.77676347723963,0.0],[-46.341605906145226,-23.776687507746903,0.0],[-46.34194185585679,-23.776466342736366,0.0],[-46.34233373108329,-23.776685148678435,0.0],[-46.34254330061854,-23.776657336201993,0.0],[-46.34412290321427,-23.77530723418077,0.0],[-46.344013313607554,-23.774758101792713,0.0],[-46.344107163954256,-23.77431372585166,0.0],[-46.34389977566289,-23.773911425864984,0.0],[-46.344456382321404,-23.773364829049683,0.0],[-46.344689435274674,-23.773345075950374,0.0],[-46.34493950626546,-23.773659932971896,0.0],[-46.345549145541575,-23.77388079975452,0.0],[-46.34572199512626,-23.77408596360107,0.0],[-46.34587278892538,-23.774071536931807,0.0],[-46.3461909062057,-23.773849385166177,0.0],[-46.34669922294523,-23.773854428979934,0.0],[-46.34721683219486,-23.774324575788388,0.0],[-46.347813709161926,-23.773897906258377,0.0],[-46.34818674513986,-23.773435348021412,0.0],[-46.34848686399056,-23.773315987616574,0.0],[-46.348802586685714,-23.773499624822268,0.0],[-46.34907270551167,-23.77330541879587,0.0],[-46.34942629736877,-23.77320694251736,0.0],[-46.3496465679502,-23.772910279254273,0.0],[-46.349841880528395,-23.77278200795705,0.0],[-46.34978767961615,-23.772483711323392,0.0],[-46.350122105969504,-23.77200196222282,0.0],[-46.35020827339163,-23.77167659552215,0.0],[-46.350507244659624,-23.77127555074603,0.0],[-46.3507136959093,-23.77114879622653,0.0],[-46.351093505970574,-23.770560153151013,0.0],[-46.351298124449734,-23.770425976740484,0.0],[-46.35167851859149,-23.770509739863883,0.0],[-46.35203375706845,-23.7703083508449,0.0],[-46.35232459973018,-23.770469913524543,0.0],[-46.35238963821251,-23.77100546676025,0.0],[-46.35255275137932,-23.771172014750007,0.0],[-46.353491236126445,-23.771247795692293,0.0],[-46.35345846505984,-23.771574167332247,0.0],[-46.35394943773084,-23.77204956489056,0.0],[-46.35404290782148,-23.77250927591489,0.0],[-46.35471637349075,-23.77302158683981,0.0],[-46.35484133974406,-23.77346100056334,0.0],[-46.35450759956625,-23.773678767751036,0.0],[-46.354204356239194,-23.77411894927774,0.0],[-46.35457438176554,-23.774379291223504,0.0],[-46.35485483559583,-23.77487196383929,0.0],[-46.35477076031468,-23.775165749046657,0.0],[-46.35476968228159,-23.77570026768203,0.0],[-46.35495029787393,-23.77640250942317,0.0],[-46.35510155431909,-23.77655507434382,0.0],[-46.35533117204546,-23.776518455165196,0.0],[-46.35652323700557,-23.777069817426383,0.0],[-46.35668254008499,-23.777400617975253,0.0],[-46.356413307064216,-23.777860790953007,0.0],[-46.3565837888288,-23.77878689024247,0.0],[-46.356972487870934,-23.779200585187855,0.0],[-46.35714300877061,-23.779531045979127,0.0],[-46.35711997968191,-23.779660286058217,0.0],[-46.35689722538405,-23.779913372815518,0.0],[-46.35689153120898,-23.780135034468863,0.0],[-46.357258135293264,-23.780296016216816,0.0],[-46.357416915857144,-23.7804928131167,0.0],[-46.357789551989214,-23.78062525748135,0.0],[-46.35844721482622,-23.780387798423142,0.0],[-46.35915834515021,-23.780266768279812,0.0],[-46.360131057601535,-23.78047952324834,0.0],[-46.36069829682754,-23.78047664865904,0.0],[-46.36083391898749,-23.78037330490224,0.0],[-46.36091742870327,-23.779837991796697,0.0],[-46.361686690841246,-23.77992419910278,0.0],[-46.361825168872706,-23.77987701447938,0.0],[-46.36195526299377,-23.7796935917479,0.0],[-46.36207858191604,-23.779682532744552,0.0],[-46.36227579134183,-23.779975622903308,0.0],[-46.36222668376871,-23.780140476441893,0.0],[-46.36231872633401,-23.780550921070713,0.0],[-46.36221209866729,-23.78094378553684,0.0],[-46.36237276911447,-23.78124153669401,0.0],[-46.36282334183868,-23.781641886561932,0.0],[-46.36329866723949,-23.781709710413317,0.0],[-46.363866621129546,-23.782038029360056,0.0],[-46.36434638122543,-23.78184750114572,0.0],[-46.36462021015347,-23.7820383113692,0.0],[-46.365061331358476,-23.782106635055598,0.0],[-46.365243966376084,-23.782312338777,0.0],[-46.36577900915427,-23.782467571224892,0.0],[-46.366244064235396,-23.782429290021998,0.0],[-46.36635611543375,-23.782132682155147,0.0],[-46.36647563077077,-23.782064779392567,0.0],[-46.366685817327024,-23.78207988494282,0.0],[-46.36695334802792,-23.782282632532507,0.0],[-46.3671275668515,-23.782315066934018,0.0],[-46.36803551517231,-23.782082019558757,0.0],[-46.36832515289631,-23.782223116800456,0.0],[-46.36842900302194,-23.78254360293419,0.0],[-46.368651034134324,-23.782701414958886,0.0],[-46.3689124804776,-23.782562105224727,0.0],[-46.369187892747554,-23.782066213967017,0.0],[-46.369922292945525,-23.781885981124145,0.0],[-46.37024854154768,-23.781923212156933,0.0],[-46.37139544086159,-23.782526120886498,0.0],[-46.371898945724325,-23.78267479313906,0.0],[-46.37226490949971,-23.782667440091867,0.0],[-46.37259993318076,-23.782496785927687,0.0],[-46.372693251433844,-23.78217781010178,0.0],[-46.372952562606734,-23.781784481204337,0.0],[-46.373482943825536,-23.78159301127322,0.0],[-46.374046030536334,-23.78174795574406,0.0],[-46.3743392387969,-23.781954040318464,0.0],[-46.37479923967915,-23.782032735162154,0.0],[-46.37476766793573,-23.782326451569748,0.0],[-46.375091225620224,-23.782547199227512,0.0],[-46.37525340513894,-23.78288409944244,0.0],[-46.375824870169836,-23.782759906395526,0.0],[-46.37600983069853,-23.782622594963073,0.0],[-46.37615449435106,-23.78243950074013,0.0],[-46.37625358504192,-23.78200294007831,0.0],[-46.37690728688371,-23.78194747880937,0.0],[-46.37726075132476,-23.781844243137776,0.0],[-46.37731041242332,-23.781900652859235,0.0],[-46.37722553073335,-23.782101571939876,0.0],[-46.37722298762334,-23.78249183539767,0.0],[-46.3774050347688,-23.782871531661335,0.0],[-46.37758138900724,-23.783014186058058,0.0],[-46.37802707877973,-23.783143277503065,0.0],[-46.378683454998196,-23.783223084601264,0.0],[-46.378819870103825,-23.783369362587777,0.0],[-46.37897077830179,-23.78394467511628,0.0],[-46.37889022044681,-23.784310621690175,0.0],[-46.379639860765515,-23.784879017978945,0.0],[-46.38023263200252,-23.78504367374465,0.0],[-46.38072459508061,-23.784952522499815,0.0],[-46.381271810920566,-23.78526532163526,0.0],[-46.38152563471555,-23.78518210570046,0.0],[-46.381852770625336,-23.78519258171521,0.0],[-46.38214770457636,-23.785535182275456,0.0],[-46.38252825079862,-23.78569538838031,0.0],[-46.38301309135715,-23.785687121357167,0.0],[-46.38338896218679,-23.78548236473532,0.0],[-46.38361531617065,-23.785888562621427,0.0],[-46.38384003440688,-23.78604443272758,0.0],[-46.38394022454777,-23.786453706931503,0.0],[-46.38428333458038,-23.78654494640144,0.0],[-46.38443171338404,-23.78668869030788,0.0],[-46.384194833472456,-23.78732615896584,0.0],[-46.38422240708251,-23.788055676084298,0.0],[-46.384348336589134,-23.78812050655505,0.0],[-46.3850341434371,-23.78816147285013,0.0],[-46.38542317635412,-23.788480387644842,0.0],[-46.38576386597255,-23.788571186202013,0.0],[-46.38625385013716,-23.789164978422473,0.0],[-46.3862460577368,-23.789527366489512,0.0],[-46.38599215443413,-23.790018246874947,0.0],[-46.38610393529554,-23.790380926297132,0.0],[-46.38603881809865,-23.79060461536849,0.0],[-46.38611314546179,-23.79101904283797,0.0],[-46.38559905294698,-23.791542014378678,0.0],[-46.38498449182636,-23.79260130993001,0.0],[-46.38502970277587,-23.792810736525706,0.0],[-46.3852176474406,-23.792910330235856,0.0],[-46.385544659387854,-23.793335925866558,0.0],[-46.385613961133515,-23.793865569817584,0.0],[-46.38607363220533,-23.794028477212052,0.0],[-46.38636356395272,-23.793937626298966,0.0],[-46.386684138057944,-23.793961648499323,0.0],[-46.38695345778651,-23.794430513639746,0.0],[-46.387276164345415,-23.794710377796054,0.0],[-46.38796958340509,-23.794856792844257,0.0],[-46.38831700673896,-23.79469997145998,0.0],[-46.38840933914455,-23.79454225475298,0.0],[-46.38843715845877,-23.794680564453387,0.0],[-46.38862033812678,-23.794778371532676,0.0],[-46.38873796677325,-23.79494411068318,0.0],[-46.3891765002526,-23.795016274631685,0.0],[-46.389259830208964,-23.795099540812583,0.0],[-46.38926594858876,-23.795421248618325,0.0],[-46.38901753485326,-23.795742531111685,0.0],[-46.388947936622486,-23.79630684701828,0.0],[-46.38850376360363,-23.796979229014397,0.0],[-46.38816275085386,-23.797074014378964,0.0],[-46.38786676901943,-23.79734355905403,0.0],[-46.38743056950238,-23.798163981083935,0.0],[-46.3874026498471,-23.79834556056573,0.0],[-46.3874499243005,-23.798476867941375,0.0],[-46.38763562656555,-23.79858646893924,0.0],[-46.38754323144542,-23.79911779613245,0.0],[-46.38756833407162,-23.799371710087268,0.0],[-46.38765021913274,-23.799456963240672,0.0],[-46.38804164563731,-23.799456434256474,0.0],[-46.388503269382525,-23.79922263893109,0.0],[-46.388767226637505,-23.799189911715665,0.0],[-46.389101899000366,-23.79921996728638,0.0],[-46.38937242319955,-23.799413820631717,0.0],[-46.38998651603667,-23.799312510701196,0.0],[-46.39025487680633,-23.79933542143621,0.0],[-46.39032881492889,-23.799412790795152,0.0],[-46.39021579881937,-23.799770820208142,0.0],[-46.390221889394695,-23.80025275127396,0.0],[-46.39049661125623,-23.801046047453127,0.0],[-46.390538625808034,-23.801835289888103,0.0],[-46.39081440137744,-23.802520944981218,0.0],[-46.39077830602817,-23.802733006249355,0.0],[-46.39073140210325,-23.80283047492638,0.0],[-46.38996740484544,-23.803119675144544,0.0],[-46.38951895032076,-23.803326629023303,0.0],[-46.38951960733875,-23.80338837963722,0.0],[-46.3898127723373,-23.80390625537196,0.0],[-46.39039986908561,-23.804112700611373,0.0],[-46.39056454986289,-23.804270018504237,0.0],[-46.39094560801966,-23.804937079633913,0.0],[-46.39069848910943,-23.80514222144843,0.0],[-46.39074980948177,-23.805459362426014,0.0],[-46.39091637172012,-23.80579310843864,0.0],[-46.39086861704077,-23.806711060630583,0.0],[-46.39108339985793,-23.80797071589769,0.0],[-46.39109923652484,-23.80872462356257,0.0],[-46.390889520467475,-23.809740749268435,0.0],[-46.39112457026808,-23.810034767746732,0.0],[-46.39138542173675,-23.810217683133835,0.0],[-46.3923081402289,-23.810573585342187,0.0],[-46.39246006913618,-23.810773416679396,0.0],[-46.393241864432596,-23.811237003241086,0.0],[-46.39412185621127,-23.81219074412684,0.0],[-46.39423131781278,-23.812537136975802,0.0],[-46.39449251753511,-23.812671472129388,0.0],[-46.39501079265339,-23.812372470722277,0.0],[-46.39528699448897,-23.812117547292484,0.0],[-46.39568471308011,-23.811369547323384,0.0],[-46.396023207353394,-23.811271534028187,0.0],[-46.396315375387424,-23.81106058570379,0.0],[-46.39673653176982,-23.811065117104352,0.0],[-46.39715051615822,-23.811400211683903,0.0],[-46.39746739288784,-23.81148024731679,0.0],[-46.39760412665899,-23.81166251458634,0.0],[-46.39781064430952,-23.81171125698143,0.0],[-46.39818120415017,-23.811681332071867,0.0],[-46.39844196794373,-23.811442857307146,0.0],[-46.399268261030585,-23.811416236814456,0.0],[-46.399586050234866,-23.81130047655581,0.0],[-46.4,-23.81127977440257,0.0],[-46.4,-23.679999999999996,0.0],[-46.378922164724116,-23.680014350701594,0.0]]]}},{"type":"Feature","properties":{"fonte":"APMs/APRMs da RMSP","nome":"Alto Tietê  Cabeceiras","manancial":"Alto Tietê Cabeceiras","area_km2":1258.5657392143555,"criticidade":"Crítica"},"geometry":{"type":"Polygon","coordinates":[[[-46.22001249658558,-23.742498033111346,0.0],[-46.2204082134339,-23.742285197229318,0.0],[-46.220849958994734,-23.74221478540314,0.0],[-46.22102273171002,-23.742001748883496,0.0],[-46.22190060454456,-23.741654363286052,0.0],[-46.222075229449224,-23.741185205488115,0.0],[-46.22210886563266,-23.740720325653673,0.0],[-46.222188028926595,-23.740633748883546,0.0],[-46.22257889336017,-23.740628251524253,0.0],[-46.22304861374811,-23.7408396880053,0.0],[-46.2235064457539,-23.740632607224462,0.0],[-46.223906312478036,-23.740707700828196,0.0],[-46.22407463459668,-23.740500401512836,0.0],[-46.22442242140533,-23.740336962088218,0.0],[-46.22478285518808,-23.74035077078685,0.0],[-46.22493309250122,-23.740536889441763,0.0],[-46.22502511210624,-23.740531463156497,0.0],[-46.22528123218725,-23.7401479003125,0.0],[-46.22544883692762,-23.73967015460144,0.0],[-46.22532287168125,-23.73914927692004,0.0],[-46.22548265327509,-23.738493669976428,0.0],[-46.22610547629241,-23.73736659668221,0.0],[-46.22684718978758,-23.737298964158228,0.0],[-46.22739657728193,-23.736820771345357,0.0],[-46.22796709772433,-23.7366600443925,0.0],[-46.22845819273691,-23.736802660014497,0.0],[-46.228748207246774,-23.737010916585014,0.0],[-46.22931691581397,-23.737059233584535,0.0],[-46.229634505022,-23.737274228974663,0.0],[-46.23049914718415,-23.737455231102093,0.0],[-46.231018325581516,-23.737688960819103,0.0],[-46.23168064459611,-23.737678509357053,0.0],[-46.231994755734114,-23.737524324804923,0.0],[-46.2321672563508,-23.737310740930294,0.0],[-46.233241698517425,-23.737023946343708,0.0],[-46.23378647909204,-23.73717612897088,0.0],[-46.23403486786388,-23.737491730205587,0.0],[-46.234470006189866,-23.737772679936207,0.0],[-46.234917097835854,-23.737789943278397,0.0],[-46.23553841709198,-23.73723811366229,0.0],[-46.235918131894834,-23.736607909447947,0.0],[-46.23658249836441,-23.736089758485782,0.0],[-46.236785397336945,-23.73528813835435,0.0],[-46.23714156769927,-23.734504723177043,0.0],[-46.23709925443285,-23.734422685670236,0.0],[-46.237558346131195,-23.734567102427643,0.0],[-46.237826482332316,-23.735033382552526,0.0],[-46.238122272259716,-23.735302945683394,0.0],[-46.23903879224595,-23.735708526735692,0.0],[-46.23934399234349,-23.735764294221333,0.0],[-46.23950130874228,-23.735890250772414,0.0],[-46.23959186668026,-23.73647732232519,0.0],[-46.23995060677528,-23.7367334804805,0.0],[-46.24006908088785,-23.737032473324323,0.0],[-46.24026962303628,-23.737163500441333,0.0],[-46.24036435608988,-23.737712497737487,0.0],[-46.241305956124634,-23.73833375258851,0.0],[-46.241372756621395,-23.739136687465532,0.0],[-46.241625711635876,-23.73971984591117,0.0],[-46.24168073608749,-23.740216643100077,0.0],[-46.24180535065728,-23.74051180387158,0.0],[-46.24178635900554,-23.740793824573593,0.0],[-46.24153645320563,-23.741387749900827,0.0],[-46.24156525039218,-23.741759292591826,0.0],[-46.24205767916006,-23.74158556211115,0.0],[-46.24235698651913,-23.74178718315057,0.0],[-46.24331573270167,-23.741815046166558,0.0],[-46.24399207288371,-23.7421040257851,0.0],[-46.24415197124506,-23.742273125290676,0.0],[-46.244237979464536,-23.742693674467706,0.0],[-46.24500226244109,-23.743040410813915,0.0],[-46.245170087062434,-23.74330522895312,0.0],[-46.24517630649669,-23.7436255829767,0.0],[-46.24508272247561,-23.743910312111534,0.0],[-46.24509468867839,-23.744623562115518,0.0],[-46.24550575728534,-23.745378389531556,0.0],[-46.24559690289813,-23.745968495082007,0.0],[-46.24575497801401,-23.74609628860807,0.0],[-46.246030992310374,-23.74610005570617,0.0],[-46.2467888937625,-23.74560461145569,0.0],[-46.247088143307614,-23.74593163917194,0.0],[-46.24738612975035,-23.74599647677049,0.0],[-46.24771900961318,-23.746175571326997,0.0],[-46.24785842567045,-23.746993992747598,0.0],[-46.24763310018023,-23.74729153567693,0.0],[-46.24760536524649,-23.74785174335569,0.0],[-46.247473277505904,-23.748361734822417,0.0],[-46.24750510668097,-23.748606792121613,0.0],[-46.24772969474468,-23.749000503932045,0.0],[-46.24768226294539,-23.74916120762583,0.0],[-46.247771700352864,-23.749362245999524,0.0],[-46.24777071021633,-23.749787710119474,0.0],[-46.24762391626536,-23.749970675767493,0.0],[-46.24738186955827,-23.750110722618775,0.0],[-46.246879292431196,-23.751312636927473,0.0],[-46.24665981189286,-23.751472477941928,0.0],[-46.246592517007045,-23.751725886422086,0.0],[-46.24634069798754,-23.75211948819002,0.0],[-46.246683219003096,-23.753249535463734,0.0],[-46.24720657058864,-23.753624969287085,0.0],[-46.24728187982766,-23.754605601164805,0.0],[-46.24743750476794,-23.754733124104128,0.0],[-46.24776214022926,-23.754638696871268,0.0],[-46.2480722634613,-23.754678365845162,0.0],[-46.248469149928766,-23.755403329264944,0.0],[-46.24905211113044,-23.755950636234765,0.0],[-46.2492394002196,-23.756082705159493,0.0],[-46.24972953521479,-23.756181660634493,0.0],[-46.25004153701275,-23.75689163952876,0.0],[-46.25009132391463,-23.757528341976325,0.0],[-46.25025365929101,-23.757695174912378,0.0],[-46.25103347470686,-23.758023908419773,0.0],[-46.25132062044608,-23.758233275930735,0.0],[-46.25191549142299,-23.758427741623038,0.0],[-46.25236304380414,-23.758896864116103,0.0],[-46.2529578878678,-23.75909135493398,0.0],[-46.253537133197355,-23.759437120505005,0.0],[-46.25404013208446,-23.75958097171904,0.0],[-46.25457969971309,-23.75962227297546,0.0],[-46.25522047053951,-23.75998200013613,0.0],[-46.256078706005624,-23.759900889260127,0.0],[-46.256116967117826,-23.760146462939957,0.0],[-46.25595545832725,-23.76036551843292,0.0],[-46.25576719446582,-23.760501384964115,0.0],[-46.25528828881243,-23.760573291859746,0.0],[-46.25511546265339,-23.760775856412458,0.0],[-46.254966895328714,-23.76143869918932,0.0],[-46.25525566098429,-23.76193918050456,0.0],[-46.25525917232015,-23.762652933529782,0.0],[-46.255152568106425,-23.763042988409676,0.0],[-46.255429368151454,-23.76359794944525,0.0],[-46.255615469296686,-23.763742942268852,0.0],[-46.25594476262328,-23.763810434295927,0.0],[-46.25613185053521,-23.763942711270165,0.0],[-46.256282418763035,-23.7641205773571,0.0],[-46.256360315038606,-23.764412069731858,0.0],[-46.256723553188706,-23.764664072955593,0.0],[-46.256820017297464,-23.765382366572105,0.0],[-46.25700661754154,-23.765515090294585,0.0],[-46.257574469791095,-23.765564035686516,0.0],[-46.25820343784339,-23.76623952677856,0.0],[-46.258365909604244,-23.766545231397302,0.0],[-46.258441604757955,-23.76695177057253,0.0],[-46.25877127084946,-23.76690717752187,0.0],[-46.25936714543963,-23.767164485298306,0.0],[-46.25976268429764,-23.767753894634325,0.0],[-46.259932463626285,-23.76786003612042,0.0],[-46.26033531335484,-23.76790453864081,0.0],[-46.261509608717354,-23.76717810825031,0.0],[-46.26178127168005,-23.76708030998878,0.0],[-46.26204087598549,-23.767078188836404,0.0],[-46.264853147981924,-23.76793928798576,0.0],[-46.265505860386604,-23.76831625664364,0.0],[-46.26678360009721,-23.76889120190842,0.0],[-46.26800387039557,-23.768893134877885,0.0],[-46.26893590695971,-23.76862263761887,0.0],[-46.269623284767135,-23.768557251401095,0.0],[-46.270118044899675,-23.76870849873423,0.0],[-46.27152932678996,-23.76966462056361,0.0],[-46.27195605439289,-23.76949384360535,0.0],[-46.27223790517261,-23.769109206893948,0.0],[-46.273632339967385,-23.768333083252763,0.0],[-46.27409835012012,-23.76819781864268,0.0],[-46.274331862660155,-23.76821817840006,0.0],[-46.27455049077744,-23.768121766832163,0.0],[-46.27480047622264,-23.768115250869485,0.0],[-46.275177939779596,-23.76828654071917,0.0],[-46.275524809555115,-23.768737282854637,0.0],[-46.276250476909894,-23.76937875083477,0.0],[-46.27676934745982,-23.7694849293129,0.0],[-46.27702906528284,-23.769925045481838,0.0],[-46.277519270647716,-23.7700125585887,0.0],[-46.27820587514721,-23.770608834460557,0.0],[-46.27850041867818,-23.770621660606317,0.0],[-46.278806721530074,-23.770095998748253,0.0],[-46.27920617725932,-23.769726205011978,0.0],[-46.279722873503076,-23.769610685198522,0.0],[-46.279852117761514,-23.769425443046664,0.0],[-46.28047708299822,-23.76908410005539,0.0],[-46.280871313055094,-23.76860140495017,0.0],[-46.28147780053721,-23.768377602336756,0.0],[-46.28186672706927,-23.767923683273075,0.0],[-46.28234034115974,-23.767848278082916,0.0],[-46.282624130870005,-23.767634927311605,0.0],[-46.28310029365418,-23.767427589840295,0.0],[-46.28370220213944,-23.766851657667498,0.0],[-46.28397163603572,-23.766296043489987,0.0],[-46.283611136391016,-23.765798524774716,0.0],[-46.2835304022325,-23.765231536762446,0.0],[-46.28330580549786,-23.76498235233839,0.0],[-46.2832862939033,-23.764858772185868,0.0],[-46.28392503102469,-23.764582783547628,0.0],[-46.28405251669601,-23.764395503609684,0.0],[-46.28423726126817,-23.76429386120461,0.0],[-46.28447601546541,-23.76383842626395,0.0],[-46.28512950461401,-23.763046918036068,0.0],[-46.285036533853955,-23.762711610452037,0.0],[-46.285145787770176,-23.762426539522366,0.0],[-46.28512754365109,-23.762102907203733,0.0],[-46.28483812979505,-23.761823854408373,0.0],[-46.28444946246419,-23.76159224413784,0.0],[-46.2844115505219,-23.76110136934618,0.0],[-46.28466504012191,-23.7607434153388,0.0],[-46.28472663148322,-23.76021681117045,0.0],[-46.28511580995833,-23.759894426659375,0.0],[-46.28511503237658,-23.75946973505345,0.0],[-46.28499916529734,-23.7591526303986,0.0],[-46.285216775528276,-23.758726339264598,0.0],[-46.28516417982222,-23.758565151509003,0.0],[-46.28528730496752,-23.7581759468733,0.0],[-46.285609060511035,-23.757714645513612,0.0],[-46.28654806339612,-23.756937579254725,0.0],[-46.28656340635294,-23.756653203999186,0.0],[-46.286453004558574,-23.756268436790812,0.0],[-46.286935307781796,-23.756162958796235,0.0],[-46.28728511761485,-23.755996658021367,0.0],[-46.28763078210316,-23.755414017547377,0.0],[-46.28825648913162,-23.75480494499019,0.0],[-46.28850445152309,-23.75445857143944,0.0],[-46.289474569584094,-23.75421667189904,0.0],[-46.28997718588845,-23.75350759009841,0.0],[-46.29074936569223,-23.75299732278878,0.0],[-46.29086848465203,-23.752265797641975,0.0],[-46.29131203150022,-23.752194670067105,0.0],[-46.29172817446007,-23.751995782589105,0.0],[-46.2922668719639,-23.75220382283667,0.0],[-46.292692535344194,-23.752026378398064,0.0],[-46.29282346079035,-23.751874635954074,0.0],[-46.29290255352256,-23.751453311291936,0.0],[-46.29308370526031,-23.751348491199668,0.0],[-46.29333233694046,-23.751036285031514,0.0],[-46.29369130506763,-23.750913235336725,0.0],[-46.29388765923181,-23.749837935398542,0.0],[-46.2940787609245,-23.74952966153938,0.0],[-46.29481864700477,-23.74932578196611,0.0],[-46.29542185492756,-23.748963246896363,0.0],[-46.295863314828345,-23.74882077437573,0.0],[-46.29610424498945,-23.748825429847766,0.0],[-46.29628715623746,-23.749031117171473,0.0],[-46.29678204918423,-23.749127631438952,0.0],[-46.297954625882234,-23.750170374665796,0.0],[-46.29810717378439,-23.75034636521638,0.0],[-46.29832973535262,-23.751050518015656,0.0],[-46.29846783517674,-23.751288267967738,0.0],[-46.29859421523644,-23.751347799759554,0.0],[-46.29939879266672,-23.75118356746417,0.0],[-46.299827454077075,-23.750831875126263,0.0],[-46.30039664808319,-23.750775654477625,0.0],[-46.30109272592019,-23.750528506503684,0.0],[-46.301542347760396,-23.750529916077237,0.0],[-46.302317610875726,-23.750760499978348,0.0],[-46.30260881141291,-23.75042728608157,0.0],[-46.30293657200151,-23.750319475673518,0.0],[-46.303187714650846,-23.74987512808968,0.0],[-46.303764738995845,-23.74945698428085,0.0],[-46.30411425572004,-23.749370121131555,0.0],[-46.304959330688725,-23.748758003434894,0.0],[-46.30557089549724,-23.748673031683303,0.0],[-46.30567989984391,-23.748503109545545,0.0],[-46.306321075643154,-23.748005493504344,0.0],[-46.30655689024121,-23.747676777041487,0.0],[-46.30745334982496,-23.748139128743173,0.0],[-46.30789454684422,-23.74816024499073,0.0],[-46.3092539937186,-23.747840177146106,0.0],[-46.30954764011228,-23.747702802984797,0.0],[-46.31026171663391,-23.747079154911,0.0],[-46.31106644171832,-23.74731131718951,0.0],[-46.311611268207166,-23.747186030309447,0.0],[-46.31216331336302,-23.747277279803356,0.0],[-46.312625906250005,-23.74659204736993,0.0],[-46.312691930378016,-23.746159528652576,0.0],[-46.31284836093829,-23.745853500980452,0.0],[-46.31302317118285,-23.74570946872931,0.0],[-46.31333905269579,-23.745625765227448,0.0],[-46.31371730523143,-23.74516228768118,0.0],[-46.31438537490019,-23.74469219555128,0.0],[-46.31453196557777,-23.744511469848167,0.0],[-46.31457388552993,-23.744012141604635,0.0],[-46.31468026785013,-23.74391746819316,0.0],[-46.315526847699665,-23.743810715361814,0.0],[-46.31564269573929,-23.743976244932327,0.0],[-46.31598439847428,-23.74420563711921,0.0],[-46.31612725324055,-23.74468765250923,0.0],[-46.31645313959362,-23.744826478993446,0.0],[-46.317267236801804,-23.74484936704584,0.0],[-46.31761933142734,-23.744997799146006,0.0],[-46.31779206092952,-23.745200613899314,0.0],[-46.31781775004607,-23.74600333096251,0.0],[-46.31793456152136,-23.746165533693794,0.0],[-46.318220589836066,-23.74601837625472,0.0],[-46.318472044763,-23.74566703566124,0.0],[-46.318996606720084,-23.745362092537924,0.0],[-46.319473144569024,-23.745374753843716,0.0],[-46.31991707011577,-23.745856567362672,0.0],[-46.32024496705524,-23.745865963527145,0.0],[-46.321235206706824,-23.745243845931594,0.0],[-46.3217360718819,-23.745024747632783,0.0],[-46.32217636056179,-23.74461357021176,0.0],[-46.32218846208628,-23.74445188736949,0.0],[-46.3220381466707,-23.744278278953708,0.0],[-46.32098362427614,-23.743484227580186,0.0],[-46.31974800796427,-23.742865388564493,0.0],[-46.319631987348075,-23.74266658050626,0.0],[-46.319144084352374,-23.74220119052575,0.0],[-46.319038125014295,-23.74199294826272,0.0],[-46.31826785076735,-23.741279633987237,0.0],[-46.318150783460986,-23.741081809628692,0.0],[-46.31796697767418,-23.740980685778812,0.0],[-46.31785103907988,-23.740679279215964,0.0],[-46.31766712054857,-23.740578257111085,0.0],[-46.31689654452866,-23.73961989389925,0.0],[-46.31700317951018,-23.739229531326934,0.0],[-46.31700170498269,-23.738788464495023,0.0],[-46.31672853179035,-23.738301915975942,0.0],[-46.31682757857255,-23.73809122752034,0.0],[-46.31687211111105,-23.73759004351895,0.0],[-46.31717736184624,-23.737149451928836,0.0],[-46.31777451715292,-23.73708501866929,0.0],[-46.31839181097505,-23.73680393200126,0.0],[-46.31916453540801,-23.736156539594447,0.0],[-46.3194368579678,-23.736178233181402,0.0],[-46.31999653529915,-23.736520114354366,0.0],[-46.320299371841315,-23.736520341386875,0.0],[-46.320608471170395,-23.736359280050927,0.0],[-46.321430536500316,-23.735489729225236,0.0],[-46.32246504089213,-23.735283619410687,0.0],[-46.32278049553042,-23.735065379837515,0.0],[-46.32324084659464,-23.73497800404464,0.0],[-46.32360891829658,-23.734013306569143,0.0],[-46.323972686936216,-23.733625803630485,0.0],[-46.32425227459147,-23.732960022523265,0.0],[-46.324162826048244,-23.732668348138205,0.0],[-46.324153569575635,-23.73209151628021,0.0],[-46.324406313293785,-23.73142354707965,0.0],[-46.32448270131771,-23.73086631541888,0.0],[-46.32511177241098,-23.730528794959323,0.0],[-46.32564025758801,-23.729899144846836,0.0],[-46.326436970716934,-23.729813714447353,0.0],[-46.32703412225044,-23.72941376954709,0.0],[-46.32734030987906,-23.729062724598776,0.0],[-46.32745526760486,-23.7284052951748,0.0],[-46.327321645350985,-23.728157512128586,0.0],[-46.326674709772405,-23.728063496184962,0.0],[-46.326381645449956,-23.727928710125088,0.0],[-46.32633125072266,-23.727826097005334,0.0],[-46.32648696048959,-23.727086475252683,0.0],[-46.32684760029457,-23.72682979502297,0.0],[-46.32698122701712,-23.72644612166118,0.0],[-46.327019290044085,-23.725796753738106,0.0],[-46.32690037126469,-23.725541565413234,0.0],[-46.32684715940905,-23.725043755948963,0.0],[-46.32653456990786,-23.724741317144634,0.0],[-46.326247622995325,-23.72462452658486,0.0],[-46.32590938385745,-23.724676036832555,0.0],[-46.32583012504559,-23.724400847327065,0.0],[-46.325846595896905,-23.724006359720832,0.0],[-46.325999912300766,-23.72369381417926,0.0],[-46.32644672230221,-23.723246876828277,0.0],[-46.3270655482946,-23.72283692509947,0.0],[-46.32755353860011,-23.72292983529087,0.0],[-46.327686628275536,-23.722887750347933,0.0],[-46.32772846728072,-23.722793992038664,0.0],[-46.327679926916886,-23.722554162562506,0.0],[-46.32700295849027,-23.72188817565924,0.0],[-46.32699349852461,-23.721327378832523,0.0],[-46.327128444894015,-23.72094490464994,0.0],[-46.32709414930063,-23.72057563030187,0.0],[-46.32695274435826,-23.72052230684821,0.0],[-46.326703892969405,-23.720624686510718,0.0],[-46.32645511614924,-23.720617545718298,0.0],[-46.326143621435726,-23.720356881435848,0.0],[-46.326095821588886,-23.720234251068874,0.0],[-46.32628536580117,-23.719579375531076,0.0],[-46.32699365286762,-23.71908374682795,0.0],[-46.32696086272357,-23.71896144223944,0.0],[-46.32670849467307,-23.718842354639303,0.0],[-46.326542032016896,-23.718542219225967,0.0],[-46.32650931216795,-23.71829699562225,0.0],[-46.326510479331695,-23.71757851706269,0.0],[-46.32664491124186,-23.717120251582617,0.0],[-46.32650528387932,-23.716703923333757,0.0],[-46.326495936770726,-23.716361807496067,0.0],[-46.3266228815195,-23.716026368807768,0.0],[-46.326646936762906,-23.715331208814373,0.0],[-46.32689094954013,-23.714510938169287,0.0],[-46.32635058760346,-23.71420576877644,0.0],[-46.326194746794854,-23.71390991273251,0.0],[-46.32629845410749,-23.713629652667233,0.0],[-46.326288560202016,-23.713402872578484,0.0],[-46.325614180487,-23.712604973187823,0.0],[-46.32610275865242,-23.711356094900957,0.0],[-46.32595739590805,-23.71083858991757,0.0],[-46.3257295934784,-23.710655055867214,0.0],[-46.32577639314076,-23.71036926135243,0.0],[-46.325117747453795,-23.710032183290537,0.0],[-46.32482803955455,-23.709616584126714,0.0],[-46.32480992127305,-23.709293634765817,0.0],[-46.324938541279785,-23.70895816074274,0.0],[-46.32494030354431,-23.70823928079132,0.0],[-46.32479400031437,-23.707567424614357,0.0],[-46.32492554724247,-23.707111515306245,0.0],[-46.32489825396584,-23.706912885871336,0.0],[-46.324673189617805,-23.706519297541316,0.0],[-46.32476059631809,-23.706290281987847,0.0],[-46.32476171585246,-23.705903443432845,0.0],[-46.32460454537006,-23.705683813432294,0.0],[-46.32421673253793,-23.70545398924678,0.0],[-46.323916154335855,-23.705048198576154,0.0],[-46.32386996989518,-23.704859859215805,0.0],[-46.32390203594733,-23.704489287426085,0.0],[-46.324277171795444,-23.70420473034521,0.0],[-46.32420752457939,-23.703923498586317,0.0],[-46.32432855044737,-23.703532748292545,0.0],[-46.32483880016579,-23.703007009197,0.0],[-46.324932901935306,-23.702554861988617,0.0],[-46.325865437681664,-23.70250476692304,0.0],[-46.32705111111275,-23.70275409513763,0.0],[-46.32719298215441,-23.70272088369852,0.0],[-46.327562306814265,-23.70239979165759,0.0],[-46.327751698566715,-23.702433823256868,0.0],[-46.327991630820904,-23.702364632921654,0.0],[-46.328065251174266,-23.702424545234344,0.0],[-46.32802671621796,-23.70258275519638,0.0],[-46.32828089361962,-23.702824357813295,0.0],[-46.32878934938754,-23.70290924165093,0.0],[-46.32910124192436,-23.70316819589172,0.0],[-46.32912017889156,-23.70351348529304,0.0],[-46.32831424979882,-23.704850203373525,0.0],[-46.328282871669145,-23.705582725991047,0.0],[-46.328155960278245,-23.705918103064157,0.0],[-46.32816459879092,-23.706397530486797,0.0],[-46.328438852771065,-23.7069173708676,0.0],[-46.32847277384122,-23.7077514958009,0.0],[-46.328653598412956,-23.708128769630463,0.0],[-46.32883128212478,-23.70826974212861,0.0],[-46.329337232082366,-23.708353507250138,0.0],[-46.32973761879273,-23.708718904089945,0.0],[-46.32985820299503,-23.70894887438627,0.0],[-46.33007431510103,-23.70909004308102,0.0],[-46.33037795976111,-23.70908824288527,0.0],[-46.33073988366656,-23.708983197530397,0.0],[-46.33134778553539,-23.70933818564569,0.0],[-46.33166283856341,-23.709312301341757,0.0],[-46.331902334721974,-23.70858427293054,0.0],[-46.332411559510426,-23.707925974689836,0.0],[-46.33245628756477,-23.70698235004272,0.0],[-46.33261667063781,-23.706545776153256,0.0],[-46.33281944505666,-23.706326395789308,0.0],[-46.33325249337568,-23.705509959359855,0.0],[-46.33333814001429,-23.705184789541264,0.0],[-46.33365896840086,-23.704769717437625,0.0],[-46.334101095839856,-23.704695713327517,0.0],[-46.33438750339995,-23.704483755954744,0.0],[-46.334557610819886,-23.704502775401618,0.0],[-46.33480632472538,-23.705091860872052,0.0],[-46.335611556397026,-23.705841089180687,0.0],[-46.33590739632624,-23.706247232605925,0.0],[-46.336149501928894,-23.706841360267507,0.0],[-46.336500060430296,-23.707063472195195,0.0],[-46.33654170335944,-23.707157402708884,0.0],[-46.33652996951706,-23.707344737257863,0.0],[-46.33626492010199,-23.707921723170514,0.0],[-46.336367743322064,-23.708422829367002,0.0],[-46.33627419332964,-23.70900060002299,0.0],[-46.33639966796622,-23.70941958746874,0.0],[-46.336332562478134,-23.709667292135737,0.0],[-46.33642159902562,-23.70986834887946,0.0],[-46.336421014961026,-23.7102927085595,0.0],[-46.33609195528982,-23.710759125195082,0.0],[-46.335884124201655,-23.710885378903548,0.0],[-46.33560692660567,-23.711408424183606,0.0],[-46.33590675896265,-23.712126472931423,0.0],[-46.33671256916292,-23.712740791181204,0.0],[-46.33685426844508,-23.713163339770944,0.0],[-46.33684052036087,-23.713349791534128,0.0],[-46.33892763657464,-23.71339530036246,0.0],[-46.339181117481104,-23.713738619833105,0.0],[-46.339508627202136,-23.713944172330525,0.0],[-46.339966432792956,-23.714471856341433,0.0],[-46.34034225054978,-23.715076490373125,0.0],[-46.34079779998363,-23.715472519762784,0.0],[-46.341092518301004,-23.71560591122878,0.0],[-46.34128019999934,-23.715613457099987,0.0],[-46.34154000543285,-23.715482883322565,0.0],[-46.34176567245608,-23.715246988630433,0.0],[-46.34238609836404,-23.71509218301089,0.0],[-46.3427370605747,-23.715116430038737,0.0],[-46.34285726056023,-23.71554374993822,0.0],[-46.3431034075458,-23.715771431916366,0.0],[-46.342975279135594,-23.716659702633848,0.0],[-46.34315311722358,-23.71704602441462,0.0],[-46.343252508310655,-23.717102130248346,0.0],[-46.343615241164954,-23.717093174262285,0.0],[-46.34420601960067,-23.716878106932135,0.0],[-46.34449462705071,-23.716960839657652,0.0],[-46.34482125228949,-23.716937267357636,0.0],[-46.34537202242557,-23.716458502511685,0.0],[-46.34589974940725,-23.716353683633123,0.0],[-46.34603291530552,-23.71620560908619,0.0],[-46.34610185610669,-23.7159100756865,0.0],[-46.34639215850271,-23.715635199822362,0.0],[-46.34671780783831,-23.715558661522323,0.0],[-46.347026540783084,-23.71534397269847,0.0],[-46.347328041084964,-23.71542290823334,0.0],[-46.34777405270417,-23.715321262617017,0.0],[-46.347907708059,-23.71535962673446,0.0],[-46.348045070017534,-23.715539988606793,0.0],[-46.3484781527341,-23.715614222227106,0.0],[-46.348748465683535,-23.715942004487616,0.0],[-46.34939797552549,-23.716153161588043,0.0],[-46.349637487326234,-23.71633866816191,0.0],[-46.35013994930599,-23.716551031771502,0.0],[-46.35057563550225,-23.716894931313433,0.0],[-46.351466798845095,-23.716899555498777,0.0],[-46.351784894981684,-23.716783274238814,0.0],[-46.352528112314275,-23.716749545607666,0.0],[-46.35301850642313,-23.71661864959931,0.0],[-46.35344247951964,-23.71662991409419,0.0],[-46.35405990385977,-23.716770619558442,0.0],[-46.35413999759977,-23.716855056383842,0.0],[-46.354224810419595,-23.71726556655011,0.0],[-46.35481012464335,-23.717815254155816,0.0],[-46.35501995063604,-23.717913370043995,0.0],[-46.35588880049413,-23.717504440235693,0.0],[-46.35626844961596,-23.717176368497864,0.0],[-46.35690468818258,-23.716945948691308,0.0],[-46.35698776300916,-23.716394891975956,0.0],[-46.35720470779223,-23.716233000807676,0.0],[-46.357276475229675,-23.715850318488208,0.0],[-46.35747935807584,-23.71571940333013,0.0],[-46.357649892947215,-23.715424886531867,0.0],[-46.357577032892195,-23.714983060424185,0.0],[-46.357737238504846,-23.714848888162834,0.0],[-46.358222223433444,-23.714742830008205,0.0],[-46.35811215565703,-23.71435794627355,0.0],[-46.35812713940848,-23.714073215449357,0.0],[-46.35829181144218,-23.713906083750718,0.0],[-46.3586589978507,-23.713786420846656,0.0],[-46.35878431400078,-23.71353451726127,0.0],[-46.35874937020745,-23.713358758179155,0.0],[-46.35943979375678,-23.713296380105728,0.0],[-46.359687985564925,-23.713201017128032,0.0],[-46.36009251369348,-23.71328011453692,0.0],[-46.36027224213194,-23.7131015346213,0.0],[-46.36037031594028,-23.712667520131664,0.0],[-46.36067562251129,-23.712706405309888,0.0],[-46.36080929441327,-23.712523174544195,0.0],[-46.36107941120684,-23.712395932976346,0.0],[-46.361367513553,-23.71247741056727,0.0],[-46.361602472913,-23.712426934259803,0.0],[-46.361736178175484,-23.712277668195174,0.0],[-46.36180743872594,-23.71198269975599,0.0],[-46.36216994769246,-23.71159413334751,0.0],[-46.362232967539896,-23.710890813751355,0.0],[-46.36257360319449,-23.710661713319624,0.0],[-46.3626859911045,-23.710461106723756,0.0],[-46.36298652659601,-23.710192426357484,0.0],[-46.36355812746601,-23.710179395564776,0.0],[-46.363995595558514,-23.710527931315543,0.0],[-46.36429352103564,-23.710665982383343,0.0],[-46.36463753330134,-23.710652770264975,0.0],[-46.36480728043756,-23.710354894841593,0.0],[-46.36500369505803,-23.709544084779388,0.0],[-46.365214814804666,-23.70927984636446,0.0],[-46.36512557829306,-23.70905524718032,0.0],[-46.36515227470735,-23.708835035354983,0.0],[-46.36599971622871,-23.708249131505426,0.0],[-46.366359745952394,-23.70826704198979,0.0],[-46.367142533403,-23.708712102704563,0.0],[-46.367313462467465,-23.709053156102694,0.0],[-46.36736559824364,-23.71018942560578,0.0],[-46.36773332669651,-23.71043698646306,0.0],[-46.36821169960839,-23.711176455381032,0.0],[-46.36819419240499,-23.711845018452497,0.0],[-46.36775041421033,-23.71211745452775,0.0],[-46.36725506928191,-23.712212409906144,0.0],[-46.36720054001584,-23.71243204750312,0.0],[-46.36724661146032,-23.712664007852872,0.0],[-46.36742468394761,-23.712812687539554,0.0],[-46.367876501478314,-23.7129293574458,0.0],[-46.36831082636175,-23.71272078207811,0.0],[-46.36847348349618,-23.7127183653714,0.0],[-46.36865775293448,-23.7128939966821,0.0],[-46.368764875075215,-23.713471862583443,0.0],[-46.36962429779471,-23.713377301157855,0.0],[-46.37017925828516,-23.713837543084622,0.0],[-46.37028192241253,-23.713852156267144,0.0],[-46.370576658079216,-23.713418337022976,0.0],[-46.37061974027526,-23.712917612573005,0.0],[-46.37072578111187,-23.712698277777438,0.0],[-46.37072780286029,-23.712411300101543,0.0],[-46.37063865473389,-23.712186787468923,0.0],[-46.37085145861925,-23.711923952741213,0.0],[-46.37088998453181,-23.71132769088056,0.0],[-46.37100684681759,-23.71103407022871,0.0],[-46.37087584386865,-23.710625698503833,0.0],[-46.37091584873753,-23.71041752564975,0.0],[-46.371529050526995,-23.710331071143955,0.0],[-46.37190240597182,-23.710097609176753,0.0],[-46.373238520354256,-23.710062903005284,0.0],[-46.373581958870986,-23.70956541723815,0.0],[-46.37378787324002,-23.70954002626279,0.0],[-46.374042758483,-23.709618273888456,0.0],[-46.37458968759233,-23.70949863599821,0.0],[-46.37466976385101,-23.709413327536378,0.0],[-46.37463045394145,-23.7091713976835,0.0],[-46.374280598839974,-23.709078432200023,0.0],[-46.37413130827179,-23.708933972523752,0.0],[-46.37431272931149,-23.70820912712497,0.0],[-46.37383699701107,-23.708061651028505,0.0],[-46.37329032729109,-23.708025850276638,0.0],[-46.37310368862089,-23.70789316947796,0.0],[-46.37298748995342,-23.70769450226971,0.0],[-46.37278632538902,-23.707564154540957,0.0],[-46.37268771815062,-23.707155250243655,0.0],[-46.37235879855317,-23.70705348552587,0.0],[-46.3720440842333,-23.706661182229183,0.0],[-46.37203415842633,-23.70606099186885,0.0],[-46.37226397439814,-23.705895935339772,0.0],[-46.37294890744057,-23.705885752324804,0.0],[-46.37327051411939,-23.705970342824088,0.0],[-46.37412418175325,-23.705698406936687,0.0],[-46.374256717863474,-23.70551607355501,0.0],[-46.37459480555806,-23.705418843247593,0.0],[-46.37503506659088,-23.70501147097985,0.0],[-46.37508220936883,-23.704202797756384,0.0],[-46.37522721685362,-23.704018740390943,0.0],[-46.375463958578,-23.703969942098894,0.0],[-46.375769375891906,-23.704043436238155,0.0],[-46.37610306308094,-23.70369794824266,0.0],[-46.37664105832237,-23.703777593230885,0.0],[-46.377192351626036,-23.703438170088734,0.0],[-46.377634563143666,-23.703365288002818,0.0],[-46.37780359755637,-23.702964743287787,0.0],[-46.377673002809026,-23.702663562274388,0.0],[-46.37746116782868,-23.702540194885643,0.0],[-46.37734267463843,-23.702342459845593,0.0],[-46.37686576200272,-23.701898928847854,0.0],[-46.37680442730197,-23.70169118062628,0.0],[-46.376757139240695,-23.700349218037722,0.0],[-46.37680848190934,-23.700224968464493,0.0],[-46.37734862216768,-23.699932400327505,0.0],[-46.377656525546676,-23.699598060067924,0.0],[-46.37765789112778,-23.698983150465967,0.0],[-46.37749172699601,-23.69836148793878,0.0],[-46.376838892481636,-23.69775469156721,0.0],[-46.37597450822299,-23.69771031853396,0.0],[-46.37575544769494,-23.69752481912829,0.0],[-46.37563335132373,-23.69711582823506,0.0],[-46.375834685149805,-23.69697354374747,0.0],[-46.37590875130308,-23.696451177817696,0.0],[-46.376260564159544,-23.69628706773809,0.0],[-46.37604969081318,-23.69603391780338,0.0],[-46.37610858509996,-23.695750966936817,0.0],[-46.37587585610396,-23.695321042099582,0.0],[-46.3758224693865,-23.694412105829823,0.0],[-46.3755190603817,-23.69410412045793,0.0],[-46.375013556862434,-23.693788433098238,0.0],[-46.3749607082739,-23.693414927900804,0.0],[-46.37523140682317,-23.692848280933184,0.0],[-46.37511156982586,-23.69244678854996,0.0],[-46.375239528340146,-23.692243479382643,0.0],[-46.37611443697171,-23.69230472109355,0.0],[-46.37639238255181,-23.692103248232637,0.0],[-46.37639596998492,-23.691739170381894,0.0],[-46.37611441572334,-23.691002905490187,0.0],[-46.37644031627939,-23.689914395286912,0.0],[-46.3768053909299,-23.689739100800875,0.0],[-46.377488741476775,-23.689724027477503,0.0],[-46.377659849823104,-23.68977130862936,0.0],[-46.37791304487385,-23.690082741263275,0.0],[-46.37844892079818,-23.689984614366107,0.0],[-46.378765987790175,-23.690000099539795,0.0],[-46.379054763325016,-23.69010873988904,0.0],[-46.37925825740284,-23.69008114909932,0.0],[-46.379376776349915,-23.68975064953849,0.0],[-46.37951854320159,-23.68960939038048,0.0],[-46.379724209538416,-23.689526495349096,0.0],[-46.38025164928983,-23.68906369698351,0.0],[-46.380760059029924,-23.688941465522504,0.0],[-46.381064221729794,-23.687920571900985,0.0],[-46.3809380160104,-23.687357705861373,0.0],[-46.38109621309749,-23.687141012839874,0.0],[-46.38128491420232,-23.687018178643825,0.0],[-46.38175791503887,-23.68723244141631,0.0],[-46.382066489091194,-23.687174629372212,0.0],[-46.38210556401238,-23.68644145268556,0.0],[-46.38218951599669,-23.68621330152005,0.0],[-46.38206106929767,-23.685731798505294,0.0],[-46.38182383841779,-23.68554247495723,0.0],[-46.38173634504266,-23.68498604855588,0.0],[-46.381147451112405,-23.684213251866094,0.0],[-46.38091268029664,-23.684035754732903,0.0],[-46.3810609572525,-23.68353293528873,0.0],[-46.38127749409028,-23.683243165692367,0.0],[-46.381053694077345,-23.68298680253041,0.0],[-46.380740021847835,-23.682409739497906,0.0],[-46.38085793353262,-23.681960195457364,0.0],[-46.38083979934523,-23.681637156729785,0.0],[-46.38033156340036,-23.681278702527248,0.0],[-46.37977861112742,-23.6806659503505,0.0],[-46.379457960535355,-23.680636550614036,0.0],[-46.37912880899,-23.680711300521697,0.0],[-46.37906271244001,-23.680203581872956,0.0],[-46.37890943398516,-23.679999999999993,0.0],[-46.22,-23.679999999999993,0.0],[-46.22001249658558,-23.742498033111346,0.0]]]}}]}