{"type":"FeatureCollection","features":[{"type":"Feature","properties":{"tipo":"Caminho"},"geometry":{"type":"LineString","coordinates":[[-46.302491,-23.781531,0.0],[-46.30252,-23.781713,0.0],[-46.302519,-23.781818,0.0],[-46.302452,-23.78192,0.0],[-46.302337,-23.782024,0.0],[-46.302196,-23.782075,0.0],[-46.302142,-23.782052,0.0]]}},{"type":"Feature","properties":{"tipo":"Caminho"},"geometry":{"type":"LineString","coordinates":[[-46.302441,-23.781041,0.0],[-46.302471,-23.781065,0.0],[-46.302533,-23.781157,0.0],[-46.302587,-23.781209,0.0],[-46.302626,-23.781272,0.0],[-46.302681,-23.781445,0.0],[-46.302735,-23.78158,0.0],[-46.302745,-23.781628,0.0]]}},{"type":"Feature","properties":{"tipo":"Caminho"},"geometry":{"type":"LineString","coordinates":[[-46.302441,-23.781041,0.0],[-46.302471,-23.781065,0.0],[-46.302533,-23.781157,0.0],[-46.302587,-23.781209,0.0],[-46.302626,-23.781272,0.0],[-46.302681,-23.781445,0.0],[-46.302735,-23.78158,0.0],[-46.302745,-23.781628,0.0]]}},{"type":"Feature","properties":{"tipo":"Caminho"},"geometry":{"type":"LineString","coordinates":[[-46.302733,-23.779968,0.0],[-46.302783,-23.780065,0.0],[-46.302823,-23.780205,0.0],[-46.302865,-23.780306,0.0],[-46.302874,-23.780357,0.0],[-46.302864,-23.780399,0.0]]}},{"type":"Feature","properties":{"tipo":"Caminho"},"geometry":{"type":"LineString","coordinates":[[-46.302352,-23.779213,0.0],[-46.302489,-23.779271,0.0],[-46.302508,-23.779303,0.0],[-46.30253,-23.779438,0.0],[-46.302617,-23.779657,0.0],[-46.302623,-23.779712,0.0],[-46.302612,-23.779767,0.0],[-46.302645,-23.779845,0.0],[-46.302733,-23.779968,0.0]]}},{"type":"Feature","properties":{"tipo":"Caminho"},"geometry":{"type":"LineString","coordinates":[[-46.305984,-23.777497,0.0],[-46.306007,-23.777522,0.0],[-46.306007,-23.777533,0.0],[-46.305853,-23.777633,0.0],[-46.305769,-23.777709,0.0],[-46.305686,-23.777831,0.0],[-46.305586,-23.777888,0.0],[-46.305573,-23.777922,0.0],[-46.305586,-23.777956,0.0],[-46.305599,-23.777963,0.0],[-46.305625,-23.77796,0.0],[-46.305737,-23.777925,0.0],[-46.305776,-23.777988,0.0],[-46.305915,-23.778055,0.0],[-46.306073,-23.778161,0.0],[-46.306179,-23.778208,0.0],[-46.306228,-23.778241,0.0],[-46.306328,-23.778322,0.0],[-46.306405,-23.778433,0.0]]}},{"type":"Feature","properties":{"tipo":"Caminho"},"geometry":{"type":"LineString","coordinates":[[-46.305984,-23.777497,0.0],[-46.306007,-23.777522,0.0],[-46.306007,-23.777533,0.0],[-46.305853,-23.777633,0.0],[-46.305769,-23.777709,0.0],[-46.305686,-23.777831,0.0],[-46.305586,-23.777888,0.0],[-46.305573,-23.777922,0.0],[-46.305586,-23.777956,0.0],[-46.305599,-23.777963,0.0],[-46.305625,-23.77796,0.0],[-46.305737,-23.777925,0.0],[-46.305776,-23.777988,0.0],[-46.305915,-23.778055,0.0],[-46.306073,-23.778161,0.0],[-46.306179,-23.778208,0.0],[-46.306228,-23.778241,0.0],[-46.306328,-23.778322,0.0],[-46.306405,-23.778433,0.0]]}},{"type":"Feature","properties":{"tipo":"Caminho"},"geometry":{"type":"LineString","coordinates":[[-46.305658,-23.777947,0.0],[-46.305751,-23.777854,0.0],[-46.305805,-23.777816,0.0],[-46.30587,-23.777795,0.0],[-46.306006,-23.777776,0.0],[-46.306056,-23.777733,0.0],[-46.306183,-23.777583,0.0],[-46.306277,-23.777514,0.0],[-46.306276,-23.777502,0.0],[-46.306208,-23.777494,0.0],[-46.30614,-23.777498,0.0],[-46.306007,-23.777522,0.0]]}},{"type":"Feature","properties":{"tipo":"Caminho"},"geometry":{"type":"LineString","coordinates":[[-46.307159,-23.776786,0.0],[-46.3071,-23.776819,0.0],[-46.307043,-23.776831,0.0],[-46.307036,-23.776841,0.0],[-46.307047,-23.776967,0.0],[-46.30702,-23.777025,0.0],[-46.306995,-23.77715,0.0],[-46.306996,-23.777529,0.0],[-46.307014,-23.777781,0.0],[-46.307012,-23.777907,0.0],[-46.306999,-23.777969,0.0],[-46.306883,-23.778266,0.0],[-46.30682,-23.778462,0.0],[-46.306796,-23.778463,0.0],[-46.306752,-23.778415,0.0],[-46.3067,-23.778374,0.0],[-46.306584,-23.778307,0.0],[-46.306329,-23.778211,0.0],[-46.30627,-23.77818,0.0],[-46.306203,-23.778166,0.0],[-46.306073,-23.778161,0.0]]}},{"type":"Feature","properties":{"tipo":"Caminho"},"geometry":{"type":"LineString","coordinates":[[-46.305984,-23.777497,0.0],[-46.305934,-23.777453,0.0],[-46.305914,-23.777445,0.0],[-46.305797,-23.777453,0.0],[-46.30573,-23.777442,0.0],[-46.305534,-23.777466,0.0],[-46.30547,-23.777443,0.0],[-46.30541,-23.777412,0.0],[-46.3053,-23.777336,0.0],[-46.305258,-23.777287,0.0],[-46.305245,-23.777224,0.0],[-46.305216,-23.777145,0.0],[-46.30518,-23.777117,0.0],[-46.305117,-23.777093,0.0],[-46.30498,-23.777082,0.0],[-46.304916,-23.777104,0.0],[-46.304861,-23.777142,0.0]]}},{"type":"Feature","properties":{"tipo":"Caminho"},"geometry":{"type":"LineString","coordinates":[[-46.307238,-23.776906,0.0],[-46.307239,-23.776784,0.0],[-46.307254,-23.7767,0.0],[-46.307252,-23.77637,0.0],[-46.307265,-23.776289,0.0],[-46.30734,-23.776184,0.0],[-46.307369,-23.776122,0.0],[-46.307388,-23.77605,0.0],[-46.307402,-23.775886,0.0],[-46.307419,-23.775812,0.0],[-46.307495,-23.775683,0.0],[-46.307523,-23.775618,0.0],[-46.307533,-23.775567,0.0],[-46.307529,-23.775535,0.0]]}},{"type":"Feature","properties":{"tipo":"Caminho"},"geometry":{"type":"LineString","coordinates":[[-46.307261,-23.77685,0.0],[-46.307287,-23.776671,0.0],[-46.307275,-23.776483,0.0],[-46.307284,-23.776333,0.0],[-46.307312,-23.776261,0.0],[-46.307387,-23.776152,0.0],[-46.307409,-23.776076,0.0],[-46.30744,-23.775842,0.0],[-46.307506,-23.775724,0.0],[-46.307599,-23.775607,0.0],[-46.307611,-23.775577,0.0],[-46.307567,-23.775497,0.0]]}},{"type":"Feature","properties":{"tipo":"Caminho"},"geometry":{"type":"LineString","coordinates":[[-46.308194,-23.775299,0.0],[-46.308186,-23.775282,0.0],[-46.308204,-23.77527,0.0]]}},{"type":"Feature","properties":{"tipo":"Caminho"},"geometry":{"type":"LineString","coordinates":[[-46.308194,-23.775299,0.0],[-46.308186,-23.775282,0.0],[-46.308204,-23.77527,0.0]]}},{"type":"Feature","properties":{"tipo":"Caminho"},"geometry":{"type":"LineString","coordinates":[[-46.308194,-23.775299,0.0],[-46.308186,-23.775282,0.0],[-46.308204,-23.77527,0.0]]}},{"type":"Feature","properties":{"tipo":"Caminho"},"geometry":{"type":"LineString","coordinates":[[-46.308194,-23.775299,0.0],[-46.308186,-23.775282,0.0],[-46.308204,-23.77527,0.0]]}},{"type":"Feature","properties":{"tipo":"Caminho"},"geometry":{"type":"LineString","coordinates":[[-46.308238,-23.775273,0.0],[-46.308211,-23.775284,0.0],[-46.308186,-23.775282,0.0]]}},{"type":"Feature","properties":{"tipo":"Caminho"},"geometry":{"type":"LineString","coordinates":[[-46.308155,-23.775269,0.0],[-46.308186,-23.775282,0.0]]}},{"type":"Feature","properties":{"tipo":"Caminho"},"geometry":{"type":"LineString","coordinates":[[-46.308155,-23.775269,0.0],[-46.308186,-23.775282,0.0]]}},{"type":"Feature","properties":{"tipo":"Caminho"},"geometry":{"type":"LineString","coordinates":[[-46.308155,-23.775269,0.0],[-46.308186,-23.775282,0.0]]}},{"type":"Feature","properties":{"tipo":"Caminho"},"geometry":{"type":"LineString","coordinates":[[-46.305226,-23.776869,0.0],[-46.30528,-23.776908,0.0],[-46.305401,-23.776967,0.0],[-46.305452,-23.77701,0.0],[-46.305493,-23.777061,0.0],[-46.305509,-23.777122,0.0],[-46.305507,-23.777185,0.0],[-46.305548,-23.777236,0.0],[-46.305573,-23.777255,0.0],[-46.305659,-23.777255,0.0],[-46.305726,-23.777241,0.0],[-46.305786,-23.777211,0.0],[-46.306071,-23.777035,0.0],[-46.306165,-23.776942,0.0],[-46.306239,-23.776836,0.0],[-46.306348,-23.776759,0.0],[-46.306537,-23.776685,0.0],[-46.306604,-23.776671,0.0],[-46.306733,-23.776626,0.0],[-46.306802,-23.776622,0.0],[-46.306825,-23.776614,0.0],[-46.307185,-23.776797,0.0],[-46.307237,-23.776804,0.0]]}},{"type":"Feature","properties":{"tipo":"Caminho"},"geometry":{"type":"LineString","coordinates":[[-46.305226,-23.776869,0.0],[-46.30528,-23.776908,0.0],[-46.305401,-23.776967,0.0],[-46.305452,-23.77701,0.0],[-46.305493,-23.777061,0.0],[-46.305509,-23.777122,0.0],[-46.305507,-23.777185,0.0],[-46.305548,-23.777236,0.0],[-46.305573,-23.777255,0.0],[-46.305659,-23.777255,0.0],[-46.305726,-23.777241,0.0],[-46.305786,-23.777211,0.0],[-46.306071,-23.777035,0.0],[-46.306165,-23.776942,0.0],[-46.306239,-23.776836,0.0],[-46.306348,-23.776759,0.0],[-46.306537,-23.776685,0.0],[-46.306604,-23.776671,0.0],[-46.306733,-23.776626,0.0],[-46.306802,-23.776622,0.0],[-46.306825,-23.776614,0.0],[-46.307185,-23.776797,0.0],[-46.307237,-23.776804,0.0]]}},{"type":"Feature","properties":{"tipo":"Caminho"},"geometry":{"type":"LineString","coordinates":[[-46.305146,-23.776803,0.0],[-46.305111,-23.776786,0.0],[-46.305082,-23.776762,0.0],[-46.304989,-23.776646,0.0]]}},{"type":"Feature","properties":{"tipo":"Caminho"},"geometry":{"type":"LineString","coordinates":[[-46.305226,-23.776869,0.0],[-46.305159,-23.776816,0.0],[-46.305144,-23.776793,0.0],[-46.305028,-23.776515,0.0],[-46.305023,-23.776489,0.0],[-46.305054,-23.776443,0.0],[-46.305057,-23.776416,0.0],[-46.305021,-23.776374,0.0],[-46.304983,-23.776243,0.0],[-46.304981,-23.776081,0.0],[-46.305011,-23.776035,0.0],[-46.305185,-23.775889,0.0],[-46.305296,-23.775854,0.0],[-46.305375,-23.775817,0.0],[-46.30549,-23.775806,0.0]]}},{"type":"Feature","properties":{"tipo":"Caminho"},"geometry":{"type":"LineString","coordinates":[[-46.305226,-23.776869,0.0],[-46.305159,-23.776816,0.0],[-46.305144,-23.776793,0.0],[-46.305028,-23.776515,0.0],[-46.305023,-23.776489,0.0],[-46.305054,-23.776443,0.0],[-46.305057,-23.776416,0.0],[-46.305021,-23.776374,0.0],[-46.304983,-23.776243,0.0],[-46.304981,-23.776081,0.0],[-46.305011,-23.776035,0.0],[-46.305185,-23.775889,0.0],[-46.305296,-23.775854,0.0],[-46.305375,-23.775817,0.0],[-46.30549,-23.775806,0.0]]}},{"type":"Feature","properties":{"tipo":"Caminho"},"geometry":{"type":"LineString","coordinates":[[-46.304835,-23.776448,0.0],[-46.304842,-23.776395,0.0],[-46.30481,-23.77635,0.0],[-46.304802,-23.776323,0.0],[-46.304799,-23.776215,0.0],[-46.304777,-23.776165,0.0],[-46.304701,-23.776082,0.0],[-46.304564,-23.775981,0.0]]}},{"type":"Feature","properties":{"tipo":"Caminho"},"geometry":{"type":"LineString","coordinates":[[-46.306212,-23.774747,0.0],[-46.306202,-23.77481,0.0],[-46.306173,-23.774854,0.0],[-46.30614,-23.774867,0.0],[-46.30609,-23.774947,0.0],[-46.306085,-23.774968,0.0],[-46.306095,-23.77501,0.0],[-46.306126,-23.775067,0.0],[-46.306164,-23.775119,0.0],[-46.306277,-23.775191,0.0],[-46.306382,-23.775272,0.0],[-46.306548,-23.775384,0.0],[-46.306789,-23.77561,0.0],[-46.3069,-23.775684,0.0],[-46.306996,-23.775774,0.0],[-46.307033,-23.775827,0.0],[-46.307081,-23.775873,0.0],[-46.307115,-23.775928,0.0],[-46.307206,-23.776166,0.0],[-46.307224,-23.776227,0.0],[-46.307229,-23.776301,0.0],[-46.307258,-23.776323,0.0]]}},{"type":"Feature","properties":{"tipo":"Caminho"},"geometry":{"type":"LineString","coordinates":[[-46.307405,-23.775354,0.0],[-46.30736,-23.775305,0.0],[-46.307259,-23.77522,0.0],[-46.307078,-23.775129,0.0],[-46.307028,-23.775086,0.0],[-46.306949,-23.774983,0.0],[-46.306923,-23.774924,0.0],[-46.306911,-23.774849,0.0],[-46.306989,-23.774792,0.0],[-46.307048,-23.77476,0.0],[-46.307114,-23.774744,0.0],[-46.307244,-23.774741,0.0]]}},{"type":"Feature","properties":{"tipo":"Caminho"},"geometry":{"type":"LineString","coordinates":[[-46.307405,-23.775354,0.0],[-46.30736,-23.775305,0.0],[-46.307259,-23.77522,0.0],[-46.307078,-23.775129,0.0],[-46.307028,-23.775086,0.0],[-46.306949,-23.774983,0.0],[-46.306923,-23.774924,0.0],[-46.306911,-23.774849,0.0],[-46.306989,-23.774792,0.0],[-46.307048,-23.77476,0.0],[-46.307114,-23.774744,0.0],[-46.307244,-23.774741,0.0]]}},{"type":"Feature","properties":{"tipo":"Caminho"},"geometry":{"type":"LineString","coordinates":[[-46.307055,-23.774895,0.0],[-46.306924,-23.774858,0.0],[-46.306719,-23.774867,0.0],[-46.306596,-23.774811,0.0],[-46.30653,-23.774794,0.0],[-46.306396,-23.774768,0.0],[-46.306124,-23.774735,0.0],[-46.30607,-23.774695,0.0],[-46.306024,-23.774637,0.0]]}},{"type":"Feature","properties":{"tipo":"Caminho"},"geometry":{"type":"LineString","coordinates":[[-46.308155,-23.775269,0.0],[-46.308186,-23.775282,0.0]]}},{"type":"Feature","properties":{"tipo":"Caminho"},"geometry":{"type":"LineString","coordinates":[[-46.308133,-23.775276,0.0],[-46.308155,-23.775269,0.0],[-46.308151,-23.775249,0.0]]}},{"type":"Feature","properties":{"tipo":"Caminho"},"geometry":{"type":"LineString","coordinates":[[-46.308133,-23.775276,0.0],[-46.308155,-23.775269,0.0],[-46.308151,-23.775249,0.0]]}},{"type":"Feature","properties":{"tipo":"Caminho"},"geometry":{"type":"LineString","coordinates":[[-46.308133,-23.775276,0.0],[-46.308155,-23.775269,0.0],[-46.308151,-23.775249,0.0]]}},{"type":"Feature","properties":{"tipo":"Caminho"},"geometry":{"type":"LineString","coordinates":[[-46.308133,-23.775276,0.0],[-46.308155,-23.775269,0.0],[-46.308151,-23.775249,0.0]]}},{"type":"Feature","properties":{"tipo":"Caminho"},"geometry":{"type":"LineString","coordinates":[[-46.307873,-23.77522,0.0],[-46.307883,-23.775177,0.0],[-46.307865,-23.77515,0.0],[-46.30784,-23.775133,0.0],[-46.307752,-23.775101,0.0]]}},{"type":"Feature","properties":{"tipo":"Caminho"},"geometry":{"type":"LineString","coordinates":[[-46.308155,-23.775269,0.0],[-46.308056,-23.775169,0.0],[-46.307989,-23.775158,0.0],[-46.307861,-23.775112,0.0],[-46.307588,-23.775092,0.0],[-46.307531,-23.775057,0.0],[-46.307477,-23.775017,0.0],[-46.307435,-23.774966,0.0],[-46.307386,-23.774924,0.0],[-46.307261,-23.774773,0.0],[-46.307203,-23.774659,0.0],[-46.307195,-23.774596,0.0],[-46.30715,-23.774548,0.0],[-46.307091,-23.774515,0.0],[-46.307041,-23.774501,0.0]]}},{"type":"Feature","properties":{"tipo":"Caminho"},"geometry":{"type":"LineString","coordinates":[[-46.308155,-23.775269,0.0],[-46.308056,-23.775169,0.0],[-46.307989,-23.775158,0.0],[-46.307861,-23.775112,0.0],[-46.307588,-23.775092,0.0],[-46.307531,-23.775057,0.0],[-46.307477,-23.775017,0.0],[-46.307435,-23.774966,0.0],[-46.307386,-23.774924,0.0],[-46.307261,-23.774773,0.0],[-46.307203,-23.774659,0.0],[-46.307195,-23.774596,0.0],[-46.30715,-23.774548,0.0],[-46.307091,-23.774515,0.0],[-46.307041,-23.774501,0.0]]}},{"type":"Feature","properties":{"tipo":"Caminho"},"geometry":{"type":"LineString","coordinates":[[-46.307335,-23.774511,0.0],[-46.307249,-23.774552,0.0],[-46.307192,-23.774594,0.0]]}},{"type":"Feature","properties":{"tipo":"Caminho"},"geometry":{"type":"LineString","coordinates":[[-46.307596,-23.774343,0.0],[-46.307676,-23.774184,0.0],[-46.307653,-23.774125,0.0],[-46.307653,-23.774062,0.0],[-46.307633,-23.773937,0.0],[-46.307587,-23.77377,0.0],[-46.307605,-23.773732,0.0],[-46.307605,-23.773678,0.0],[-46.307582,-23.773631,0.0]]}},{"type":"Feature","properties":{"tipo":"Caminho"},"geometry":{"type":"LineString","coordinates":[[-46.307596,-23.774343,0.0],[-46.307676,-23.774184,0.0],[-46.307653,-23.774125,0.0],[-46.307653,-23.774062,0.0],[-46.307633,-23.773937,0.0],[-46.307587,-23.77377,0.0],[-46.307605,-23.773732,0.0],[-46.307605,-23.773678,0.0],[-46.307582,-23.773631,0.0]]}},{"type":"Feature","properties":{"tipo":"Caminho"},"geometry":{"type":"LineString","coordinates":[[-46.306586,-23.774194,0.0],[-46.306732,-23.774203,0.0],[-46.307004,-23.774237,0.0],[-46.307611,-23.774346,0.0],[-46.307714,-23.774342,0.0],[-46.30773,-23.774314,0.0],[-46.307793,-23.774287,0.0],[-46.307844,-23.774246,0.0],[-46.307956,-23.774087,0.0],[-46.308106,-23.773957,0.0],[-46.308231,-23.773806,0.0],[-46.30837,-23.773666,0.0],[-46.308408,-23.773614,0.0],[-46.308465,-23.773499,0.0],[-46.308485,-23.773438,0.0],[-46.308498,-23.773376,0.0],[-46.308506,-23.77325,0.0],[-46.308541,-23.773195,0.0],[-46.308588,-23.77315,0.0],[-46.308709,-23.77309,0.0]]}},{"type":"Feature","properties":{"tipo":"Caminho"},"geometry":{"type":"LineString","coordinates":[[-46.306586,-23.774194,0.0],[-46.306732,-23.774203,0.0],[-46.307004,-23.774237,0.0],[-46.307611,-23.774346,0.0],[-46.307714,-23.774342,0.0],[-46.30773,-23.774314,0.0],[-46.307793,-23.774287,0.0],[-46.307844,-23.774246,0.0],[-46.307956,-23.774087,0.0],[-46.308106,-23.773957,0.0],[-46.308231,-23.773806,0.0],[-46.30837,-23.773666,0.0],[-46.308408,-23.773614,0.0],[-46.308465,-23.773499,0.0],[-46.308485,-23.773438,0.0],[-46.308498,-23.773376,0.0],[-46.308506,-23.77325,0.0],[-46.308541,-23.773195,0.0],[-46.308588,-23.77315,0.0],[-46.308709,-23.77309,0.0]]}},{"type":"Feature","properties":{"tipo":"Caminho"},"geometry":{"type":"LineString","coordinates":[[-46.307055,-23.774895,0.0],[-46.306924,-23.774858,0.0],[-46.306719,-23.774867,0.0],[-46.306596,-23.774811,0.0],[-46.30653,-23.774794,0.0],[-46.306396,-23.774768,0.0],[-46.306124,-23.774735,0.0],[-46.30607,-23.774695,0.0],[-46.306024,-23.774637,0.0]]}},{"type":"Feature","properties":{"tipo":"Caminho"},"geometry":{"type":"LineString","coordinates":[[-46.30321,-23.77217,0.0],[-46.303179,-23.772227,0.0],[-46.303124,-23.772265,0.0],[-46.30308,-23.772313,0.0],[-46.303012,-23.772325,0.0],[-46.302889,-23.77238,0.0],[-46.302821,-23.772386,0.0],[-46.302754,-23.772402,0.0],[-46.302716,-23.772427,0.0],[-46.302705,-23.772446,0.0],[-46.302697,-23.772509,0.0],[-46.302661,-23.772631,0.0],[-46.302466,-23.772808,0.0],[-46.302389,-23.772913,0.0],[-46.30238,-23.772957,0.0],[-46.302409,-23.773042,0.0],[-46.30244,-23.773075,0.0],[-46.302463,-23.773083,0.0],[-46.302508,-23.773079,0.0],[-46.302636,-23.773033,0.0],[-46.302704,-23.773025,0.0],[-46.302773,-23.773026,0.0],[-46.302837,-23.773049,0.0],[-46.303074,-23.773177,0.0],[-46.303258,-23.773261,0.0],[-46.303305,-23.773308,0.0],[-46.303364,-23.77334,0.0],[-46.303616,-23.773442,0.0],[-46.303711,-23.773532,0.0],[-46.303771,-23.773563,0.0],[-46.30382,-23.773608,0.0],[-46.303859,-23.77366,0.0],[-46.304022,-23.773775,0.0],[-46.304276,-23.773987,0.0],[-46.304443,-23.774098,0.0],[-46.304623,-23.77419,0.0],[-46.304671,-23.774194,0.0],[-46.304691,-23.774184,0.0],[-46.304784,-23.774101,0.0]]}},{"type":"Feature","properties":{"tipo":"Caminho"},"geometry":{"type":"LineString","coordinates":[[-46.30321,-23.77217,0.0],[-46.303179,-23.772227,0.0],[-46.303124,-23.772265,0.0],[-46.30308,-23.772313,0.0],[-46.303012,-23.772325,0.0],[-46.302889,-23.77238,0.0],[-46.302821,-23.772386,0.0],[-46.302754,-23.772402,0.0],[-46.302716,-23.772427,0.0],[-46.302705,-23.772446,0.0],[-46.302697,-23.772509,0.0],[-46.302661,-23.772631,0.0],[-46.302466,-23.772808,0.0],[-46.302389,-23.772913,0.0],[-46.30238,-23.772957,0.0],[-46.302409,-23.773042,0.0],[-46.30244,-23.773075,0.0],[-46.302463,-23.773083,0.0],[-46.302508,-23.773079,0.0],[-46.302636,-23.773033,0.0],[-46.302704,-23.773025,0.0],[-46.302773,-23.773026,0.0],[-46.302837,-23.773049,0.0],[-46.303074,-23.773177,0.0],[-46.303258,-23.773261,0.0],[-46.303305,-23.773308,0.0],[-46.303364,-23.77334,0.0],[-46.303616,-23.773442,0.0],[-46.303711,-23.773532,0.0],[-46.303771,-23.773563,0.0],[-46.30382,-23.773608,0.0],[-46.303859,-23.77366,0.0],[-46.304022,-23.773775,0.0],[-46.304276,-23.773987,0.0],[-46.304443,-23.774098,0.0],[-46.304623,-23.77419,0.0],[-46.304671,-23.774194,0.0],[-46.304691,-23.774184,0.0],[-46.304784,-23.774101,0.0]]}},{"type":"Feature","properties":{"tipo":"Caminho"},"geometry":{"type":"LineString","coordinates":[[-46.308328,-23.775287,0.0],[-46.308605,-23.775435,0.0]]}},{"type":"Feature","properties":{"tipo":"Caminho"},"geometry":{"type":"LineString","coordinates":[[-46.308328,-23.775287,0.0],[-46.308605,-23.775435,0.0]]}},{"type":"Feature","properties":{"tipo":"Caminho"},"geometry":{"type":"LineString","coordinates":[[-46.308328,-23.775287,0.0],[-46.308605,-23.775435,0.0]]}},{"type":"Feature","properties":{"tipo":"Caminho"},"geometry":{"type":"LineString","coordinates":[[-46.308328,-23.775287,0.0],[-46.308605,-23.775435,0.0]]}},{"type":"Feature","properties":{"tipo":"Caminho"},"geometry":{"type":"LineString","coordinates":[[-46.308318,-23.775269,0.0],[-46.308359,-23.775277,0.0],[-46.308419,-23.775305,0.0],[-46.308641,-23.775426,0.0]]}},{"type":"Feature","properties":{"tipo":"Caminho"},"geometry":{"type":"LineString","coordinates":[[-46.308318,-23.775269,0.0],[-46.308359,-23.775277,0.0],[-46.308419,-23.775305,0.0],[-46.308641,-23.775426,0.0]]}},{"type":"Feature","properties":{"tipo":"Caminho"},"geometry":{"type":"LineString","coordinates":[[-46.308318,-23.775269,0.0],[-46.308359,-23.775277,0.0],[-46.308419,-23.775305,0.0],[-46.308641,-23.775426,0.0]]}},{"type":"Feature","properties":{"tipo":"Caminho"},"geometry":{"type":"LineString","coordinates":[[-46.308318,-23.775269,0.0],[-46.308359,-23.775277,0.0],[-46.308419,-23.775305,0.0],[-46.308641,-23.775426,0.0]]}},{"type":"Feature","properties":{"tipo":"Caminho"},"geometry":{"type":"LineString","coordinates":[[-46.308283,-23.775406,0.0],[-46.308283,-23.775288,0.0],[-46.308328,-23.775287,0.0]]}},{"type":"Feature","properties":{"tipo":"Caminho"},"geometry":{"type":"LineString","coordinates":[[-46.308283,-23.775406,0.0],[-46.308283,-23.775288,0.0],[-46.308328,-23.775287,0.0]]}},{"type":"Feature","properties":{"tipo":"Caminho"},"geometry":{"type":"LineString","coordinates":[[-46.308605,-23.775435,0.0],[-46.308679,-23.775477,0.0],[-46.308734,-23.775495,0.0],[-46.30881,-23.775512,0.0],[-46.308958,-23.775562,0.0],[-46.309209,-23.775618,0.0],[-46.309446,-23.775611,0.0],[-46.30977,-23.775583,0.0],[-46.309804,-23.775586,0.0],[-46.30986,-23.775631,0.0]]}},{"type":"Feature","properties":{"tipo":"Caminho"},"geometry":{"type":"LineString","coordinates":[[-46.308641,-23.775426,0.0],[-46.308756,-23.775452,0.0],[-46.308857,-23.775506,0.0],[-46.308972,-23.775531,0.0],[-46.309082,-23.775569,0.0],[-46.309339,-23.775594,0.0],[-46.309611,-23.775566,0.0],[-46.309775,-23.775561,0.0],[-46.309824,-23.775573,0.0],[-46.309864,-23.775594,0.0],[-46.309889,-23.775622,0.0]]}},{"type":"Feature","properties":{"tipo":"Caminho"},"geometry":{"type":"LineString","coordinates":[[-46.310444,-23.774987,0.0],[-46.310459,-23.77504,0.0]]}},{"type":"Feature","properties":{"tipo":"Caminho"},"geometry":{"type":"LineString","coordinates":[[-46.310477,-23.77494,0.0],[-46.310459,-23.774979,0.0],[-46.310468,-23.77503,0.0],[-46.310439,-23.775075,0.0]]}},{"type":"Feature","properties":{"tipo":"Caminho"},"geometry":{"type":"LineString","coordinates":[[-46.310477,-23.77494,0.0],[-46.310459,-23.774979,0.0],[-46.310468,-23.77503,0.0],[-46.310439,-23.775075,0.0]]}},{"type":"Feature","properties":{"tipo":"Caminho"},"geometry":{"type":"LineString","coordinates":[[-46.311159,-23.774866,0.0],[-46.311057,-23.774871,0.0],[-46.310949,-23.774856,0.0],[-46.310779,-23.77486,0.0],[-46.310592,-23.774915,0.0],[-46.310463,-23.774942,0.0],[-46.310226,-23.774975,0.0],[-46.310134,-23.775,0.0],[-46.310026,-23.775017,0.0],[-46.30964,-23.775061,0.0],[-46.309391,-23.775076,0.0],[-46.309374,-23.775086,0.0],[-46.30934,-23.775143,0.0]]}},{"type":"Feature","properties":{"tipo":"Caminho"},"geometry":{"type":"LineString","coordinates":[[-46.310126,-23.774997,0.0],[-46.310119,-23.774928,0.0]]}},{"type":"Feature","properties":{"tipo":"Caminho"},"geometry":{"type":"LineString","coordinates":[[-46.310126,-23.774997,0.0],[-46.310119,-23.774928,0.0]]}},{"type":"Feature","properties":{"tipo":"Caminho"},"geometry":{"type":"LineString","coordinates":[[-46.310119,-23.774928,0.0],[-46.309959,-23.774922,0.0],[-46.309892,-23.774928,0.0]]}},{"type":"Feature","properties":{"tipo":"Caminho"},"geometry":{"type":"LineString","coordinates":[[-46.310119,-23.774928,0.0],[-46.309959,-23.774922,0.0],[-46.309892,-23.774928,0.0]]}},{"type":"Feature","properties":{"tipo":"Caminho"},"geometry":{"type":"LineString","coordinates":[[-46.308283,-23.775406,0.0],[-46.308283,-23.775288,0.0],[-46.308328,-23.775287,0.0]]}},{"type":"Feature","properties":{"tipo":"Caminho"},"geometry":{"type":"LineString","coordinates":[[-46.308283,-23.775406,0.0],[-46.308283,-23.775288,0.0],[-46.308328,-23.775287,0.0]]}},{"type":"Feature","properties":{"tipo":"Caminho"},"geometry":{"type":"LineString","coordinates":[[-46.308253,-23.775402,0.0],[-46.308263,-23.77528,0.0],[-46.308276,-23.775268,0.0],[-46.308318,-23.775269,0.0]]}},{"type":"Feature","properties":{"tipo":"Caminho"},"geometry":{"type":"LineString","coordinates":[[-46.308253,-23.775402,0.0],[-46.308263,-23.77528,0.0],[-46.308276,-23.775268,0.0],[-46.308318,-23.775269,0.0]]}},{"type":"Feature","properties":{"tipo":"Caminho"},"geometry":{"type":"LineString","coordinates":[[-46.308253,-23.775402,0.0],[-46.308263,-23.77528,0.0],[-46.308276,-23.775268,0.0],[-46.308318,-23.775269,0.0]]}},{"type":"Feature","properties":{"tipo":"Caminho"},"geometry":{"type":"LineString","coordinates":[[-46.308253,-23.775402,0.0],[-46.308263,-23.77528,0.0],[-46.308276,-23.775268,0.0],[-46.308318,-23.775269,0.0]]}},{"type":"Feature","properties":{"tipo":"Caminho"},"geometry":{"type":"LineString","coordinates":[[-46.308238,-23.775273,0.0],[-46.308211,-23.775284,0.0],[-46.308186,-23.775282,0.0]]}},{"type":"Feature","properties":{"tipo":"Caminho"},"geometry":{"type":"LineString","coordinates":[[-46.308878,-23.775003,0.0],[-46.308886,-23.775045,0.0],[-46.308935,-23.775099,0.0]]}},{"type":"Feature","properties":{"tipo":"Caminho"},"geometry":{"type":"LineString","coordinates":[[-46.308653,-23.774937,0.0],[-46.308799,-23.77499,0.0],[-46.308838,-23.774991,0.0],[-46.308876,-23.774981,0.0],[-46.308945,-23.774947,0.0],[-46.308977,-23.774925,0.0],[-46.309023,-23.774826,0.0],[-46.309034,-23.774718,0.0]]}},{"type":"Feature","properties":{"tipo":"Caminho"},"geometry":{"type":"LineString","coordinates":[[-46.308653,-23.774937,0.0],[-46.308799,-23.77499,0.0],[-46.308838,-23.774991,0.0],[-46.308876,-23.774981,0.0],[-46.308945,-23.774947,0.0],[-46.308977,-23.774925,0.0],[-46.309023,-23.774826,0.0],[-46.309034,-23.774718,0.0]]}},{"type":"Feature","properties":{"tipo":"Caminho"},"geometry":{"type":"LineString","coordinates":[[-46.309972,-23.774761,0.0],[-46.309923,-23.774829,0.0],[-46.309889,-23.774935,0.0],[-46.309847,-23.774973,0.0],[-46.309821,-23.775017,0.0],[-46.309787,-23.775047,0.0]]}},{"type":"Feature","properties":{"tipo":"Caminho"},"geometry":{"type":"LineString","coordinates":[[-46.309972,-23.774761,0.0],[-46.309923,-23.774829,0.0],[-46.309889,-23.774935,0.0],[-46.309847,-23.774973,0.0],[-46.309821,-23.775017,0.0],[-46.309787,-23.775047,0.0]]}},{"type":"Feature","properties":{"tipo":"Caminho"},"geometry":{"type":"LineString","coordinates":[[-46.310373,-23.775074,0.0],[-46.310303,-23.775039,0.0],[-46.31018,-23.77495,0.0],[-46.310119,-23.774928,0.0],[-46.310029,-23.774809,0.0],[-46.309935,-23.774737,0.0],[-46.309773,-23.774717,0.0],[-46.309626,-23.774709,0.0]]}},{"type":"Feature","properties":{"tipo":"Caminho"},"geometry":{"type":"LineString","coordinates":[[-46.310373,-23.775074,0.0],[-46.310303,-23.775039,0.0],[-46.31018,-23.77495,0.0],[-46.310119,-23.774928,0.0],[-46.310029,-23.774809,0.0],[-46.309935,-23.774737,0.0],[-46.309773,-23.774717,0.0],[-46.309626,-23.774709,0.0]]}},{"type":"Feature","properties":{"tipo":"Caminho"},"geometry":{"type":"LineString","coordinates":[[-46.310691,-23.774892,0.0],[-46.310655,-23.774833,0.0],[-46.310604,-23.774797,0.0],[-46.310546,-23.774775,0.0],[-46.310458,-23.774774,0.0]]}},{"type":"Feature","properties":{"tipo":"Caminho"},"geometry":{"type":"LineString","coordinates":[[-46.310691,-23.774892,0.0],[-46.310655,-23.774833,0.0],[-46.310604,-23.774797,0.0],[-46.310546,-23.774775,0.0],[-46.310458,-23.774774,0.0]]}},{"type":"Feature","properties":{"tipo":"Caminho"},"geometry":{"type":"LineString","coordinates":[[-46.309771,-23.773899,0.0],[-46.309731,-23.773937,0.0],[-46.309662,-23.773985,0.0],[-46.309613,-23.773999,0.0],[-46.309592,-23.774016,0.0],[-46.309598,-23.774055,0.0],[-46.309584,-23.774128,0.0],[-46.309498,-23.774337,0.0],[-46.309458,-23.774417,0.0],[-46.309389,-23.7745,0.0],[-46.30933,-23.77454,0.0],[-46.309252,-23.774575,0.0],[-46.309066,-23.774594,0.0],[-46.308978,-23.774586,0.0]]}},{"type":"Feature","properties":{"tipo":"Caminho"},"geometry":{"type":"LineString","coordinates":[[-46.309771,-23.773899,0.0],[-46.309731,-23.773937,0.0],[-46.309662,-23.773985,0.0],[-46.309613,-23.773999,0.0],[-46.309592,-23.774016,0.0],[-46.309598,-23.774055,0.0],[-46.309584,-23.774128,0.0],[-46.309498,-23.774337,0.0],[-46.309458,-23.774417,0.0],[-46.309389,-23.7745,0.0],[-46.30933,-23.77454,0.0],[-46.309252,-23.774575,0.0],[-46.309066,-23.774594,0.0],[-46.308978,-23.774586,0.0]]}},{"type":"Feature","properties":{"tipo":"Caminho"},"geometry":{"type":"LineString","coordinates":[[-46.309965,-23.773789,0.0],[-46.309998,-23.773826,0.0],[-46.309996,-23.773878,0.0],[-46.310071,-23.773969,0.0],[-46.310073,-23.774032,0.0]]}},{"type":"Feature","properties":{"tipo":"Caminho"},"geometry":{"type":"LineString","coordinates":[[-46.309965,-23.773789,0.0],[-46.309998,-23.773826,0.0],[-46.309996,-23.773878,0.0],[-46.310071,-23.773969,0.0],[-46.310073,-23.774032,0.0]]}},{"type":"Feature","properties":{"tipo":"Caminho"},"geometry":{"type":"LineString","coordinates":[[-46.308158,-23.774613,0.0],[-46.308364,-23.774811,0.0],[-46.308653,-23.774937,0.0]]}},{"type":"Feature","properties":{"tipo":"Caminho"},"geometry":{"type":"LineString","coordinates":[[-46.308158,-23.774613,0.0],[-46.308364,-23.774811,0.0],[-46.308653,-23.774937,0.0]]}},{"type":"Feature","properties":{"tipo":"Caminho"},"geometry":{"type":"LineString","coordinates":[[-46.30871,-23.773091,0.0],[-46.308777,-23.773054,0.0],[-46.308894,-23.773038,0.0],[-46.309006,-23.773005,0.0],[-46.309208,-23.772895,0.0],[-46.309289,-23.772817,0.0]]}},{"type":"Feature","properties":{"tipo":"Caminho"},"geometry":{"type":"LineString","coordinates":[[-46.3096,-23.772566,0.0],[-46.309807,-23.772687,0.0],[-46.309874,-23.772757,0.0],[-46.309899,-23.772797,0.0],[-46.309983,-23.772882,0.0],[-46.310057,-23.772936,0.0],[-46.310147,-23.773016,0.0],[-46.310246,-23.773082,0.0],[-46.310462,-23.77318,0.0],[-46.310578,-23.77321,0.0],[-46.310659,-23.773246,0.0],[-46.310681,-23.773271,0.0],[-46.310708,-23.773327,0.0],[-46.31073,-23.773396,0.0],[-46.310809,-23.773565,0.0],[-46.310802,-23.773622,0.0],[-46.310775,-23.773677,0.0],[-46.310739,-23.773716,0.0],[-46.310715,-23.773728,0.0],[-46.310624,-23.77374,0.0],[-46.310541,-23.773764,0.0],[-46.310464,-23.773777,0.0],[-46.310401,-23.77377,0.0],[-46.310273,-23.773739,0.0],[-46.310112,-23.773745,0.0],[-46.309984,-23.773785,0.0],[-46.309907,-23.773785,0.0],[-46.309871,-23.773776,0.0]]}},{"type":"Feature","properties":{"tipo":"Caminho"},"geometry":{"type":"LineString","coordinates":[[-46.3096,-23.772566,0.0],[-46.309807,-23.772687,0.0],[-46.309874,-23.772757,0.0],[-46.309899,-23.772797,0.0],[-46.309983,-23.772882,0.0],[-46.310057,-23.772936,0.0],[-46.310147,-23.773016,0.0],[-46.310246,-23.773082,0.0],[-46.310462,-23.77318,0.0],[-46.310578,-23.77321,0.0],[-46.310659,-23.773246,0.0],[-46.310681,-23.773271,0.0],[-46.310708,-23.773327,0.0],[-46.31073,-23.773396,0.0],[-46.310809,-23.773565,0.0],[-46.310802,-23.773622,0.0],[-46.310775,-23.773677,0.0],[-46.310739,-23.773716,0.0],[-46.310715,-23.773728,0.0],[-46.310624,-23.77374,0.0],[-46.310541,-23.773764,0.0],[-46.310464,-23.773777,0.0],[-46.310401,-23.77377,0.0],[-46.310273,-23.773739,0.0],[-46.310112,-23.773745,0.0],[-46.309984,-23.773785,0.0],[-46.309907,-23.773785,0.0],[-46.309871,-23.773776,0.0]]}},{"type":"Feature","properties":{"tipo":"Caminho"},"geometry":{"type":"LineString","coordinates":[[-46.30871,-23.773091,0.0],[-46.308777,-23.773054,0.0],[-46.308894,-23.773038,0.0],[-46.309006,-23.773005,0.0],[-46.309208,-23.772895,0.0],[-46.309289,-23.772817,0.0]]}}]}