{"type":"FeatureCollection","features":[{"type":"Feature","properties":{"nome":"Caminho do Sal","extensao_km":53.6,"autoria":"Mariana Lebens","fonte":"https://www.google.com/maps/d/viewer?mid=12bBvGeW5hecNAqtQlvLA1lK1dseMIbA"},"geometry":{"type":"LineString","coordinates":[[-46.507108,-23.787016],[-46.506704,-23.788225],[-46.506085,-23.789244],[-46.505845,-23.790804],[-46.504623,-23.791596],[-46.502913,-23.791946],[-46.502407,-23.792248],[-46.500407,-23.794647],[-46.499968,-23.79559],[-46.499654,-23.795917],[-46.499198,-23.795967],[-46.497738,-23.795421],[-46.497376,-23.795431],[-46.497045,-23.795623],[-46.496639,-23.797655],[-46.49671,-23.799001],[-46.497181,-23.80066],[-46.497039,-23.801369],[-46.496472,-23.80201],[-46.493221,-23.804542],[-46.492663,-23.805342],[-46.492092,-23.806748],[-46.491338,-23.807572],[-46.488015,-23.809819],[-46.482755,-23.811811],[-46.481493,-23.812446],[-46.480413,-23.81318],[-46.479693,-23.813915],[-46.477476,-23.817417],[-46.477162,-23.818617],[-46.476681,-23.822531],[-46.476548,-23.82268],[-46.475283,-23.822457],[-46.474868,-23.821609],[-46.473784,-23.821726],[-46.473351,-23.821338],[-46.472841,-23.821129],[-46.472159,-23.82037],[-46.471735,-23.820327],[-46.471332,-23.820724],[-46.47107,-23.820797],[-46.469735,-23.820084],[-46.468314,-23.819642],[-46.467653,-23.817243],[-46.467093,-23.81664],[-46.467449,-23.816009],[-46.467242,-23.815475],[-46.466451,-23.815075],[-46.465763,-23.814326],[-46.465056,-23.814281],[-46.463655,-23.813362],[-46.462852,-23.812082],[-46.462267,-23.811589],[-46.460865,-23.811211],[-46.461312,-23.811267],[-46.460307,-23.811334],[-46.458995,-23.812016],[-46.458543,-23.812009],[-46.458235,-23.811715],[-46.458142,-23.811071],[-46.457501,-23.810053],[-46.455105,-23.80856],[-46.45443,-23.807939],[-46.453008,-23.807154],[-46.451019,-23.807128],[-46.449626,-23.806498],[-46.447696,-23.805961],[-46.447044,-23.805578],[-46.446358,-23.805794],[-46.443943,-23.80606],[-46.443035,-23.805979],[-46.441976,-23.805007],[-46.441251,-23.803849],[-46.438891,-23.801711],[-46.435946,-23.798713],[-46.434929,-23.797303],[-46.434262,-23.797443],[-46.43352,-23.797151],[-46.432413,-23.799094],[-46.431442,-23.798848],[-46.431482,-23.798621],[-46.432343,-23.798533],[-46.432493,-23.798317],[-46.432134,-23.797917],[-46.43243,-23.798347],[-46.432351,-23.798568],[-46.431517,-23.798654],[-46.431356,-23.798881],[-46.430148,-23.799034],[-46.429273,-23.798727],[-46.42841,-23.798904],[-46.420194,-23.797263],[-46.419484,-23.797449],[-46.418531,-23.797472],[-46.414223,-23.795771],[-46.410116,-23.793706],[-46.408742,-23.793945],[-46.408315,-23.793877],[-46.407457,-23.792476],[-46.405109,-23.791365],[-46.404105,-23.791144],[-46.403819,-23.790721],[-46.40114,-23.789185],[-46.398222,-23.786784],[-46.3979,-23.786384],[-46.397124,-23.785899],[-46.396173,-23.785898],[-46.395922,-23.785069],[-46.394282,-23.784473],[-46.39292,-23.782517],[-46.392935,-23.781946],[-46.39269,-23.781442],[-46.390835,-23.781228],[-46.38965,-23.78071],[-46.387963,-23.780764],[-46.381916,-23.77971],[-46.381366,-23.779492],[-46.381197,-23.779213],[-46.38141,-23.778146],[-46.381864,-23.777752],[-46.382285,-23.776879],[-46.382214,-23.775915],[-46.381761,-23.774922],[-46.381484,-23.773727],[-46.380595,-23.77452],[-46.379555,-23.77508],[-46.378214,-23.775457],[-46.376975,-23.775468],[-46.349791,-23.769129],[-46.347638,-23.768911],[-46.343077,-23.769002],[-46.342531,-23.76874],[-46.342306,-23.767529],[-46.342103,-23.767207],[-46.341419,-23.766971],[-46.339427,-23.766695],[-46.338458,-23.766009],[-46.337962,-23.765281],[-46.337509,-23.765087],[-46.336579,-23.765418],[-46.33602,-23.766051],[-46.329189,-23.768291],[-46.328591,-23.768364],[-46.327102,-23.767806],[-46.326289,-23.766783],[-46.326057,-23.76582],[-46.325242,-23.765398],[-46.324653,-23.765558],[-46.322471,-23.766785],[-46.32196,-23.767585],[-46.321799,-23.768423],[-46.321537,-23.768779],[-46.318997,-23.769692],[-46.317549,-23.771192],[-46.315532,-23.772386],[-46.314191,-23.772495],[-46.313366,-23.772356],[-46.311911,-23.7716],[-46.311393,-23.770549],[-46.309522,-23.769271],[-46.309159,-23.76911],[-46.308134,-23.769298],[-46.307502,-23.768896],[-46.307097,-23.769254],[-46.306686,-23.769948],[-46.306091,-23.770315],[-46.305684,-23.770767],[-46.304346,-23.771282],[-46.303705,-23.771035],[-46.303495,-23.771097],[-46.303508,-23.771702],[-46.3047,-23.773341],[-46.304861,-23.774479],[-46.303707,-23.775337],[-46.301754,-23.775672],[-46.301744,-23.775806],[-46.301923,-23.775856],[-46.301651,-23.775986],[-46.301084,-23.777166],[-46.300992,-23.776842],[-46.301112,-23.776936],[-46.301566,-23.776083],[-46.301305,-23.775719],[-46.297918,-23.776553],[-46.296356,-23.776172],[-46.296096,-23.7759],[-46.295938,-23.775322],[-46.295231,-23.774937],[-46.294901,-23.774225],[-46.294261,-23.774038],[-46.293641,-23.773536],[-46.292566,-23.773448],[-46.292133,-23.772692],[-46.291263,-23.772598],[-46.290742,-23.77271],[-46.290488,-23.772579],[-46.289924,-23.771221],[-46.290083,-23.771035],[-46.290483,-23.770978],[-46.29061,-23.770211],[-46.290084,-23.769689],[-46.289895,-23.76878],[-46.289435,-23.768452],[-46.28918,-23.767788],[-46.288611,-23.767231],[-46.288424,-23.766687],[-46.28854,-23.766337],[-46.287783,-23.764832],[-46.28649,-23.764312],[-46.284971,-23.764776],[-46.283569,-23.763658],[-46.282202,-23.763268],[-46.281906,-23.76343],[-46.281939,-23.764002],[-46.281816,-23.764051],[-46.281325,-23.763742],[-46.280883,-23.763223],[-46.280542,-23.762431],[-46.280044,-23.761864],[-46.280141,-23.761435],[-46.278851,-23.761507],[-46.278499,-23.761063],[-46.278372,-23.760547],[-46.278433,-23.761002],[-46.27869,-23.761448],[-46.279126,-23.761623],[-46.279561,-23.7615],[-46.278864,-23.76153],[-46.278489,-23.761018],[-46.278394,-23.760569],[-46.278865,-23.759714],[-46.278459,-23.759014],[-46.278319,-23.757975],[-46.277962,-23.757249],[-46.276877,-23.756303],[-46.276323,-23.756221],[-46.275895,-23.755793],[-46.275057,-23.755938],[-46.274806,-23.755812],[-46.274513,-23.755076],[-46.273674,-23.754275],[-46.27384,-23.753459],[-46.271394,-23.751295],[-46.2709,-23.750659],[-46.270489,-23.749782],[-46.269832,-23.749357],[-46.269708,-23.749064],[-46.26982,-23.747897],[-46.267833,-23.744966],[-46.267804,-23.744728],[-46.267778,-23.744889],[-46.266849,-23.743777],[-46.266945,-23.742795],[-46.266552,-23.74183],[-46.266636,-23.74112],[-46.266321,-23.740671],[-46.266445,-23.740041],[-46.266134,-23.739104],[-46.265828,-23.736381],[-46.265915,-23.735837],[-46.266186,-23.735315],[-46.266931,-23.734668],[-46.26691,-23.734542],[-46.266051,-23.734019],[-46.265203,-23.733078],[-46.264678,-23.733037],[-46.264007,-23.733465],[-46.263776,-23.734021],[-46.263115,-23.734006],[-46.261526,-23.734627],[-46.260627,-23.734446],[-46.259292,-23.734727],[-46.258285,-23.734462],[-46.257013,-23.73481],[-46.256577,-23.735203],[-46.256241,-23.735161],[-46.255605,-23.7354],[-46.25532,-23.735345],[-46.254843,-23.734933],[-46.253865,-23.734625],[-46.25214,-23.732017],[-46.251275,-23.731669],[-46.250983,-23.730059],[-46.25114,-23.729566],[-46.251698,-23.729341],[-46.251869,-23.728674],[-46.251315,-23.728337],[-46.250674,-23.728761],[-46.250101,-23.728398],[-46.249056,-23.725903],[-46.249098,-23.725458],[-46.248923,-23.725057],[-46.248716,-23.724999],[-46.247768,-23.72642],[-46.247116,-23.726617],[-46.24684,-23.726474],[-46.245464,-23.725166],[-46.245088,-23.724222],[-46.244259,-23.723602],[-46.243975,-23.722204],[-46.244002,-23.721707],[-46.243297,-23.719588],[-46.240266,-23.717007],[-46.239344,-23.71671],[-46.238432,-23.716098],[-46.238098,-23.71547],[-46.238096,-23.714577],[-46.237898,-23.713961],[-46.237291,-23.713236],[-46.237103,-23.712517],[-46.237273,-23.711525],[-46.237499,-23.71103],[-46.237525,-23.710125],[-46.238051,-23.70929],[-46.237975,-23.708155],[-46.23824,-23.706514],[-46.238149,-23.705268],[-46.238581,-23.704704],[-46.239717,-23.704177],[-46.240404,-23.703489],[-46.240406,-23.702253],[-46.240264,-23.701653],[-46.240396,-23.699917],[-46.241153,-23.698133],[-46.24158,-23.697745],[-46.241927,-23.697779],[-46.239785,-23.696497],[-46.236549,-23.6964],[-46.235808,-23.695395],[-46.234545,-23.694921],[-46.233679,-23.695022],[-46.232971,-23.695578],[-46.232401,-23.695502],[-46.231659,-23.695644],[-46.230928,-23.695354],[-46.230193,-23.695444],[-46.229611,-23.695894],[-46.229124,-23.696804],[-46.228814,-23.696863],[-46.228339,-23.696655],[-46.228128,-23.696377],[-46.228258,-23.694847],[-46.227855,-23.692364],[-46.227226,-23.691383],[-46.226135,-23.690627],[-46.225501,-23.68929],[-46.224848,-23.688344],[-46.224114,-23.687721],[-46.223456,-23.685838],[-46.222023,-23.684835],[-46.221478,-23.684944],[-46.220435,-23.685847],[-46.219518,-23.686286],[-46.218845,-23.686954],[-46.21856,-23.687592],[-46.218248,-23.687861],[-46.217499,-23.687514],[-46.215612,-23.687245],[-46.214574,-23.686287],[-46.21384,-23.686065],[-46.213019,-23.686186],[-46.211876,-23.687307],[-46.211061,-23.687686],[-46.210559,-23.68727],[-46.210339,-23.686579],[-46.210144,-23.686377],[-46.20937,-23.686124],[-46.209076,-23.685725],[-46.207904,-23.685393],[-46.206535,-23.684566],[-46.206002,-23.684475],[-46.20531,-23.684606],[-46.204997,-23.684086],[-46.204721,-23.683997],[-46.203981,-23.684481],[-46.202908,-23.684883],[-46.202856,-23.684574],[-46.203344,-23.684045],[-46.203271,-23.683617],[-46.202374,-23.682369],[-46.202101,-23.681519],[-46.201457,-23.681075],[-46.200602,-23.681011],[-46.200164,-23.681429],[-46.199429,-23.681773],[-46.198898,-23.683245],[-46.19844,-23.683536],[-46.198132,-23.683391],[-46.19727,-23.681632],[-46.196699,-23.680953],[-46.196285,-23.680807],[-46.195808,-23.681017],[-46.194899,-23.682517],[-46.194724,-23.683042],[-46.194821,-23.683653],[-46.194641,-23.68388],[-46.194183,-23.684054],[-46.192769,-23.683931],[-46.192087,-23.684377],[-46.191647,-23.684383],[-46.191417,-23.684114],[-46.191365,-23.683087],[-46.1909,-23.681823],[-46.189852,-23.681076],[-46.189444,-23.681036],[-46.188563,-23.681275],[-46.187362,-23.681213],[-46.18612,-23.681933],[-46.185834,-23.68039],[-46.185997,-23.679457],[-46.186751,-23.679013],[-46.18691,-23.677882],[-46.18611,-23.676956],[-46.18491,-23.676875],[-46.184348,-23.676486],[-46.184386,-23.675749],[-46.184898,-23.674615],[-46.184887,-23.674586],[-46.184769,-23.67454]]}}]}