{"type":"FeatureCollection","features":[{"type":"Feature","properties":{"tipo":"ARQ-CÓRREGOS"},"geometry":{"type":"LineString","coordinates":[[-46.301734,-23.781232,0.0],[-46.30148,-23.780807,0.0],[-46.301473,-23.780719,0.0],[-46.301509,-23.780625,0.0]]}},{"type":"Feature","properties":{"tipo":"ARQ-CÓRREGOS"},"geometry":{"type":"LineString","coordinates":[[-46.301734,-23.781232,0.0],[-46.30148,-23.780807,0.0],[-46.301473,-23.780719,0.0],[-46.301509,-23.780625,0.0]]}},{"type":"Feature","properties":{"tipo":"ARQ-CÓRREGOS"},"geometry":{"type":"LineString","coordinates":[[-46.301677,-23.780671,0.0],[-46.30172,-23.780855,0.0],[-46.301982,-23.781183,0.0]]}},{"type":"Feature","properties":{"tipo":"ARQ-CÓRREGOS"},"geometry":{"type":"LineString","coordinates":[[-46.301677,-23.780671,0.0],[-46.30172,-23.780855,0.0],[-46.301982,-23.781183,0.0]]}},{"type":"Feature","properties":{"tipo":"ARQ-CÓRREGOS"},"geometry":{"type":"LineString","coordinates":[[-46.301667,-23.780619,0.0],[-46.301665,-23.780393,0.0]]}},{"type":"Feature","properties":{"tipo":"ARQ-CÓRREGOS"},"geometry":{"type":"LineString","coordinates":[[-46.301667,-23.780619,0.0],[-46.301665,-23.780393,0.0]]}},{"type":"Feature","properties":{"tipo":"ARQ-CÓRREGOS"},"geometry":{"type":"LineString","coordinates":[[-46.301558,-23.78055,0.0],[-46.30172,-23.780315,0.0],[-46.3018,-23.780286,0.0]]}},{"type":"Feature","properties":{"tipo":"ARQ-CÓRREGOS"},"geometry":{"type":"LineString","coordinates":[[-46.301558,-23.78055,0.0],[-46.30172,-23.780315,0.0],[-46.3018,-23.780286,0.0]]}},{"type":"Feature","properties":{"tipo":"ARQ-CÓRREGOS"},"geometry":{"type":"LineString","coordinates":[[-46.3018,-23.780286,0.0],[-46.301914,-23.780107,0.0]]}},{"type":"Feature","properties":{"tipo":"ARQ-CÓRREGOS"},"geometry":{"type":"LineString","coordinates":[[-46.3018,-23.780286,0.0],[-46.301914,-23.780107,0.0]]}},{"type":"Feature","properties":{"tipo":"ARQ-CÓRREGOS"},"geometry":{"type":"LineString","coordinates":[[-46.303253,-23.781708,0.0],[-46.303493,-23.781476,0.0],[-46.303773,-23.781295,0.0],[-46.303816,-23.781214,0.0],[-46.303832,-23.780989,0.0],[-46.303887,-23.780849,0.0]]}},{"type":"Feature","properties":{"tipo":"ARQ-CÓRREGOS"},"geometry":{"type":"LineString","coordinates":[[-46.303455,-23.781003,0.0],[-46.303718,-23.781053,0.0],[-46.303827,-23.781026,0.0]]}},{"type":"Feature","properties":{"tipo":"ARQ-CÓRREGOS"},"geometry":{"type":"LineString","coordinates":[[-46.303873,-23.780876,0.0],[-46.303837,-23.780866,0.0],[-46.30376,-23.780746,0.0],[-46.303612,-23.780832,0.0]]}},{"type":"Feature","properties":{"tipo":"ARQ-CÓRREGOS"},"geometry":{"type":"LineString","coordinates":[[-46.304007,-23.78022,0.0],[-46.303651,-23.779834,0.0],[-46.303501,-23.779621,0.0],[-46.303273,-23.779138,0.0]]}},{"type":"Feature","properties":{"tipo":"ARQ-CÓRREGOS"},"geometry":{"type":"LineString","coordinates":[[-46.304007,-23.78022,0.0],[-46.303651,-23.779834,0.0],[-46.303501,-23.779621,0.0],[-46.303273,-23.779138,0.0]]}},{"type":"Feature","properties":{"tipo":"ARQ-CÓRREGOS"},"geometry":{"type":"LineString","coordinates":[[-46.30407,-23.780189,0.0],[-46.303912,-23.78004,0.0],[-46.303591,-23.779625,0.0],[-46.303437,-23.779382,0.0],[-46.303335,-23.779134,0.0]]}},{"type":"Feature","properties":{"tipo":"ARQ-CÓRREGOS"},"geometry":{"type":"LineString","coordinates":[[-46.30407,-23.780189,0.0],[-46.303912,-23.78004,0.0],[-46.303591,-23.779625,0.0],[-46.303437,-23.779382,0.0],[-46.303335,-23.779134,0.0]]}},{"type":"Feature","properties":{"tipo":"ARQ-CÓRREGOS"},"geometry":{"type":"LineString","coordinates":[[-46.303934,-23.779253,0.0],[-46.30359,-23.77939,0.0],[-46.303799,-23.779645,0.0]]}},{"type":"Feature","properties":{"tipo":"ARQ-CÓRREGOS"},"geometry":{"type":"LineString","coordinates":[[-46.303934,-23.779253,0.0],[-46.30359,-23.77939,0.0],[-46.303799,-23.779645,0.0]]}},{"type":"Feature","properties":{"tipo":"ARQ-CÓRREGOS"},"geometry":{"type":"LineString","coordinates":[[-46.304363,-23.778973,0.0],[-46.304286,-23.778964,0.0],[-46.304151,-23.779037,0.0],[-46.303946,-23.77925,0.0]]}},{"type":"Feature","properties":{"tipo":"ARQ-CÓRREGOS"},"geometry":{"type":"LineString","coordinates":[[-46.301914,-23.780107,0.0],[-46.301978,-23.779924,0.0]]}},{"type":"Feature","properties":{"tipo":"ARQ-CÓRREGOS"},"geometry":{"type":"LineString","coordinates":[[-46.301914,-23.780107,0.0],[-46.301978,-23.779924,0.0]]}},{"type":"Feature","properties":{"tipo":"ARQ-CÓRREGOS"},"geometry":{"type":"LineString","coordinates":[[-46.301464,-23.78005,0.0],[-46.301324,-23.77966,0.0]]}},{"type":"Feature","properties":{"tipo":"ARQ-CÓRREGOS"},"geometry":{"type":"LineString","coordinates":[[-46.301464,-23.78005,0.0],[-46.301324,-23.77966,0.0]]}},{"type":"Feature","properties":{"tipo":"ARQ-CÓRREGOS"},"geometry":{"type":"LineString","coordinates":[[-46.302055,-23.779717,0.0],[-46.301986,-23.779719,0.0]]}},{"type":"Feature","properties":{"tipo":"ARQ-CÓRREGOS"},"geometry":{"type":"LineString","coordinates":[[-46.302051,-23.779684,0.0],[-46.301992,-23.779688,0.0]]}},{"type":"Feature","properties":{"tipo":"ARQ-CÓRREGOS"},"geometry":{"type":"LineString","coordinates":[[-46.301361,-23.779606,0.0],[-46.301397,-23.779581,0.0]]}},{"type":"Feature","properties":{"tipo":"ARQ-CÓRREGOS"},"geometry":{"type":"LineString","coordinates":[[-46.301361,-23.779606,0.0],[-46.301397,-23.779581,0.0]]}},{"type":"Feature","properties":{"tipo":"ARQ-CÓRREGOS"},"geometry":{"type":"LineString","coordinates":[[-46.301444,-23.779565,0.0],[-46.3014,-23.779598,0.0]]}},{"type":"Feature","properties":{"tipo":"ARQ-CÓRREGOS"},"geometry":{"type":"LineString","coordinates":[[-46.301426,-23.779543,0.0],[-46.301385,-23.779576,0.0]]}},{"type":"Feature","properties":{"tipo":"ARQ-CÓRREGOS"},"geometry":{"type":"LineString","coordinates":[[-46.298746,-23.780338,0.0],[-46.298919,-23.780087,0.0]]}},{"type":"Feature","properties":{"tipo":"ARQ-CÓRREGOS"},"geometry":{"type":"LineString","coordinates":[[-46.298746,-23.780338,0.0],[-46.298919,-23.780087,0.0]]}},{"type":"Feature","properties":{"tipo":"ARQ-CÓRREGOS"},"geometry":{"type":"LineString","coordinates":[[-46.29884,-23.780137,0.0],[-46.298744,-23.780279,0.0],[-46.298493,-23.780313,0.0],[-46.298001,-23.77992,0.0],[-46.297734,-23.779904,0.0],[-46.297594,-23.779845,0.0],[-46.297405,-23.779708,0.0],[-46.29703,-23.779677,0.0],[-46.296901,-23.779715,0.0],[-46.29677,-23.779909,0.0],[-46.296566,-23.779951,0.0],[-46.296481,-23.780143,0.0],[-46.296376,-23.780258,0.0],[-46.29611,-23.780338,0.0]]}},{"type":"Feature","properties":{"tipo":"ARQ-CÓRREGOS"},"geometry":{"type":"LineString","coordinates":[[-46.29884,-23.780137,0.0],[-46.298744,-23.780279,0.0],[-46.298493,-23.780313,0.0],[-46.297965,-23.779891,0.0],[-46.297734,-23.779904,0.0],[-46.297594,-23.779845,0.0],[-46.297405,-23.779708,0.0],[-46.29703,-23.779677,0.0],[-46.296901,-23.779715,0.0],[-46.29677,-23.779909,0.0],[-46.296566,-23.779951,0.0],[-46.296481,-23.780143,0.0],[-46.296376,-23.780258,0.0],[-46.29611,-23.780338,0.0]]}},{"type":"Feature","properties":{"tipo":"ARQ-CÓRREGOS"},"geometry":{"type":"LineString","coordinates":[[-46.298919,-23.780087,0.0],[-46.299078,-23.779889,0.0]]}},{"type":"Feature","properties":{"tipo":"ARQ-CÓRREGOS"},"geometry":{"type":"LineString","coordinates":[[-46.298919,-23.780087,0.0],[-46.299078,-23.779889,0.0]]}},{"type":"Feature","properties":{"tipo":"ARQ-CÓRREGOS"},"geometry":{"type":"LineString","coordinates":[[-46.299085,-23.779905,0.0],[-46.299173,-23.779868,0.0],[-46.299125,-23.779723,0.0],[-46.298946,-23.779793,0.0],[-46.298891,-23.779694,0.0],[-46.298896,-23.779602,0.0]]}},{"type":"Feature","properties":{"tipo":"ARQ-CÓRREGOS"},"geometry":{"type":"LineString","coordinates":[[-46.299085,-23.779905,0.0],[-46.299173,-23.779868,0.0],[-46.299125,-23.779723,0.0],[-46.298946,-23.779793,0.0],[-46.298891,-23.779694,0.0],[-46.298896,-23.779602,0.0]]}},{"type":"Feature","properties":{"tipo":"ARQ-CÓRREGOS"},"geometry":{"type":"LineString","coordinates":[[-46.299278,-23.77938,0.0],[-46.299308,-23.779324,0.0],[-46.299273,-23.779308,0.0],[-46.299245,-23.77936,0.0],[-46.299278,-23.77938,0.0]]}},{"type":"Feature","properties":{"tipo":"ARQ-CÓRREGOS"},"geometry":{"type":"LineString","coordinates":[[-46.299504,-23.779025,0.0],[-46.299467,-23.779004,0.0],[-46.299443,-23.779036,0.0],[-46.29948,-23.779058,0.0],[-46.299504,-23.779025,0.0]]}},{"type":"Feature","properties":{"tipo":"ARQ-CÓRREGOS"},"geometry":{"type":"LineString","coordinates":[[-46.302001,-23.779869,0.0],[-46.302023,-23.779567,0.0],[-46.301941,-23.779201,0.0]]}},{"type":"Feature","properties":{"tipo":"ARQ-CÓRREGOS"},"geometry":{"type":"LineString","coordinates":[[-46.301431,-23.779552,0.0],[-46.301488,-23.779511,0.0]]}},{"type":"Feature","properties":{"tipo":"ARQ-CÓRREGOS"},"geometry":{"type":"LineString","coordinates":[[-46.301431,-23.779552,0.0],[-46.301488,-23.779511,0.0]]}},{"type":"Feature","properties":{"tipo":"ARQ-CÓRREGOS"},"geometry":{"type":"LineString","coordinates":[[-46.30055,-23.779283,0.0],[-46.300679,-23.779048,0.0],[-46.300794,-23.778963,0.0]]}},{"type":"Feature","properties":{"tipo":"ARQ-CÓRREGOS"},"geometry":{"type":"LineString","coordinates":[[-46.30055,-23.779283,0.0],[-46.300679,-23.779048,0.0],[-46.300794,-23.778963,0.0]]}},{"type":"Feature","properties":{"tipo":"ARQ-CÓRREGOS"},"geometry":{"type":"LineString","coordinates":[[-46.299501,-23.779061,0.0],[-46.299462,-23.779071,0.0],[-46.299445,-23.779113,0.0],[-46.29951,-23.779104,0.0],[-46.299526,-23.779071,0.0],[-46.299501,-23.779061,0.0]]}},{"type":"Feature","properties":{"tipo":"ARQ-CÓRREGOS"},"geometry":{"type":"LineString","coordinates":[[-46.299977,-23.77872,0.0],[-46.299847,-23.778863,0.0],[-46.299554,-23.778945,0.0],[-46.299516,-23.779061,0.0]]}},{"type":"Feature","properties":{"tipo":"ARQ-CÓRREGOS"},"geometry":{"type":"LineString","coordinates":[[-46.301704,-23.778862,0.0],[-46.301593,-23.778555,0.0]]}},{"type":"Feature","properties":{"tipo":"ARQ-CÓRREGOS"},"geometry":{"type":"LineString","coordinates":[[-46.300252,-23.778265,0.0],[-46.299934,-23.778788,0.0],[-46.299794,-23.778885,0.0],[-46.299554,-23.778945,0.0],[-46.299516,-23.779061,0.0]]}},{"type":"Feature","properties":{"tipo":"ARQ-CÓRREGOS"},"geometry":{"type":"LineString","coordinates":[[-46.301105,-23.777374,0.0],[-46.301264,-23.777406,0.0],[-46.30137,-23.777355,0.0],[-46.301462,-23.777367,0.0],[-46.301945,-23.777507,0.0]]}},{"type":"Feature","properties":{"tipo":"ARQ-CÓRREGOS"},"geometry":{"type":"LineString","coordinates":[[-46.304363,-23.778973,0.0],[-46.304286,-23.778964,0.0],[-46.304151,-23.779037,0.0],[-46.303946,-23.77925,0.0]]}},{"type":"Feature","properties":{"tipo":"ARQ-CÓRREGOS"},"geometry":{"type":"LineString","coordinates":[[-46.303729,-23.779331,0.0],[-46.303601,-23.779215,0.0],[-46.303494,-23.778997,0.0],[-46.303384,-23.778388,0.0]]}},{"type":"Feature","properties":{"tipo":"ARQ-CÓRREGOS"},"geometry":{"type":"LineString","coordinates":[[-46.303678,-23.779352,0.0],[-46.303539,-23.779141,0.0],[-46.303469,-23.778942,0.0],[-46.30338,-23.778482,0.0],[-46.303367,-23.778141,0.0]]}},{"type":"Feature","properties":{"tipo":"ARQ-CÓRREGOS"},"geometry":{"type":"LineString","coordinates":[[-46.303678,-23.779352,0.0],[-46.303539,-23.779141,0.0],[-46.303469,-23.778942,0.0],[-46.30338,-23.778482,0.0],[-46.303367,-23.778141,0.0]]}},{"type":"Feature","properties":{"tipo":"ARQ-CÓRREGOS"},"geometry":{"type":"LineString","coordinates":[[-46.303273,-23.779138,0.0],[-46.303106,-23.778665,0.0],[-46.302977,-23.777987,0.0]]}},{"type":"Feature","properties":{"tipo":"ARQ-CÓRREGOS"},"geometry":{"type":"LineString","coordinates":[[-46.303273,-23.779138,0.0],[-46.303106,-23.778665,0.0],[-46.302977,-23.777987,0.0]]}},{"type":"Feature","properties":{"tipo":"ARQ-CÓRREGOS"},"geometry":{"type":"LineString","coordinates":[[-46.303335,-23.779134,0.0],[-46.303252,-23.77868,0.0],[-46.303215,-23.77799,0.0]]}},{"type":"Feature","properties":{"tipo":"ARQ-CÓRREGOS"},"geometry":{"type":"LineString","coordinates":[[-46.303335,-23.779134,0.0],[-46.303252,-23.77868,0.0],[-46.303215,-23.77799,0.0]]}},{"type":"Feature","properties":{"tipo":"ARQ-CÓRREGOS"},"geometry":{"type":"LineString","coordinates":[[-46.302973,-23.777963,0.0],[-46.302945,-23.777754,0.0],[-46.302953,-23.777442,0.0]]}},{"type":"Feature","properties":{"tipo":"ARQ-CÓRREGOS"},"geometry":{"type":"LineString","coordinates":[[-46.302973,-23.777963,0.0],[-46.302945,-23.777754,0.0],[-46.302953,-23.777442,0.0]]}},{"type":"Feature","properties":{"tipo":"ARQ-CÓRREGOS"},"geometry":{"type":"LineString","coordinates":[[-46.29785,-23.778414,0.0],[-46.298378,-23.778145,0.0],[-46.298426,-23.778073,0.0]]}},{"type":"Feature","properties":{"tipo":"ARQ-CÓRREGOS"},"geometry":{"type":"LineString","coordinates":[[-46.29785,-23.778414,0.0],[-46.298378,-23.778145,0.0],[-46.298426,-23.778073,0.0]]}},{"type":"Feature","properties":{"tipo":"ARQ-CÓRREGOS"},"geometry":{"type":"LineString","coordinates":[[-46.297086,-23.776696,0.0],[-46.297378,-23.776668,0.0],[-46.297392,-23.776595,0.0]]}},{"type":"Feature","properties":{"tipo":"ARQ-CÓRREGOS"},"geometry":{"type":"LineString","coordinates":[[-46.297086,-23.776696,0.0],[-46.297378,-23.776668,0.0],[-46.297392,-23.776595,0.0]]}},{"type":"Feature","properties":{"tipo":"ARQ-CÓRREGOS"},"geometry":{"type":"LineString","coordinates":[[-46.297231,-23.776682,0.0],[-46.297252,-23.776591,0.0],[-46.297297,-23.776582,0.0]]}},{"type":"Feature","properties":{"tipo":"ARQ-CÓRREGOS"},"geometry":{"type":"LineString","coordinates":[[-46.297231,-23.776682,0.0],[-46.297252,-23.776591,0.0],[-46.297297,-23.776582,0.0]]}},{"type":"Feature","properties":{"tipo":"ARQ-CÓRREGOS"},"geometry":{"type":"LineString","coordinates":[[-46.297376,-23.77659,0.0],[-46.297497,-23.77661,0.0]]}},{"type":"Feature","properties":{"tipo":"ARQ-CÓRREGOS"},"geometry":{"type":"LineString","coordinates":[[-46.297376,-23.77659,0.0],[-46.297497,-23.77661,0.0]]}},{"type":"Feature","properties":{"tipo":"ARQ-CÓRREGOS"},"geometry":{"type":"LineString","coordinates":[[-46.298075,-23.776558,0.0],[-46.298081,-23.776575,0.0]]}},{"type":"Feature","properties":{"tipo":"ARQ-CÓRREGOS"},"geometry":{"type":"LineString","coordinates":[[-46.298371,-23.776489,0.0],[-46.298375,-23.776507,0.0]]}},{"type":"Feature","properties":{"tipo":"ARQ-CÓRREGOS"},"geometry":{"type":"LineString","coordinates":[[-46.301105,-23.777374,0.0],[-46.301264,-23.777406,0.0],[-46.30137,-23.777355,0.0],[-46.301462,-23.777367,0.0],[-46.301945,-23.777507,0.0]]}},{"type":"Feature","properties":{"tipo":"ARQ-CÓRREGOS"},"geometry":{"type":"LineString","coordinates":[[-46.301245,-23.776966,0.0],[-46.301706,-23.776783,0.0]]}},{"type":"Feature","properties":{"tipo":"ARQ-CÓRREGOS"},"geometry":{"type":"LineString","coordinates":[[-46.301245,-23.776966,0.0],[-46.301706,-23.776783,0.0]]}},{"type":"Feature","properties":{"tipo":"ARQ-CÓRREGOS"},"geometry":{"type":"LineString","coordinates":[[-46.300778,-23.775946,0.0],[-46.300914,-23.775899,0.0]]}},{"type":"Feature","properties":{"tipo":"ARQ-CÓRREGOS"},"geometry":{"type":"LineString","coordinates":[[-46.300778,-23.775946,0.0],[-46.300914,-23.775899,0.0]]}},{"type":"Feature","properties":{"tipo":"ARQ-CÓRREGOS"},"geometry":{"type":"LineString","coordinates":[[-46.301432,-23.775914,0.0],[-46.301322,-23.775906,0.0],[-46.301209,-23.775842,0.0],[-46.300914,-23.775899,0.0]]}},{"type":"Feature","properties":{"tipo":"ARQ-CÓRREGOS"},"geometry":{"type":"LineString","coordinates":[[-46.301457,-23.775716,0.0],[-46.302332,-23.775672,0.0]]}},{"type":"Feature","properties":{"tipo":"ARQ-CÓRREGOS"},"geometry":{"type":"LineString","coordinates":[[-46.300331,-23.775602,0.0],[-46.300448,-23.775581,0.0],[-46.300503,-23.775607,0.0]]}},{"type":"Feature","properties":{"tipo":"ARQ-CÓRREGOS"},"geometry":{"type":"LineString","coordinates":[[-46.300331,-23.775602,0.0],[-46.300448,-23.775581,0.0],[-46.300503,-23.775607,0.0]]}},{"type":"Feature","properties":{"tipo":"ARQ-CÓRREGOS"},"geometry":{"type":"LineString","coordinates":[[-46.299291,-23.77565,0.0],[-46.299471,-23.775414,0.0],[-46.299501,-23.775261,0.0],[-46.299622,-23.775216,0.0],[-46.300131,-23.775439,0.0],[-46.300176,-23.775472,0.0],[-46.300162,-23.775582,0.0],[-46.300331,-23.775602,0.0]]}},{"type":"Feature","properties":{"tipo":"ARQ-CÓRREGOS"},"geometry":{"type":"LineString","coordinates":[[-46.298449,-23.776471,0.0],[-46.298452,-23.776486,0.0]]}},{"type":"Feature","properties":{"tipo":"ARQ-CÓRREGOS"},"geometry":{"type":"LineString","coordinates":[[-46.29869,-23.776427,0.0],[-46.298445,-23.77648,0.0]]}},{"type":"Feature","properties":{"tipo":"ARQ-CÓRREGOS"},"geometry":{"type":"LineString","coordinates":[[-46.29869,-23.776427,0.0],[-46.298445,-23.77648,0.0]]}},{"type":"Feature","properties":{"tipo":"ARQ-CÓRREGOS"},"geometry":{"type":"LineString","coordinates":[[-46.298679,-23.77642,0.0],[-46.298683,-23.776437,0.0]]}},{"type":"Feature","properties":{"tipo":"ARQ-CÓRREGOS"},"geometry":{"type":"LineString","coordinates":[[-46.298787,-23.776394,0.0],[-46.298791,-23.776409,0.0]]}},{"type":"Feature","properties":{"tipo":"ARQ-CÓRREGOS"},"geometry":{"type":"LineString","coordinates":[[-46.299018,-23.776341,0.0],[-46.299022,-23.776358,0.0]]}},{"type":"Feature","properties":{"tipo":"ARQ-CÓRREGOS"},"geometry":{"type":"LineString","coordinates":[[-46.299076,-23.776329,0.0],[-46.299079,-23.776344,0.0]]}},{"type":"Feature","properties":{"tipo":"ARQ-CÓRREGOS"},"geometry":{"type":"LineString","coordinates":[[-46.299335,-23.77627,0.0],[-46.299337,-23.776288,0.0]]}},{"type":"Feature","properties":{"tipo":"ARQ-CÓRREGOS"},"geometry":{"type":"LineString","coordinates":[[-46.298934,-23.775875,0.0],[-46.299108,-23.775774,0.0]]}},{"type":"Feature","properties":{"tipo":"ARQ-CÓRREGOS"},"geometry":{"type":"LineString","coordinates":[[-46.298934,-23.775875,0.0],[-46.299291,-23.77565,0.0]]}},{"type":"Feature","properties":{"tipo":"ARQ-CÓRREGOS"},"geometry":{"type":"LineString","coordinates":[[-46.298616,-23.775642,0.0],[-46.298513,-23.775627,0.0],[-46.298323,-23.775771,0.0],[-46.298103,-23.77576,0.0]]}},{"type":"Feature","properties":{"tipo":"ARQ-CÓRREGOS"},"geometry":{"type":"LineString","coordinates":[[-46.299396,-23.775517,0.0],[-46.299291,-23.775494,0.0],[-46.299205,-23.775518,0.0]]}},{"type":"Feature","properties":{"tipo":"ARQ-CÓRREGOS"},"geometry":{"type":"LineString","coordinates":[[-46.299396,-23.775517,0.0],[-46.299291,-23.775494,0.0],[-46.299205,-23.775518,0.0]]}},{"type":"Feature","properties":{"tipo":"ARQ-CÓRREGOS"},"geometry":{"type":"LineString","coordinates":[[-46.294121,-23.775216,0.0],[-46.294252,-23.775377,0.0],[-46.294644,-23.775407,0.0],[-46.294975,-23.775244,0.0],[-46.295182,-23.775057,0.0]]}},{"type":"Feature","properties":{"tipo":"ARQ-CÓRREGOS"},"geometry":{"type":"LineString","coordinates":[[-46.294121,-23.775216,0.0],[-46.294252,-23.775377,0.0],[-46.294644,-23.775407,0.0],[-46.294975,-23.775244,0.0],[-46.295182,-23.775057,0.0]]}},{"type":"Feature","properties":{"tipo":"ARQ-CÓRREGOS"},"geometry":{"type":"LineString","coordinates":[[-46.298976,-23.774332,0.0],[-46.299041,-23.774704,0.0],[-46.299153,-23.774934,0.0],[-46.299424,-23.775218,0.0],[-46.299523,-23.775247,0.0]]}},{"type":"Feature","properties":{"tipo":"ARQ-CÓRREGOS"},"geometry":{"type":"LineString","coordinates":[[-46.298976,-23.774332,0.0],[-46.299041,-23.774704,0.0],[-46.299153,-23.774934,0.0],[-46.299424,-23.775218,0.0],[-46.299523,-23.775247,0.0]]}},{"type":"Feature","properties":{"tipo":"ARQ-CÓRREGOS"},"geometry":{"type":"LineString","coordinates":[[-46.2938,-23.773662,0.0],[-46.294088,-23.773354,0.0],[-46.294479,-23.772836,0.0],[-46.294561,-23.77278,0.0],[-46.294848,-23.772759,0.0]]}},{"type":"Feature","properties":{"tipo":"ARQ-CÓRREGOS"},"geometry":{"type":"LineString","coordinates":[[-46.2938,-23.773662,0.0],[-46.294088,-23.773354,0.0],[-46.294479,-23.772836,0.0],[-46.294561,-23.77278,0.0],[-46.294848,-23.772759,0.0]]}},{"type":"Feature","properties":{"tipo":"ARQ-CÓRREGOS"},"geometry":{"type":"LineString","coordinates":[[-46.311933,-23.780213,0.0],[-46.312163,-23.780414,0.0],[-46.312308,-23.780456,0.0],[-46.312354,-23.78051,0.0],[-46.312365,-23.780587,0.0],[-46.312276,-23.780771,0.0],[-46.312072,-23.780924,0.0],[-46.311856,-23.781173,0.0],[-46.311827,-23.781448,0.0],[-46.311926,-23.781708,0.0]]}},{"type":"Feature","properties":{"tipo":"ARQ-CÓRREGOS"},"geometry":{"type":"LineString","coordinates":[[-46.311933,-23.780213,0.0],[-46.312163,-23.780414,0.0],[-46.312308,-23.780456,0.0],[-46.312354,-23.78051,0.0],[-46.312365,-23.780587,0.0],[-46.312276,-23.780771,0.0],[-46.312072,-23.780924,0.0],[-46.311856,-23.781173,0.0],[-46.311827,-23.781448,0.0],[-46.311926,-23.781708,0.0]]}},{"type":"Feature","properties":{"tipo":"ARQ-CÓRREGOS"},"geometry":{"type":"LineString","coordinates":[[-46.310633,-23.779849,0.0],[-46.310722,-23.780022,0.0],[-46.31083,-23.780364,0.0],[-46.310847,-23.780457,0.0],[-46.310802,-23.780732,0.0],[-46.310838,-23.78082,0.0],[-46.311275,-23.781048,0.0],[-46.311717,-23.781082,0.0],[-46.311856,-23.781173,0.0]]}},{"type":"Feature","properties":{"tipo":"ARQ-CÓRREGOS"},"geometry":{"type":"LineString","coordinates":[[-46.312218,-23.779769,0.0],[-46.312428,-23.779545,0.0],[-46.312562,-23.779338,0.0],[-46.312668,-23.779267,0.0]]}},{"type":"Feature","properties":{"tipo":"ARQ-CÓRREGOS"},"geometry":{"type":"LineString","coordinates":[[-46.311522,-23.779287,0.0],[-46.311745,-23.779064,0.0],[-46.311987,-23.779022,0.0]]}},{"type":"Feature","properties":{"tipo":"ARQ-CÓRREGOS"},"geometry":{"type":"LineString","coordinates":[[-46.311522,-23.779287,0.0],[-46.311745,-23.779064,0.0],[-46.311987,-23.779022,0.0]]}},{"type":"Feature","properties":{"tipo":"ARQ-CÓRREGOS"},"geometry":{"type":"LineString","coordinates":[[-46.308708,-23.778933,0.0],[-46.308862,-23.778958,0.0],[-46.309132,-23.779102,0.0],[-46.309326,-23.779119,0.0]]}},{"type":"Feature","properties":{"tipo":"ARQ-CÓRREGOS"},"geometry":{"type":"LineString","coordinates":[[-46.308708,-23.778933,0.0],[-46.308862,-23.778958,0.0],[-46.309132,-23.779102,0.0],[-46.309326,-23.779119,0.0]]}},{"type":"Feature","properties":{"tipo":"ARQ-CÓRREGOS"},"geometry":{"type":"LineString","coordinates":[[-46.311593,-23.778586,0.0],[-46.311791,-23.778843,0.0],[-46.311991,-23.779024,0.0],[-46.312749,-23.779285,0.0]]}},{"type":"Feature","properties":{"tipo":"ARQ-CÓRREGOS"},"geometry":{"type":"LineString","coordinates":[[-46.311593,-23.778586,0.0],[-46.311791,-23.778843,0.0],[-46.311991,-23.779024,0.0],[-46.312749,-23.779285,0.0]]}},{"type":"Feature","properties":{"tipo":"ARQ-CÓRREGOS"},"geometry":{"type":"LineString","coordinates":[[-46.304007,-23.78022,0.0],[-46.304412,-23.780571,0.0],[-46.305282,-23.781196,0.0],[-46.305848,-23.781708,0.0]]}},{"type":"Feature","properties":{"tipo":"ARQ-CÓRREGOS"},"geometry":{"type":"LineString","coordinates":[[-46.304007,-23.78022,0.0],[-46.304412,-23.780571,0.0],[-46.305282,-23.781196,0.0],[-46.305848,-23.781708,0.0]]}},{"type":"Feature","properties":{"tipo":"ARQ-CÓRREGOS"},"geometry":{"type":"LineString","coordinates":[[-46.304075,-23.780196,0.0],[-46.305346,-23.78117,0.0],[-46.305951,-23.781708,0.0]]}},{"type":"Feature","properties":{"tipo":"ARQ-CÓRREGOS"},"geometry":{"type":"LineString","coordinates":[[-46.304075,-23.780196,0.0],[-46.305346,-23.78117,0.0],[-46.305951,-23.781708,0.0]]}},{"type":"Feature","properties":{"tipo":"ARQ-CÓRREGOS"},"geometry":{"type":"LineString","coordinates":[[-46.305278,-23.780707,0.0],[-46.305147,-23.781016,0.0]]}},{"type":"Feature","properties":{"tipo":"ARQ-CÓRREGOS"},"geometry":{"type":"LineString","coordinates":[[-46.305278,-23.780707,0.0],[-46.305147,-23.781016,0.0]]}},{"type":"Feature","properties":{"tipo":"ARQ-CÓRREGOS"},"geometry":{"type":"LineString","coordinates":[[-46.305278,-23.780707,0.0],[-46.305147,-23.781016,0.0]]}},{"type":"Feature","properties":{"tipo":"ARQ-CÓRREGOS"},"geometry":{"type":"LineString","coordinates":[[-46.30608,-23.778752,0.0],[-46.305584,-23.778541,0.0],[-46.305447,-23.778413,0.0],[-46.305312,-23.778193,0.0],[-46.305315,-23.777941,0.0],[-46.305532,-23.777737,0.0],[-46.305602,-23.777566,0.0]]}},{"type":"Feature","properties":{"tipo":"ARQ-CÓRREGOS"},"geometry":{"type":"LineString","coordinates":[[-46.30608,-23.778752,0.0],[-46.305584,-23.778541,0.0],[-46.305447,-23.778413,0.0],[-46.305312,-23.778193,0.0],[-46.305315,-23.777941,0.0],[-46.305532,-23.777737,0.0],[-46.305602,-23.777566,0.0]]}},{"type":"Feature","properties":{"tipo":"ARQ-CÓRREGOS"},"geometry":{"type":"LineString","coordinates":[[-46.304845,-23.777986,0.0],[-46.305097,-23.77789,0.0],[-46.305329,-23.777917,0.0]]}},{"type":"Feature","properties":{"tipo":"ARQ-CÓRREGOS"},"geometry":{"type":"LineString","coordinates":[[-46.309743,-23.778164,0.0],[-46.309931,-23.778399,0.0],[-46.310001,-23.778445,0.0],[-46.310544,-23.77836,0.0],[-46.310977,-23.778465,0.0]]}},{"type":"Feature","properties":{"tipo":"ARQ-CÓRREGOS"},"geometry":{"type":"LineString","coordinates":[[-46.309743,-23.778164,0.0],[-46.309931,-23.778399,0.0],[-46.310001,-23.778445,0.0],[-46.310544,-23.77836,0.0],[-46.310977,-23.778465,0.0]]}},{"type":"Feature","properties":{"tipo":"ARQ-CÓRREGOS"},"geometry":{"type":"LineString","coordinates":[[-46.309326,-23.779119,0.0],[-46.30953,-23.779195,0.0],[-46.309945,-23.779449,0.0],[-46.310059,-23.779462,0.0],[-46.310199,-23.779379,0.0],[-46.310329,-23.779242,0.0],[-46.310424,-23.779012,0.0],[-46.310577,-23.778827,0.0],[-46.310753,-23.778679,0.0],[-46.310893,-23.778494,0.0],[-46.311065,-23.778452,0.0],[-46.311373,-23.778264,0.0],[-46.311624,-23.777896,0.0],[-46.311663,-23.777359,0.0],[-46.31173,-23.777129,0.0],[-46.311822,-23.777028,0.0],[-46.311999,-23.776964,0.0]]}},{"type":"Feature","properties":{"tipo":"ARQ-CÓRREGOS"},"geometry":{"type":"LineString","coordinates":[[-46.309326,-23.779119,0.0],[-46.30953,-23.779195,0.0],[-46.309945,-23.779449,0.0],[-46.310059,-23.779462,0.0],[-46.310199,-23.779379,0.0],[-46.310329,-23.779242,0.0],[-46.310424,-23.779012,0.0],[-46.310577,-23.778827,0.0],[-46.310753,-23.778679,0.0],[-46.310893,-23.778494,0.0],[-46.311065,-23.778452,0.0],[-46.311373,-23.778264,0.0],[-46.311624,-23.777896,0.0],[-46.311663,-23.777359,0.0],[-46.31173,-23.777129,0.0],[-46.311822,-23.777028,0.0],[-46.311999,-23.776964,0.0]]}},{"type":"Feature","properties":{"tipo":"ARQ-CÓRREGOS"},"geometry":{"type":"LineString","coordinates":[[-46.310458,-23.777168,0.0],[-46.310773,-23.776842,0.0],[-46.310996,-23.776664,0.0],[-46.311112,-23.776623,0.0],[-46.311377,-23.776628,0.0],[-46.311534,-23.776671,0.0],[-46.311816,-23.776905,0.0],[-46.31195,-23.776974,0.0]]}},{"type":"Feature","properties":{"tipo":"ARQ-CÓRREGOS"},"geometry":{"type":"LineString","coordinates":[[-46.310458,-23.777168,0.0],[-46.310773,-23.776842,0.0],[-46.310996,-23.776664,0.0],[-46.311112,-23.776623,0.0],[-46.311377,-23.776628,0.0],[-46.311534,-23.776671,0.0],[-46.311816,-23.776905,0.0],[-46.31195,-23.776974,0.0]]}},{"type":"Feature","properties":{"tipo":"ARQ-CÓRREGOS"},"geometry":{"type":"LineString","coordinates":[[-46.312062,-23.776944,0.0],[-46.312453,-23.776791,0.0],[-46.31252,-23.776733,0.0],[-46.312749,-23.776139,0.0]]}},{"type":"Feature","properties":{"tipo":"ARQ-CÓRREGOS"},"geometry":{"type":"LineString","coordinates":[[-46.312062,-23.776944,0.0],[-46.312453,-23.776791,0.0],[-46.31252,-23.776733,0.0],[-46.312749,-23.776139,0.0]]}},{"type":"Feature","properties":{"tipo":"ARQ-CÓRREGOS"},"geometry":{"type":"LineString","coordinates":[[-46.312062,-23.776944,0.0],[-46.312453,-23.776791,0.0],[-46.31252,-23.776733,0.0],[-46.312749,-23.776139,0.0]]}},{"type":"Feature","properties":{"tipo":"ARQ-CÓRREGOS"},"geometry":{"type":"LineString","coordinates":[[-46.310055,-23.776392,0.0],[-46.31059,-23.776537,0.0],[-46.310786,-23.776667,0.0],[-46.310978,-23.776675,0.0]]}},{"type":"Feature","properties":{"tipo":"ARQ-CÓRREGOS"},"geometry":{"type":"LineString","coordinates":[[-46.304845,-23.777986,0.0],[-46.305097,-23.77789,0.0],[-46.305329,-23.777917,0.0]]}},{"type":"Feature","properties":{"tipo":"ARQ-CÓRREGOS"},"geometry":{"type":"LineString","coordinates":[[-46.306612,-23.777885,0.0],[-46.30647,-23.777588,0.0],[-46.306351,-23.777447,0.0],[-46.306158,-23.777454,0.0],[-46.305876,-23.777576,0.0],[-46.305604,-23.777547,0.0]]}},{"type":"Feature","properties":{"tipo":"ARQ-CÓRREGOS"},"geometry":{"type":"LineString","coordinates":[[-46.306612,-23.777885,0.0],[-46.30647,-23.777588,0.0],[-46.306351,-23.777447,0.0],[-46.306158,-23.777454,0.0],[-46.305876,-23.777576,0.0],[-46.305604,-23.777547,0.0]]}},{"type":"Feature","properties":{"tipo":"ARQ-CÓRREGOS"},"geometry":{"type":"LineString","coordinates":[[-46.307081,-23.778282,0.0],[-46.307203,-23.776971,0.0]]}},{"type":"Feature","properties":{"tipo":"ARQ-CÓRREGOS"},"geometry":{"type":"LineString","coordinates":[[-46.305602,-23.777566,0.0],[-46.305563,-23.777468,0.0],[-46.305495,-23.777461,0.0],[-46.305447,-23.777416,0.0],[-46.30543,-23.777291,0.0],[-46.305353,-23.777191,0.0],[-46.305347,-23.777129,0.0],[-46.30511,-23.777006,0.0],[-46.30501,-23.776919,0.0],[-46.304954,-23.776655,0.0],[-46.304548,-23.776255,0.0],[-46.304477,-23.776144,0.0],[-46.304471,-23.776049,0.0]]}},{"type":"Feature","properties":{"tipo":"ARQ-CÓRREGOS"},"geometry":{"type":"LineString","coordinates":[[-46.305602,-23.777566,0.0],[-46.305563,-23.777468,0.0],[-46.305495,-23.777461,0.0],[-46.305447,-23.777416,0.0],[-46.30543,-23.777291,0.0],[-46.305353,-23.777191,0.0],[-46.305347,-23.777129,0.0],[-46.30511,-23.777006,0.0],[-46.30501,-23.776919,0.0],[-46.304954,-23.776655,0.0],[-46.304548,-23.776255,0.0],[-46.304477,-23.776144,0.0],[-46.304471,-23.776049,0.0]]}},{"type":"Feature","properties":{"tipo":"ARQ-CÓRREGOS"},"geometry":{"type":"LineString","coordinates":[[-46.307203,-23.776971,0.0],[-46.30718,-23.776457,0.0],[-46.307253,-23.776355,0.0]]}},{"type":"Feature","properties":{"tipo":"ARQ-CÓRREGOS"},"geometry":{"type":"LineString","coordinates":[[-46.307203,-23.776971,0.0],[-46.30718,-23.776457,0.0],[-46.307253,-23.776355,0.0]]}},{"type":"Feature","properties":{"tipo":"ARQ-CÓRREGOS"},"geometry":{"type":"LineString","coordinates":[[-46.306012,-23.776044,0.0],[-46.305595,-23.775718,0.0],[-46.305358,-23.775592,0.0],[-46.305207,-23.775464,0.0],[-46.305106,-23.775428,0.0]]}},{"type":"Feature","properties":{"tipo":"ARQ-CÓRREGOS"},"geometry":{"type":"LineString","coordinates":[[-46.306012,-23.776044,0.0],[-46.305595,-23.775718,0.0],[-46.305358,-23.775592,0.0],[-46.305207,-23.775464,0.0],[-46.305106,-23.775428,0.0]]}},{"type":"Feature","properties":{"tipo":"ARQ-CÓRREGOS"},"geometry":{"type":"LineString","coordinates":[[-46.303239,-23.777847,0.0],[-46.303374,-23.777194,0.0],[-46.303493,-23.776921,0.0],[-46.303726,-23.776532,0.0]]}},{"type":"Feature","properties":{"tipo":"ARQ-CÓRREGOS"},"geometry":{"type":"LineString","coordinates":[[-46.303239,-23.777847,0.0],[-46.303374,-23.777194,0.0],[-46.303493,-23.776921,0.0],[-46.303726,-23.776532,0.0]]}},{"type":"Feature","properties":{"tipo":"ARQ-CÓRREGOS"},"geometry":{"type":"LineString","coordinates":[[-46.302953,-23.777442,0.0],[-46.303098,-23.776777,0.0],[-46.303262,-23.776335,0.0]]}},{"type":"Feature","properties":{"tipo":"ARQ-CÓRREGOS"},"geometry":{"type":"LineString","coordinates":[[-46.302953,-23.777442,0.0],[-46.303098,-23.776777,0.0],[-46.303262,-23.776335,0.0]]}},{"type":"Feature","properties":{"tipo":"ARQ-CÓRREGOS"},"geometry":{"type":"LineString","coordinates":[[-46.303726,-23.776532,0.0],[-46.304249,-23.776152,0.0]]}},{"type":"Feature","properties":{"tipo":"ARQ-CÓRREGOS"},"geometry":{"type":"LineString","coordinates":[[-46.303726,-23.776532,0.0],[-46.304249,-23.776152,0.0]]}},{"type":"Feature","properties":{"tipo":"ARQ-CÓRREGOS"},"geometry":{"type":"LineString","coordinates":[[-46.30441,-23.776266,0.0],[-46.30524,-23.775676,0.0],[-46.305325,-23.775587,0.0],[-46.305356,-23.775385,0.0]]}},{"type":"Feature","properties":{"tipo":"ARQ-CÓRREGOS"},"geometry":{"type":"LineString","coordinates":[[-46.304249,-23.776152,0.0],[-46.304556,-23.776011,0.0],[-46.305003,-23.775721,0.0],[-46.305072,-23.775616,0.0],[-46.305102,-23.775391,0.0]]}},{"type":"Feature","properties":{"tipo":"ARQ-CÓRREGOS"},"geometry":{"type":"LineString","coordinates":[[-46.304249,-23.776152,0.0],[-46.304556,-23.776011,0.0],[-46.305003,-23.775721,0.0],[-46.305072,-23.775616,0.0],[-46.305102,-23.775391,0.0]]}},{"type":"Feature","properties":{"tipo":"ARQ-CÓRREGOS"},"geometry":{"type":"LineString","coordinates":[[-46.302332,-23.775672,0.0],[-46.302949,-23.775576,0.0]]}},{"type":"Feature","properties":{"tipo":"ARQ-CÓRREGOS"},"geometry":{"type":"LineString","coordinates":[[-46.310055,-23.776392,0.0],[-46.31059,-23.776537,0.0],[-46.310786,-23.776667,0.0],[-46.310978,-23.776675,0.0]]}},{"type":"Feature","properties":{"tipo":"ARQ-CÓRREGOS"},"geometry":{"type":"LineString","coordinates":[[-46.30919,-23.775289,0.0],[-46.30926,-23.775088,0.0]]}},{"type":"Feature","properties":{"tipo":"ARQ-CÓRREGOS"},"geometry":{"type":"LineString","coordinates":[[-46.30919,-23.775289,0.0],[-46.30926,-23.775088,0.0]]}},{"type":"Feature","properties":{"tipo":"ARQ-CÓRREGOS"},"geometry":{"type":"LineString","coordinates":[[-46.309346,-23.775052,0.0],[-46.309295,-23.775125,0.0],[-46.309245,-23.775101,0.0]]}},{"type":"Feature","properties":{"tipo":"ARQ-CÓRREGOS"},"geometry":{"type":"LineString","coordinates":[[-46.309608,-23.774836,0.0],[-46.309554,-23.774937,0.0],[-46.309343,-23.775037,0.0],[-46.309259,-23.775194,0.0],[-46.309229,-23.775325,0.0]]}},{"type":"Feature","properties":{"tipo":"ARQ-CÓRREGOS"},"geometry":{"type":"LineString","coordinates":[[-46.309608,-23.774836,0.0],[-46.309554,-23.774937,0.0],[-46.309343,-23.775037,0.0],[-46.309259,-23.775194,0.0],[-46.309229,-23.775325,0.0]]}},{"type":"Feature","properties":{"tipo":"ARQ-CÓRREGOS"},"geometry":{"type":"LineString","coordinates":[[-46.307425,-23.774669,0.0],[-46.307425,-23.774815,0.0],[-46.307784,-23.774861,0.0],[-46.308267,-23.775183,0.0],[-46.308545,-23.775195,0.0],[-46.30877,-23.775339,0.0],[-46.308963,-23.775404,0.0],[-46.309167,-23.775402,0.0],[-46.309229,-23.775325,0.0]]}},{"type":"Feature","properties":{"tipo":"ARQ-CÓRREGOS"},"geometry":{"type":"LineString","coordinates":[[-46.30926,-23.775088,0.0],[-46.309356,-23.774983,0.0],[-46.309543,-23.774905,0.0],[-46.30957,-23.774836,0.0]]}},{"type":"Feature","properties":{"tipo":"ARQ-CÓRREGOS"},"geometry":{"type":"LineString","coordinates":[[-46.30926,-23.775088,0.0],[-46.309356,-23.774983,0.0],[-46.309543,-23.774905,0.0],[-46.30957,-23.774836,0.0]]}},{"type":"Feature","properties":{"tipo":"ARQ-CÓRREGOS"},"geometry":{"type":"LineString","coordinates":[[-46.309613,-23.774836,0.0],[-46.309581,-23.774935,0.0]]}},{"type":"Feature","properties":{"tipo":"ARQ-CÓRREGOS"},"geometry":{"type":"LineString","coordinates":[[-46.307705,-23.776085,0.0],[-46.307762,-23.775972,0.0],[-46.30792,-23.775851,0.0],[-46.308094,-23.775655,0.0],[-46.308161,-23.775324,0.0],[-46.308143,-23.77522,0.0],[-46.30817,-23.775116,0.0]]}},{"type":"Feature","properties":{"tipo":"ARQ-CÓRREGOS"},"geometry":{"type":"LineString","coordinates":[[-46.307705,-23.776085,0.0],[-46.307762,-23.775972,0.0],[-46.30792,-23.775851,0.0],[-46.308094,-23.775655,0.0],[-46.308161,-23.775324,0.0],[-46.308143,-23.77522,0.0],[-46.30817,-23.775116,0.0]]}},{"type":"Feature","properties":{"tipo":"ARQ-CÓRREGOS"},"geometry":{"type":"LineString","coordinates":[[-46.304282,-23.775873,0.0],[-46.304982,-23.775268,0.0],[-46.305375,-23.774987,0.0],[-46.305927,-23.774734,0.0],[-46.306372,-23.774624,0.0],[-46.306889,-23.77456,0.0],[-46.308309,-23.774701,0.0]]}},{"type":"Feature","properties":{"tipo":"ARQ-CÓRREGOS"},"geometry":{"type":"LineString","coordinates":[[-46.304282,-23.775873,0.0],[-46.304982,-23.775268,0.0],[-46.305375,-23.774987,0.0],[-46.305927,-23.774734,0.0],[-46.306372,-23.774624,0.0],[-46.306889,-23.77456,0.0],[-46.308309,-23.774701,0.0]]}},{"type":"Feature","properties":{"tipo":"ARQ-CÓRREGOS"},"geometry":{"type":"LineString","coordinates":[[-46.307425,-23.774669,0.0],[-46.307425,-23.774815,0.0],[-46.307784,-23.774861,0.0],[-46.308267,-23.775183,0.0],[-46.308545,-23.775195,0.0],[-46.30877,-23.775339,0.0],[-46.308963,-23.775404,0.0],[-46.309167,-23.775402,0.0],[-46.309229,-23.775325,0.0]]}},{"type":"Feature","properties":{"tipo":"ARQ-CÓRREGOS"},"geometry":{"type":"LineString","coordinates":[[-46.307456,-23.774671,0.0],[-46.307508,-23.774768,0.0],[-46.307772,-23.774821,0.0],[-46.308271,-23.775153,0.0],[-46.308545,-23.775165,0.0],[-46.309037,-23.775385,0.0],[-46.309147,-23.775358,0.0],[-46.30919,-23.775289,0.0]]}},{"type":"Feature","properties":{"tipo":"ARQ-CÓRREGOS"},"geometry":{"type":"LineString","coordinates":[[-46.307456,-23.774671,0.0],[-46.307508,-23.774768,0.0],[-46.307772,-23.774821,0.0],[-46.308271,-23.775153,0.0],[-46.308545,-23.775165,0.0],[-46.309037,-23.775385,0.0],[-46.309147,-23.775358,0.0],[-46.30919,-23.775289,0.0]]}},{"type":"Feature","properties":{"tipo":"ARQ-CÓRREGOS"},"geometry":{"type":"LineString","coordinates":[[-46.306641,-23.774291,0.0],[-46.307086,-23.774344,0.0],[-46.308906,-23.77467,0.0],[-46.309149,-23.774686,0.0],[-46.309299,-23.774661,0.0]]}},{"type":"Feature","properties":{"tipo":"ARQ-CÓRREGOS"},"geometry":{"type":"LineString","coordinates":[[-46.306641,-23.774291,0.0],[-46.307086,-23.774344,0.0],[-46.308906,-23.77467,0.0],[-46.309149,-23.774686,0.0],[-46.309299,-23.774661,0.0]]}},{"type":"Feature","properties":{"tipo":"ARQ-CÓRREGOS"},"geometry":{"type":"LineString","coordinates":[[-46.30606,-23.774024,0.0],[-46.305985,-23.774083,0.0],[-46.305821,-23.774128,0.0],[-46.305607,-23.774405,0.0],[-46.304922,-23.774649,0.0]]}},{"type":"Feature","properties":{"tipo":"ARQ-CÓRREGOS"},"geometry":{"type":"LineString","coordinates":[[-46.30606,-23.774024,0.0],[-46.305985,-23.774083,0.0],[-46.305821,-23.774128,0.0],[-46.305607,-23.774405,0.0],[-46.304922,-23.774649,0.0]]}},{"type":"Feature","properties":{"tipo":"ARQ-CÓRREGOS"},"geometry":{"type":"LineString","coordinates":[[-46.306585,-23.773969,0.0],[-46.306594,-23.774251,0.0],[-46.306524,-23.774281,0.0],[-46.305898,-23.774346,0.0]]}},{"type":"Feature","properties":{"tipo":"ARQ-CÓRREGOS"},"geometry":{"type":"LineString","coordinates":[[-46.306585,-23.773969,0.0],[-46.306594,-23.774251,0.0],[-46.306524,-23.774281,0.0],[-46.305898,-23.774346,0.0]]}},{"type":"Feature","properties":{"tipo":"ARQ-CÓRREGOS"},"geometry":{"type":"LineString","coordinates":[[-46.30623,-23.774228,0.0],[-46.306315,-23.774191,0.0],[-46.306372,-23.774099,0.0],[-46.306615,-23.773946,0.0],[-46.306742,-23.773908,0.0],[-46.306997,-23.774,0.0],[-46.307156,-23.77412,0.0],[-46.307399,-23.774239,0.0],[-46.307427,-23.774303,0.0]]}},{"type":"Feature","properties":{"tipo":"ARQ-CÓRREGOS"},"geometry":{"type":"LineString","coordinates":[[-46.30623,-23.774228,0.0],[-46.306315,-23.774191,0.0],[-46.306372,-23.774099,0.0],[-46.306615,-23.773946,0.0],[-46.306742,-23.773908,0.0],[-46.306997,-23.774,0.0],[-46.307156,-23.77412,0.0],[-46.307399,-23.774239,0.0],[-46.307427,-23.774303,0.0]]}},{"type":"Feature","properties":{"tipo":"ARQ-CÓRREGOS"},"geometry":{"type":"LineString","coordinates":[[-46.305208,-23.773359,0.0],[-46.305294,-23.773527,0.0],[-46.30547,-23.773624,0.0],[-46.305793,-23.773727,0.0],[-46.305956,-23.773585,0.0],[-46.306171,-23.773709,0.0],[-46.306225,-23.773801,0.0],[-46.306104,-23.773926,0.0],[-46.306104,-23.77403,0.0],[-46.30614,-23.774084,0.0],[-46.306307,-23.77401,0.0],[-46.306337,-23.774025,0.0],[-46.306312,-23.774054,0.0],[-46.306332,-23.774062,0.0],[-46.30662,-23.773891,0.0],[-46.306824,-23.773891,0.0],[-46.307013,-23.773967,0.0],[-46.307165,-23.774094,0.0],[-46.307349,-23.774179,0.0],[-46.307456,-23.7743,0.0]]}},{"type":"Feature","properties":{"tipo":"ARQ-CÓRREGOS"},"geometry":{"type":"LineString","coordinates":[[-46.305208,-23.773359,0.0],[-46.305294,-23.773527,0.0],[-46.30547,-23.773624,0.0],[-46.305793,-23.773727,0.0],[-46.305956,-23.773585,0.0],[-46.306171,-23.773709,0.0],[-46.306225,-23.773801,0.0],[-46.306104,-23.773926,0.0],[-46.306104,-23.77403,0.0],[-46.30614,-23.774084,0.0],[-46.306307,-23.77401,0.0],[-46.306337,-23.774025,0.0],[-46.306312,-23.774054,0.0],[-46.306332,-23.774062,0.0],[-46.30662,-23.773891,0.0],[-46.306824,-23.773891,0.0],[-46.307013,-23.773967,0.0],[-46.307165,-23.774094,0.0],[-46.307349,-23.774179,0.0],[-46.307456,-23.7743,0.0]]}},{"type":"Feature","properties":{"tipo":"ARQ-CÓRREGOS"},"geometry":{"type":"LineString","coordinates":[[-46.305208,-23.773359,0.0],[-46.305184,-23.773426,0.0],[-46.305212,-23.773484,0.0],[-46.305423,-23.77364,0.0],[-46.305814,-23.773755,0.0],[-46.305961,-23.773627,0.0],[-46.306158,-23.773734,0.0],[-46.306182,-23.773791,0.0],[-46.306063,-23.773921,0.0],[-46.306055,-23.773983,0.0],[-46.306069,-23.774045,0.0],[-46.306149,-23.774126,0.0],[-46.306262,-23.774064,0.0],[-46.306319,-23.774094,0.0],[-46.306211,-23.774208,0.0]]}},{"type":"Feature","properties":{"tipo":"ARQ-CÓRREGOS"},"geometry":{"type":"LineString","coordinates":[[-46.305208,-23.773359,0.0],[-46.305184,-23.773426,0.0],[-46.305212,-23.773484,0.0],[-46.305423,-23.77364,0.0],[-46.305814,-23.773755,0.0],[-46.305961,-23.773627,0.0],[-46.306158,-23.773734,0.0],[-46.306182,-23.773791,0.0],[-46.306063,-23.773921,0.0],[-46.306055,-23.773983,0.0],[-46.306069,-23.774045,0.0],[-46.306149,-23.774126,0.0],[-46.306262,-23.774064,0.0],[-46.306319,-23.774094,0.0],[-46.306211,-23.774208,0.0]]}},{"type":"Feature","properties":{"tipo":"ARQ-CÓRREGOS"},"geometry":{"type":"LineString","coordinates":[[-46.307757,-23.773069,0.0],[-46.307697,-23.773181,0.0],[-46.307553,-23.773733,0.0],[-46.30737,-23.77392,0.0],[-46.307319,-23.774164,0.0]]}},{"type":"Feature","properties":{"tipo":"ARQ-CÓRREGOS"},"geometry":{"type":"LineString","coordinates":[[-46.302949,-23.775576,0.0],[-46.303047,-23.775559,0.0]]}},{"type":"Feature","properties":{"tipo":"ARQ-CÓRREGOS"},"geometry":{"type":"LineString","coordinates":[[-46.303111,-23.77555,0.0],[-46.303387,-23.775504,0.0]]}},{"type":"Feature","properties":{"tipo":"ARQ-CÓRREGOS"},"geometry":{"type":"LineString","coordinates":[[-46.303387,-23.775504,0.0],[-46.303659,-23.775449,0.0],[-46.303845,-23.775363,0.0]]}},{"type":"Feature","properties":{"tipo":"ARQ-CÓRREGOS"},"geometry":{"type":"LineString","coordinates":[[-46.303387,-23.775504,0.0],[-46.303659,-23.775449,0.0],[-46.303845,-23.775363,0.0]]}},{"type":"Feature","properties":{"tipo":"ARQ-CÓRREGOS"},"geometry":{"type":"LineString","coordinates":[[-46.303845,-23.775363,0.0],[-46.304197,-23.775143,0.0],[-46.304652,-23.774793,0.0]]}},{"type":"Feature","properties":{"tipo":"ARQ-CÓRREGOS"},"geometry":{"type":"LineString","coordinates":[[-46.303845,-23.775363,0.0],[-46.304197,-23.775143,0.0],[-46.304652,-23.774793,0.0]]}},{"type":"Feature","properties":{"tipo":"ARQ-CÓRREGOS"},"geometry":{"type":"LineString","coordinates":[[-46.302945,-23.773697,0.0],[-46.303078,-23.773727,0.0],[-46.303271,-23.773903,0.0],[-46.303638,-23.774071,0.0],[-46.30382,-23.774258,0.0],[-46.30405,-23.774395,0.0],[-46.3042,-23.774628,0.0]]}},{"type":"Feature","properties":{"tipo":"ARQ-CÓRREGOS"},"geometry":{"type":"LineString","coordinates":[[-46.30356,-23.771822,0.0],[-46.303573,-23.77176,0.0],[-46.303639,-23.771708,0.0],[-46.303876,-23.771829,0.0],[-46.303991,-23.771811,0.0],[-46.304029,-23.771957,0.0],[-46.304139,-23.772116,0.0],[-46.304247,-23.772195,0.0],[-46.304413,-23.772394,0.0],[-46.304627,-23.772517,0.0],[-46.304613,-23.772725,0.0],[-46.304499,-23.772794,0.0],[-46.304475,-23.772853,0.0],[-46.304728,-23.773204,0.0],[-46.305043,-23.773301,0.0],[-46.305182,-23.773183,0.0],[-46.305208,-23.773359,0.0]]}},{"type":"Feature","properties":{"tipo":"ARQ-CÓRREGOS"},"geometry":{"type":"LineString","coordinates":[[-46.302762,-23.772328,0.0],[-46.302825,-23.772295,0.0],[-46.30293,-23.772295,0.0],[-46.302994,-23.77224,0.0]]}},{"type":"Feature","properties":{"tipo":"ARQ-CÓRREGOS"},"geometry":{"type":"LineString","coordinates":[[-46.303042,-23.772181,0.0],[-46.303211,-23.772086,0.0],[-46.303355,-23.771954,0.0]]}},{"type":"Feature","properties":{"tipo":"ARQ-CÓRREGOS"},"geometry":{"type":"LineString","coordinates":[[-46.307757,-23.773069,0.0],[-46.307697,-23.773181,0.0],[-46.307553,-23.773733,0.0],[-46.30737,-23.77392,0.0],[-46.307319,-23.774164,0.0]]}},{"type":"Feature","properties":{"tipo":"ARQ-CÓRREGOS"},"geometry":{"type":"LineString","coordinates":[[-46.306549,-23.772518,0.0],[-46.306445,-23.772949,0.0],[-46.306415,-23.773327,0.0],[-46.306311,-23.773561,0.0],[-46.306192,-23.773728,0.0]]}},{"type":"Feature","properties":{"tipo":"ARQ-CÓRREGOS"},"geometry":{"type":"LineString","coordinates":[[-46.311661,-23.774991,0.0],[-46.312441,-23.774647,0.0]]}},{"type":"Feature","properties":{"tipo":"ARQ-CÓRREGOS"},"geometry":{"type":"LineString","coordinates":[[-46.311661,-23.774991,0.0],[-46.312441,-23.774647,0.0]]}},{"type":"Feature","properties":{"tipo":"ARQ-CÓRREGOS"},"geometry":{"type":"LineString","coordinates":[[-46.31142,-23.774834,0.0],[-46.311291,-23.774522,0.0]]}},{"type":"Feature","properties":{"tipo":"ARQ-CÓRREGOS"},"geometry":{"type":"LineString","coordinates":[[-46.31142,-23.774834,0.0],[-46.311291,-23.774522,0.0]]}},{"type":"Feature","properties":{"tipo":"ARQ-CÓRREGOS"},"geometry":{"type":"LineString","coordinates":[[-46.31142,-23.774834,0.0],[-46.311291,-23.774522,0.0]]}},{"type":"Feature","properties":{"tipo":"ARQ-CÓRREGOS"},"geometry":{"type":"LineString","coordinates":[[-46.308869,-23.77334,0.0],[-46.309396,-23.77336,0.0],[-46.30968,-23.773422,0.0],[-46.309802,-23.773489,0.0],[-46.30992,-23.773607,0.0],[-46.310222,-23.77372,0.0],[-46.310277,-23.773809,0.0],[-46.310266,-23.773949,0.0],[-46.310138,-23.77414,0.0]]}},{"type":"Feature","properties":{"tipo":"ARQ-CÓRREGOS"},"geometry":{"type":"LineString","coordinates":[[-46.308869,-23.77334,0.0],[-46.309396,-23.77336,0.0],[-46.30968,-23.773422,0.0],[-46.309802,-23.773489,0.0],[-46.30992,-23.773607,0.0],[-46.310222,-23.77372,0.0],[-46.310277,-23.773809,0.0],[-46.310266,-23.773949,0.0],[-46.310138,-23.77414,0.0]]}},{"type":"Feature","properties":{"tipo":"ARQ-CÓRREGOS"},"geometry":{"type":"LineString","coordinates":[[-46.309617,-23.774638,0.0],[-46.30968,-23.774457,0.0],[-46.309663,-23.774251,0.0],[-46.30972,-23.774176,0.0],[-46.309949,-23.774117,0.0],[-46.310119,-23.77413,0.0],[-46.310313,-23.774303,0.0],[-46.310521,-23.77425,0.0],[-46.310639,-23.774115,0.0],[-46.310797,-23.77417,0.0],[-46.310966,-23.774118,0.0],[-46.311162,-23.773936,0.0],[-46.311426,-23.77381,0.0],[-46.311494,-23.773747,0.0],[-46.311647,-23.773692,0.0],[-46.311725,-23.773564,0.0],[-46.311642,-23.773403,0.0],[-46.311381,-23.773178,0.0],[-46.31103,-23.773049,0.0],[-46.310957,-23.772876,0.0],[-46.310748,-23.772764,0.0],[-46.310254,-23.772574,0.0],[-46.309739,-23.772215,0.0],[-46.309654,-23.77207,0.0],[-46.309662,-23.771969,0.0],[-46.309919,-23.77183,0.0],[-46.309974,-23.771697,0.0],[-46.309844,-23.771291,0.0]]}},{"type":"Feature","properties":{"tipo":"ARQ-CÓRREGOS"},"geometry":{"type":"LineString","coordinates":[[-46.309617,-23.774638,0.0],[-46.30968,-23.774457,0.0],[-46.309663,-23.774251,0.0],[-46.30972,-23.774176,0.0],[-46.309949,-23.774117,0.0],[-46.310119,-23.77413,0.0],[-46.310313,-23.774303,0.0],[-46.310521,-23.77425,0.0],[-46.310639,-23.774115,0.0],[-46.310797,-23.77417,0.0],[-46.310966,-23.774118,0.0],[-46.311162,-23.773936,0.0],[-46.311426,-23.77381,0.0],[-46.311494,-23.773747,0.0],[-46.311647,-23.773692,0.0],[-46.311725,-23.773564,0.0],[-46.311642,-23.773403,0.0],[-46.311381,-23.773178,0.0],[-46.31103,-23.773049,0.0],[-46.310957,-23.772876,0.0],[-46.310748,-23.772764,0.0],[-46.310254,-23.772574,0.0],[-46.309739,-23.772215,0.0],[-46.309654,-23.77207,0.0],[-46.309662,-23.771969,0.0],[-46.309919,-23.77183,0.0],[-46.309974,-23.771697,0.0],[-46.309844,-23.771291,0.0]]}},{"type":"Feature","properties":{"tipo":"ARQ-CÓRREGOS"},"geometry":{"type":"LineString","coordinates":[[-46.309653,-23.774634,0.0],[-46.309722,-23.774507,0.0],[-46.309699,-23.774331,0.0],[-46.309724,-23.77422,0.0],[-46.309954,-23.774153,0.0],[-46.310105,-23.774164,0.0],[-46.310328,-23.774342,0.0],[-46.310544,-23.77428,0.0],[-46.310639,-23.774156,0.0],[-46.310799,-23.774208,0.0],[-46.310982,-23.774152,0.0],[-46.311218,-23.773946,0.0],[-46.311673,-23.773721,0.0],[-46.311766,-23.773568,0.0],[-46.311728,-23.773457,0.0],[-46.31159,-23.773299,0.0],[-46.311338,-23.773104,0.0],[-46.311059,-23.773024,0.0],[-46.311049,-23.772945,0.0],[-46.310986,-23.77285,0.0],[-46.310765,-23.772731,0.0],[-46.310272,-23.772542,0.0],[-46.30977,-23.772191,0.0],[-46.309694,-23.772061,0.0],[-46.309706,-23.771981,0.0],[-46.309947,-23.771856,0.0],[-46.310009,-23.77176,0.0],[-46.309995,-23.771586,0.0],[-46.309887,-23.771291,0.0]]}},{"type":"Feature","properties":{"tipo":"ARQ-CÓRREGOS"},"geometry":{"type":"LineString","coordinates":[[-46.309653,-23.774634,0.0],[-46.309722,-23.774507,0.0],[-46.309699,-23.774331,0.0],[-46.309724,-23.77422,0.0],[-46.309954,-23.774153,0.0],[-46.310105,-23.774164,0.0],[-46.310328,-23.774342,0.0],[-46.310544,-23.77428,0.0],[-46.310639,-23.774156,0.0],[-46.310799,-23.774208,0.0],[-46.310982,-23.774152,0.0],[-46.311218,-23.773946,0.0],[-46.311673,-23.773721,0.0],[-46.311766,-23.773568,0.0],[-46.311728,-23.773457,0.0],[-46.31159,-23.773299,0.0],[-46.311338,-23.773104,0.0],[-46.311059,-23.773024,0.0],[-46.311049,-23.772945,0.0],[-46.310986,-23.77285,0.0],[-46.310765,-23.772731,0.0],[-46.310272,-23.772542,0.0],[-46.30977,-23.772191,0.0],[-46.309694,-23.772061,0.0],[-46.309706,-23.771981,0.0],[-46.309947,-23.771856,0.0],[-46.310009,-23.77176,0.0],[-46.309995,-23.771586,0.0],[-46.309887,-23.771291,0.0]]}},{"type":"Feature","properties":{"tipo":"ARQ-CÓRREGOS"},"geometry":{"type":"LineString","coordinates":[[-46.308405,-23.772148,0.0],[-46.30863,-23.771948,0.0],[-46.308977,-23.771513,0.0],[-46.309071,-23.77145,0.0],[-46.309097,-23.771384,0.0],[-46.309032,-23.771291,0.0]]}},{"type":"Feature","properties":{"tipo":"ARQ-CÓRREGOS"},"geometry":{"type":"LineString","coordinates":[[-46.302332,-23.772765,0.0],[-46.302452,-23.772657,0.0],[-46.302629,-23.772411,0.0],[-46.302722,-23.772355,0.0]]}},{"type":"Feature","properties":{"tipo":"ARQ-CÓRREGOS"},"geometry":{"type":"LineString","coordinates":[[-46.302332,-23.772765,0.0],[-46.302452,-23.772657,0.0],[-46.302629,-23.772411,0.0],[-46.302722,-23.772355,0.0]]}},{"type":"Feature","properties":{"tipo":"ARQ-CÓRREGOS"},"geometry":{"type":"LineString","coordinates":[[-46.304813,-23.771292,0.0],[-46.304669,-23.771579,0.0],[-46.304455,-23.771825,0.0],[-46.304338,-23.772054,0.0],[-46.304216,-23.772171,0.0]]}},{"type":"Feature","properties":{"tipo":"ARQ-CÓRREGOS"},"geometry":{"type":"LineString","coordinates":[[-46.302332,-23.77145,0.0],[-46.302715,-23.77137,0.0],[-46.303028,-23.771419,0.0],[-46.303151,-23.771475,0.0],[-46.303247,-23.771565,0.0],[-46.303233,-23.771815,0.0],[-46.303295,-23.771925,0.0],[-46.303419,-23.771978,0.0],[-46.303468,-23.771972,0.0],[-46.303508,-23.771924,0.0]]}}]}