{"type":"FeatureCollection","features":[{"type":"Feature","properties":{"condicao":"condição R","tipo":"Ruína ferroviária"},"geometry":{"type":"MultiPolygon","coordinates":[[[[-46.302104,-23.781473,0.0],[-46.302331,-23.781541,0.0],[-46.302356,-23.781473,0.0],[-46.30213,-23.781405,0.0],[-46.302104,-23.781473,0.0]]],[[[-46.30213,-23.781405,0.0],[-46.302356,-23.781473,0.0],[-46.30238,-23.781405,0.0],[-46.302157,-23.781338,0.0],[-46.30213,-23.781405,0.0]]]]}},{"type":"Feature","properties":{"condicao":"condição R","tipo":"Ruína ferroviária"},"geometry":{"type":"MultiPolygon","coordinates":[[[[-46.301177,-23.780149,0.0],[-46.301173,-23.780143,0.0],[-46.301205,-23.780122,0.0],[-46.301191,-23.780102,0.0],[-46.301158,-23.780123,0.0],[-46.301039,-23.780199,0.0],[-46.301065,-23.780235,0.0],[-46.301138,-23.780188,0.0],[-46.301131,-23.780179,0.0],[-46.301177,-23.780149,0.0]]],[[[-46.301082,-23.780117,0.0],[-46.301078,-23.780111,0.0],[-46.301008,-23.780157,0.0],[-46.301039,-23.780199,0.0],[-46.301158,-23.780123,0.0],[-46.301129,-23.780086,0.0],[-46.301082,-23.780117,0.0]]]]}},{"type":"Feature","properties":{"condicao":"condição R","tipo":"Ruína ferroviária"},"geometry":{"type":"MultiPolygon","coordinates":[[[[-46.302315,-23.779554,0.0],[-46.302288,-23.779506,0.0],[-46.302168,-23.779572,0.0],[-46.302197,-23.779627,0.0],[-46.302315,-23.779554,0.0]]],[[[-46.302192,-23.77941,0.0],[-46.302166,-23.779369,0.0],[-46.302086,-23.779406,0.0],[-46.302109,-23.77946,0.0],[-46.302192,-23.77941,0.0]]]]}},{"type":"Feature","properties":{"condicao":"condição R","tipo":"Ruína ferroviária"},"geometry":{"type":"MultiPolygon","coordinates":[[[[-46.300848,-23.779376,0.0],[-46.300839,-23.779362,0.0],[-46.300821,-23.779372,0.0],[-46.300861,-23.779433,0.0],[-46.300894,-23.779415,0.0],[-46.300863,-23.779368,0.0],[-46.300848,-23.779376,0.0]]],[[[-46.301017,-23.779337,0.0],[-46.301088,-23.779293,0.0],[-46.301059,-23.77925,0.0],[-46.300983,-23.779294,0.0],[-46.301017,-23.779337,0.0]]]]}},{"type":"Feature","properties":{"condicao":"condição R","tipo":"Ruína ferroviária"},"geometry":{"type":"MultiPolygon","coordinates":[[[[-46.300794,-23.779801,0.0],[-46.300707,-23.779653,0.0],[-46.30061,-23.779706,0.0],[-46.300694,-23.779853,0.0],[-46.300794,-23.779801,0.0]]],[[[-46.300558,-23.779437,0.0],[-46.300538,-23.779448,0.0],[-46.300519,-23.77942,0.0],[-46.300459,-23.779454,0.0],[-46.300476,-23.77948,0.0],[-46.30043,-23.779507,0.0],[-46.300506,-23.779621,0.0],[-46.300637,-23.779555,0.0],[-46.300558,-23.779437,0.0]]],[[[-46.300049,-23.779095,0.0],[-46.300022,-23.779073,0.0],[-46.300016,-23.779083,0.0],[-46.299985,-23.779057,0.0],[-46.299944,-23.779101,0.0],[-46.29993,-23.77909,0.0],[-46.299903,-23.779116,0.0],[-46.299915,-23.779124,0.0],[-46.299926,-23.77912,0.0],[-46.299964,-23.779152,0.0],[-46.300015,-23.7791,0.0],[-46.300032,-23.779112,0.0],[-46.300049,-23.779095,0.0]]],[[[-46.300228,-23.77905,0.0],[-46.300213,-23.779067,0.0],[-46.30024,-23.779088,0.0],[-46.300255,-23.779071,0.0],[-46.300228,-23.77905,0.0]]],[[[-46.300179,-23.779048,0.0],[-46.300199,-23.779063,0.0],[-46.300224,-23.779035,0.0],[-46.300246,-23.779052,0.0],[-46.30029,-23.779003,0.0],[-46.300278,-23.778994,0.0],[-46.300289,-23.778982,0.0],[-46.300155,-23.77888,0.0],[-46.3,-23.779053,0.0],[-46.300104,-23.779132,0.0],[-46.300179,-23.779048,0.0]]],[[[-46.300315,-23.778944,0.0],[-46.300371,-23.778837,0.0],[-46.300342,-23.778824,0.0],[-46.300287,-23.778931,0.0],[-46.300315,-23.778944,0.0]]],[[[-46.300306,-23.778707,0.0],[-46.300356,-23.77874,0.0],[-46.300373,-23.778718,0.0],[-46.300324,-23.778685,0.0],[-46.300306,-23.778707,0.0]]],[[[-46.296895,-23.777151,0.0],[-46.296987,-23.777125,0.0],[-46.296952,-23.77702,0.0],[-46.29686,-23.777046,0.0],[-46.296895,-23.777151,0.0]]],[[[-46.297212,-23.776973,0.0],[-46.297196,-23.776923,0.0],[-46.297097,-23.77695,0.0],[-46.297116,-23.777013,0.0],[-46.297187,-23.776994,0.0],[-46.297184,-23.776981,0.0],[-46.297212,-23.776973,0.0]]],[[[-46.302049,-23.776379,0.0],[-46.301956,-23.776424,0.0],[-46.301983,-23.77647,0.0],[-46.302075,-23.776425,0.0],[-46.302049,-23.776379,0.0]]]]}},{"type":"Feature","properties":{"condicao":"condição R","tipo":"Ruína ferroviária"},"geometry":{"type":"Polygon","coordinates":[[[-46.302388,-23.776063,0.0],[-46.302714,-23.776008,0.0],[-46.302697,-23.775922,0.0],[-46.302371,-23.775977,0.0],[-46.302388,-23.776063,0.0]]]}},{"type":"Feature","properties":{"condicao":"condição R","tipo":"Ruína ferroviária"},"geometry":{"type":"MultiPolygon","coordinates":[[[[-46.299899,-23.77541,0.0],[-46.299905,-23.775391,0.0],[-46.299874,-23.775378,0.0],[-46.299856,-23.775415,0.0],[-46.300006,-23.775486,0.0],[-46.300019,-23.775468,0.0],[-46.299899,-23.77541,0.0]]],[[[-46.299856,-23.775366,0.0],[-46.299811,-23.775345,0.0],[-46.299803,-23.775363,0.0],[-46.299847,-23.775386,0.0],[-46.299856,-23.775366,0.0]]]]}},{"type":"Feature","properties":{"condicao":"condição R","tipo":"Ruína ferroviária"},"geometry":{"type":"Polygon","coordinates":[[[-46.299164,-23.775205,0.0],[-46.29918,-23.775304,0.0],[-46.299212,-23.775303,0.0],[-46.299227,-23.775371,0.0],[-46.299271,-23.775363,0.0],[-46.29923,-23.775192,0.0],[-46.299164,-23.775205,0.0]]]}}]}