{"type":"FeatureCollection","features":[{"type":"Feature","properties":{"tipo":"Sistema viário"},"geometry":{"type":"LineString","coordinates":[[-46.302485,-23.7825676667,0.0],[-46.302091,-23.7820806667,0.0],[-46.301606,-23.7819846667,0.0],[-46.30158,-23.7819746667,0.0],[-46.301557,-23.7819516667,0.0],[-46.301548,-23.7819326667,0.0],[-46.301564,-23.7817576667,0.0],[-46.301577,-23.7816986667,0.0],[-46.301665,-23.7816296667,0.0],[-46.301677,-23.7816036667,0.0],[-46.301675,-23.7815756667,0.0],[-46.301579,-23.7814156667,0.0],[-46.301486,-23.7812796667,0.0],[-46.301468,-23.7811266667,0.0],[-46.301361,-23.7808776667,0.0],[-46.301297,-23.7806876667,0.0],[-46.301233,-23.7805556667,0.0],[-46.301164,-23.7804456667,0.0],[-46.301094,-23.7803706667,0.0],[-46.300948,-23.7802776667,0.0],[-46.300914,-23.7802276667,0.0]]}},{"type":"Feature","properties":{"tipo":"Sistema viário"},"geometry":{"type":"LineString","coordinates":[[-46.302516,-23.7825496667,0.0],[-46.302111,-23.7820496667,0.0],[-46.302084,-23.7820386667,0.0],[-46.301618,-23.7819516667,0.0],[-46.301595,-23.7819396667,0.0],[-46.301583,-23.7819226667,0.0],[-46.301579,-23.7818986667,0.0],[-46.301601,-23.7817136667,0.0],[-46.301698,-23.7816306667,0.0],[-46.301711,-23.7815996667,0.0],[-46.301707,-23.7815676667,0.0],[-46.301519,-23.7812666667,0.0],[-46.3015,-23.7811166667,0.0],[-46.301427,-23.7809666667,0.0],[-46.301377,-23.7808456667,0.0],[-46.301313,-23.7806556667,0.0],[-46.301249,-23.7805236667,0.0],[-46.30118,-23.7804126667,0.0],[-46.301111,-23.7803386667,0.0],[-46.300965,-23.7802456667,0.0],[-46.300931,-23.7801956667,0.0],[-46.300909,-23.7801156667,0.0],[-46.300891,-23.7799216667,0.0],[-46.300921,-23.7798416667,0.0],[-46.30134,-23.7796016667,0.0]]}},{"type":"Feature","properties":{"tipo":"Sistema viário"},"geometry":{"type":"LineString","coordinates":[[-46.303015,-23.7813126667,0.0],[-46.303067,-23.7811146667,0.0],[-46.3031,-23.7809366667,0.0],[-46.303102,-23.7808466667,0.0],[-46.303092,-23.7807536667,0.0]]}},{"type":"Feature","properties":{"tipo":"Sistema viário"},"geometry":{"type":"LineString","coordinates":[[-46.3025,-23.7815416667,0.0],[-46.302517,-23.7814586667,0.0],[-46.302515,-23.7813496667,0.0],[-46.30245,-23.7812616667,0.0],[-46.302425,-23.7811876667,0.0],[-46.3024,-23.7810416667,0.0],[-46.302425,-23.7808646667,0.0],[-46.302418,-23.7807046667,0.0],[-46.302236,-23.7805216667,0.0]]}},{"type":"Feature","properties":{"tipo":"Sistema viário"},"geometry":{"type":"LineString","coordinates":[[-46.303216,-23.7810326667,0.0],[-46.303133,-23.7810256667,0.0]]}},{"type":"Feature","properties":{"tipo":"Sistema viário"},"geometry":{"type":"LineString","coordinates":[[-46.302986,-23.7813066667,0.0],[-46.303038,-23.7811096667,0.0],[-46.30307,-23.7809346667,0.0],[-46.303062,-23.7807096667,0.0]]}},{"type":"Feature","properties":{"tipo":"Sistema viário"},"geometry":{"type":"LineString","coordinates":[[-46.303133,-23.7810256667,0.0],[-46.30315,-23.7808616667,0.0]]}},{"type":"Feature","properties":{"tipo":"Sistema viário"},"geometry":{"type":"LineString","coordinates":[[-46.302529,-23.7815466667,0.0],[-46.302546,-23.7814616667,0.0],[-46.302545,-23.7813406667,0.0],[-46.302477,-23.7812496667,0.0],[-46.302454,-23.7811816667,0.0],[-46.30243,-23.7810416667,0.0],[-46.302455,-23.7808666667,0.0],[-46.302447,-23.7806986667,0.0],[-46.302434,-23.7806736667,0.0],[-46.302282,-23.7805216667,0.0],[-46.302127,-23.7803296667,0.0],[-46.302118,-23.7802966667,0.0],[-46.302127,-23.7802586667,0.0],[-46.302145,-23.7802356667,0.0],[-46.30218,-23.7802176667,0.0]]}},{"type":"Feature","properties":{"tipo":"Sistema viário"},"geometry":{"type":"LineString","coordinates":[[-46.30315,-23.7808616667,0.0],[-46.303098,-23.7807626667,0.0]]}},{"type":"Feature","properties":{"tipo":"Sistema viário"},"geometry":{"type":"LineString","coordinates":[[-46.303121,-23.7807466667,0.0],[-46.303197,-23.7808466667,0.0]]}},{"type":"Feature","properties":{"tipo":"Sistema viário"},"geometry":{"type":"LineString","coordinates":[[-46.303098,-23.7807626667,0.0],[-46.303092,-23.7807536667,0.0]]}},{"type":"Feature","properties":{"tipo":"Sistema viário"},"geometry":{"type":"LineString","coordinates":[[-46.302918,-23.7804596667,0.0],[-46.30299,-23.7805496667,0.0],[-46.303121,-23.7807466667,0.0]]}},{"type":"Feature","properties":{"tipo":"Sistema viário"},"geometry":{"type":"LineString","coordinates":[[-46.303062,-23.7807096667,0.0],[-46.30299,-23.7806036667,0.0],[-46.302866,-23.7804456667,0.0]]}},{"type":"Feature","properties":{"tipo":"Sistema viário"},"geometry":{"type":"LineString","coordinates":[[-46.30213,-23.7803836667,0.0],[-46.302236,-23.7805216667,0.0]]}},{"type":"Feature","properties":{"tipo":"Sistema viário"},"geometry":{"type":"LineString","coordinates":[[-46.302866,-23.7804456667,0.0],[-46.302831,-23.7804006667,0.0]]}},{"type":"Feature","properties":{"tipo":"Sistema viário"},"geometry":{"type":"LineString","coordinates":[[-46.301941,-23.7803576667,0.0],[-46.301982,-23.7803376667,0.0],[-46.302037,-23.7803336667,0.0],[-46.302089,-23.7803496667,0.0],[-46.30213,-23.7803836667,0.0]]}},{"type":"Feature","properties":{"tipo":"Sistema viário"},"geometry":{"type":"LineString","coordinates":[[-46.302918,-23.7804596667,0.0],[-46.302848,-23.7803726667,0.0],[-46.302725,-23.7802566667,0.0],[-46.302636,-23.7801856667,0.0],[-46.302529,-23.7801416667,0.0],[-46.302472,-23.7801296667,0.0],[-46.302367,-23.7801226667,0.0]]}},{"type":"Feature","properties":{"tipo":"Sistema viário"},"geometry":{"type":"LineString","coordinates":[[-46.302831,-23.7804006667,0.0],[-46.302667,-23.7802456667,0.0],[-46.302569,-23.7801846667,0.0],[-46.302515,-23.7801626667,0.0],[-46.302398,-23.7801496667,0.0],[-46.302367,-23.7801546667,0.0]]}},{"type":"Feature","properties":{"tipo":"Sistema viário"},"geometry":{"type":"LineString","coordinates":[[-46.302367,-23.7801226667,0.0],[-46.302296,-23.7801276667,0.0],[-46.30224,-23.7801436667,0.0],[-46.301939,-23.7803146667,0.0],[-46.30189,-23.7803446667,0.0],[-46.301724,-23.7805326667,0.0],[-46.30166,-23.7805536667,0.0],[-46.301605,-23.7805376667,0.0],[-46.301573,-23.7804946667,0.0],[-46.301559,-23.7804446667,0.0],[-46.30158,-23.7803386667,0.0],[-46.301597,-23.7801766667,0.0],[-46.301581,-23.7800696667,0.0],[-46.301564,-23.7800176667,0.0],[-46.301505,-23.7799126667,0.0]]}},{"type":"Feature","properties":{"tipo":"Sistema viário"},"geometry":{"type":"LineString","coordinates":[[-46.302232,-23.7801926667,0.0],[-46.30218,-23.7802176667,0.0]]}},{"type":"Feature","properties":{"tipo":"Sistema viário"},"geometry":{"type":"LineString","coordinates":[[-46.302286,-23.7801686667,0.0],[-46.302233,-23.7801926667,0.0]]}},{"type":"Feature","properties":{"tipo":"Sistema viário"},"geometry":{"type":"LineString","coordinates":[[-46.302338,-23.7801546667,0.0],[-46.302286,-23.7801686667,0.0]]}},{"type":"Feature","properties":{"tipo":"Sistema viário"},"geometry":{"type":"LineString","coordinates":[[-46.302367,-23.7801546667,0.0],[-46.302338,-23.7801546667,0.0]]}},{"type":"Feature","properties":{"tipo":"Sistema viário"},"geometry":{"type":"LineString","coordinates":[[-46.301377,-23.7796146667,0.0],[-46.301474,-23.7799266667,0.0],[-46.301545,-23.7800586667,0.0],[-46.301567,-23.7801776667,0.0],[-46.301525,-23.7804196667,0.0],[-46.301525,-23.7804786667,0.0],[-46.301567,-23.7805566667,0.0],[-46.301657,-23.7805986667,0.0],[-46.301716,-23.7805926667,0.0],[-46.30177,-23.7805716667,0.0],[-46.301872,-23.7804186667,0.0],[-46.301941,-23.7803576667,0.0]]}},{"type":"Feature","properties":{"tipo":"Sistema viário"},"geometry":{"type":"LineString","coordinates":[[-46.301995,-23.7798586667,0.0],[-46.302003,-23.7798366667,0.0]]}},{"type":"Feature","properties":{"tipo":"Sistema viário"},"geometry":{"type":"LineString","coordinates":[[-46.301505,-23.7799126667,0.0],[-46.30139,-23.7795426667,0.0]]}},{"type":"Feature","properties":{"tipo":"Sistema viário"},"geometry":{"type":"LineString","coordinates":[[-46.30134,-23.7796016667,0.0],[-46.301361,-23.7795996667,0.0],[-46.301377,-23.7796146667,0.0]]}},{"type":"Feature","properties":{"tipo":"Sistema viário"},"geometry":{"type":"LineString","coordinates":[[-46.301432,-23.7795046667,0.0],[-46.301506,-23.7796576667,0.0]]}},{"type":"Feature","properties":{"tipo":"Sistema viário"},"geometry":{"type":"LineString","coordinates":[[-46.301444,-23.7794226667,0.0],[-46.301446,-23.7794616667,0.0],[-46.301528,-23.7796486667,0.0]]}},{"type":"Feature","properties":{"tipo":"Sistema viário"},"geometry":{"type":"LineString","coordinates":[[-46.30139,-23.7795426667,0.0],[-46.301396,-23.7795146667,0.0]]}},{"type":"Feature","properties":{"tipo":"Sistema viário"},"geometry":{"type":"LineString","coordinates":[[-46.303452,-23.7812566667,0.0],[-46.303458,-23.7811616667,0.0]]}},{"type":"Feature","properties":{"tipo":"Sistema viário"},"geometry":{"type":"LineString","coordinates":[[-46.303208,-23.7811616667,0.0],[-46.303202,-23.7812386667,0.0]]}},{"type":"Feature","properties":{"tipo":"Sistema viário"},"geometry":{"type":"LineString","coordinates":[[-46.303214,-23.7810566667,0.0],[-46.303216,-23.7810326667,0.0]]}},{"type":"Feature","properties":{"tipo":"Sistema viário"},"geometry":{"type":"LineString","coordinates":[[-46.303264,-23.7809966667,0.0],[-46.303258,-23.7810596667,0.0]]}},{"type":"Feature","properties":{"tipo":"Sistema viário"},"geometry":{"type":"LineString","coordinates":[[-46.303182,-23.7809896667,0.0],[-46.303264,-23.7809966667,0.0]]}},{"type":"Feature","properties":{"tipo":"Sistema viário"},"geometry":{"type":"LineString","coordinates":[[-46.303197,-23.7808466667,0.0],[-46.303182,-23.7809896667,0.0]]}},{"type":"Feature","properties":{"tipo":"Sistema viário"},"geometry":{"type":"LineString","coordinates":[[-46.304517,-23.7787326667,0.0],[-46.304645,-23.7787186667,0.0],[-46.304666,-23.7788736667,0.0],[-46.304641,-23.7789016667,0.0]]}},{"type":"Feature","properties":{"tipo":"Sistema viário"},"geometry":{"type":"LineString","coordinates":[[-46.303952,-23.7784596667,0.0],[-46.303979,-23.7784956667,0.0],[-46.303984,-23.7785346667,0.0],[-46.303975,-23.7786066667,0.0],[-46.303995,-23.7786126667,0.0],[-46.303977,-23.7787246667,0.0],[-46.303939,-23.7787696667,0.0],[-46.303985,-23.7788116667,0.0],[-46.304033,-23.7788886667,0.0],[-46.304111,-23.7788376667,0.0],[-46.304059,-23.7787516667,0.0],[-46.304071,-23.7784826667,0.0]]}},{"type":"Feature","properties":{"tipo":"Sistema viário"},"geometry":{"type":"LineString","coordinates":[[-46.304378,-23.7785236667,0.0],[-46.304625,-23.7785056667,0.0],[-46.304646,-23.7787006667,0.0],[-46.304515,-23.7787176667,0.0]]}},{"type":"Feature","properties":{"tipo":"Sistema viário"},"geometry":{"type":"LineString","coordinates":[[-46.304816,-23.7784676667,0.0],[-46.304374,-23.7785076667,0.0]]}},{"type":"Feature","properties":{"tipo":"Sistema viário"},"geometry":{"type":"LineString","coordinates":[[-46.305161,-23.7790056667,0.0],[-46.305033,-23.7791356667,0.0],[-46.304712,-23.7794256667,0.0],[-46.304751,-23.7794646667,0.0],[-46.305103,-23.7791266667,0.0],[-46.305203,-23.7790406667,0.0],[-46.305299,-23.7790296667,0.0]]}},{"type":"Feature","properties":{"tipo":"Sistema viário"},"geometry":{"type":"LineString","coordinates":[[-46.306721,-23.7792896667,0.0],[-46.306612,-23.7793316667,0.0],[-46.306488,-23.7793576667,0.0],[-46.306358,-23.7793656667,0.0],[-46.306054,-23.7793476667,0.0],[-46.305926,-23.7793316667,0.0],[-46.305835,-23.7793136667,0.0],[-46.305635,-23.7792476667,0.0],[-46.305445,-23.7791446667,0.0],[-46.305299,-23.7790296667,0.0]]}},{"type":"Feature","properties":{"tipo":"Sistema viário"},"geometry":{"type":"LineString","coordinates":[[-46.306721,-23.7792896667,0.0],[-46.306865,-23.7792096667,0.0],[-46.306955,-23.7791276667,0.0],[-46.307024,-23.7790456667,0.0],[-46.307116,-23.7788966667,0.0],[-46.30716,-23.7787786667,0.0],[-46.307178,-23.7786866667,0.0]]}},{"type":"Feature","properties":{"tipo":"Sistema viário"},"geometry":{"type":"LineString","coordinates":[[-46.306662,-23.7792186667,0.0],[-46.306775,-23.7791596667,0.0],[-46.306911,-23.7790416667,0.0],[-46.307012,-23.7788926667,0.0],[-46.307072,-23.7787246667,0.0]]}},{"type":"Feature","properties":{"tipo":"Sistema viário"},"geometry":{"type":"LineString","coordinates":[[-46.306695,-23.7792316667,0.0],[-46.30678,-23.7791886667,0.0],[-46.306833,-23.7791506667,0.0],[-46.306906,-23.7790876667,0.0],[-46.306959,-23.7790256667,0.0],[-46.307072,-23.7788336667,0.0],[-46.307116,-23.7786576667,0.0]]}},{"type":"Feature","properties":{"tipo":"Sistema viário"},"geometry":{"type":"LineString","coordinates":[[-46.306695,-23.7792316667,0.0],[-46.306591,-23.7792716667,0.0],[-46.306478,-23.7792956667,0.0],[-46.306358,-23.7793036667,0.0],[-46.306061,-23.7792856667,0.0],[-46.305938,-23.7792706667,0.0],[-46.305853,-23.7792536667,0.0],[-46.305665,-23.7791906667,0.0],[-46.305484,-23.7790936667,0.0],[-46.305327,-23.7789676667,0.0],[-46.305261,-23.7788986667,0.0],[-46.305196,-23.7788146667,0.0],[-46.305139,-23.7787206667,0.0],[-46.30507,-23.7785726667,0.0]]}},{"type":"Feature","properties":{"tipo":"Sistema viário"},"geometry":{"type":"LineString","coordinates":[[-46.305161,-23.7790056667,0.0],[-46.305152,-23.7789446667,0.0],[-46.305049,-23.7787806667,0.0],[-46.304989,-23.7786186667,0.0]]}},{"type":"Feature","properties":{"tipo":"Sistema viário"},"geometry":{"type":"LineString","coordinates":[[-46.304701,-23.7788956667,0.0],[-46.304686,-23.7788736667,0.0],[-46.304668,-23.7787166667,0.0],[-46.304809,-23.7787006667,0.0],[-46.304839,-23.7788086667,0.0],[-46.304988,-23.7789236667,0.0]]}},{"type":"Feature","properties":{"tipo":"Sistema viário"},"geometry":{"type":"LineString","coordinates":[[-46.305002,-23.7789056667,0.0],[-46.304853,-23.7787886667,0.0],[-46.304833,-23.7786966667,0.0],[-46.304944,-23.7786836667,0.0]]}},{"type":"Feature","properties":{"tipo":"Sistema viário"},"geometry":{"type":"LineString","coordinates":[[-46.306533,-23.7793756667,0.0],[-46.306619,-23.7793586667,0.0],[-46.306733,-23.7793096667,0.0],[-46.306822,-23.7792606667,0.0],[-46.306915,-23.7791916667,0.0],[-46.30701,-23.7791056667,0.0],[-46.307078,-23.7790276667,0.0],[-46.307124,-23.7789566667,0.0],[-46.307166,-23.7788636667,0.0],[-46.30721,-23.7786886667,0.0],[-46.307228,-23.7785246667,0.0],[-46.307254,-23.7781156667,0.0]]}},{"type":"Feature","properties":{"tipo":"Sistema viário"},"geometry":{"type":"LineString","coordinates":[[-46.301432,-23.7795046667,0.0],[-46.301418,-23.7794976667,0.0],[-46.301402,-23.7795026667,0.0],[-46.301396,-23.7795146667,0.0]]}},{"type":"Feature","properties":{"tipo":"Sistema viário"},"geometry":{"type":"LineString","coordinates":[[-46.301444,-23.7794226667,0.0],[-46.301381,-23.7792306667,0.0],[-46.301381,-23.7792096667,0.0],[-46.301564,-23.7791156667,0.0],[-46.301643,-23.7790666667,0.0],[-46.302003,-23.7798366667,0.0]]}},{"type":"Feature","properties":{"tipo":"Sistema viário"},"geometry":{"type":"LineString","coordinates":[[-46.301958,-23.7796176667,0.0],[-46.301949,-23.7796216667,0.0],[-46.301779,-23.7792596667,0.0],[-46.301742,-23.7792026667,0.0]]}},{"type":"Feature","properties":{"tipo":"Sistema viário"},"geometry":{"type":"LineString","coordinates":[[-46.301742,-23.7792026667,0.0],[-46.301675,-23.7790466667,0.0]]}},{"type":"Feature","properties":{"tipo":"Sistema viário"},"geometry":{"type":"LineString","coordinates":[[-46.301675,-23.7790466667,0.0],[-46.301897,-23.7789146667,0.0],[-46.30209,-23.7788346667,0.0],[-46.302463,-23.7787456667,0.0]]}},{"type":"Feature","properties":{"tipo":"Sistema viário"},"geometry":{"type":"LineString","coordinates":[[-46.301905,-23.7781546667,0.0],[-46.301876,-23.7782786667,0.0],[-46.301875,-23.7784256667,0.0],[-46.301935,-23.7786786667,0.0],[-46.301951,-23.7787376667,0.0],[-46.302058,-23.7787556667,0.0]]}},{"type":"Feature","properties":{"tipo":"Sistema viário"},"geometry":{"type":"LineString","coordinates":[[-46.302041,-23.7776676667,0.0],[-46.301905,-23.7781546667,0.0]]}},{"type":"Feature","properties":{"tipo":"Sistema viário"},"geometry":{"type":"LineString","coordinates":[[-46.301979,-23.7776756667,0.0],[-46.301999,-23.7776406667,0.0]]}},{"type":"Feature","properties":{"tipo":"Sistema viário"},"geometry":{"type":"LineString","coordinates":[[-46.301999,-23.7776406667,0.0],[-46.301978,-23.7774316667,0.0],[-46.301934,-23.7773936667,0.0],[-46.301475,-23.7772516667,0.0],[-46.3013,-23.7772106667,0.0],[-46.301169,-23.7772096667,0.0],[-46.301062,-23.7772226667,0.0]]}},{"type":"Feature","properties":{"tipo":"Sistema viário"},"geometry":{"type":"LineString","coordinates":[[-46.302487,-23.7767976667,0.0],[-46.302382,-23.7769656667,0.0],[-46.302146,-23.7774686667,0.0],[-46.30212,-23.7775916667,0.0],[-46.302129,-23.7777316667,0.0],[-46.302044,-23.7777116667,0.0],[-46.302037,-23.7774166667,0.0],[-46.302016,-23.7773836667,0.0],[-46.301988,-23.7773596667,0.0],[-46.301958,-23.7773446667,0.0],[-46.301492,-23.7771996667,0.0],[-46.301308,-23.7771556667,0.0],[-46.301174,-23.7771556667,0.0],[-46.301147,-23.7771516667,0.0],[-46.301138,-23.7771416667,0.0]]}},{"type":"Feature","properties":{"tipo":"Sistema viário"},"geometry":{"type":"LineString","coordinates":[[-46.304195,-23.7784386667,0.0],[-46.304072,-23.7784456667,0.0]]}},{"type":"Feature","properties":{"tipo":"Sistema viário"},"geometry":{"type":"LineString","coordinates":[[-46.304072,-23.7784456667,0.0],[-46.304076,-23.7783636667,0.0],[-46.304135,-23.7783066667,0.0],[-46.304142,-23.7784186667,0.0],[-46.304165,-23.7784186667,0.0],[-46.304167,-23.7784406667,0.0]]}},{"type":"Feature","properties":{"tipo":"Sistema viário"},"geometry":{"type":"LineString","coordinates":[[-46.304332,-23.7780556667,0.0],[-46.304493,-23.7781036667,0.0],[-46.304678,-23.7782116667,0.0],[-46.304871,-23.7783446667,0.0],[-46.304989,-23.7786186667,0.0]]}},{"type":"Feature","properties":{"tipo":"Sistema viário"},"geometry":{"type":"LineString","coordinates":[[-46.303556,-23.7783856667,0.0],[-46.303536,-23.7782736667,0.0],[-46.303542,-23.7782246667,0.0]]}},{"type":"Feature","properties":{"tipo":"Sistema viário"},"geometry":{"type":"LineString","coordinates":[[-46.303556,-23.7783856667,0.0],[-46.303536,-23.7782736667,0.0],[-46.303542,-23.7782246667,0.0]]}},{"type":"Feature","properties":{"tipo":"Sistema viário"},"geometry":{"type":"LineString","coordinates":[[-46.304295,-23.7780046667,0.0],[-46.304308,-23.7780186667,0.0],[-46.304513,-23.7780716667,0.0],[-46.304706,-23.7781666667,0.0],[-46.304869,-23.7782766667,0.0],[-46.30496,-23.7783616667,0.0],[-46.30507,-23.7785726667,0.0]]}},{"type":"Feature","properties":{"tipo":"Sistema viário"},"geometry":{"type":"LineString","coordinates":[[-46.303999,-23.7783746667,0.0],[-46.304123,-23.7782786667,0.0],[-46.304135,-23.7782576667,0.0],[-46.304165,-23.7780906667,0.0],[-46.304145,-23.7780706667,0.0],[-46.304058,-23.7780706667,0.0],[-46.303963,-23.7781516667,0.0],[-46.303915,-23.7783456667,0.0]]}},{"type":"Feature","properties":{"tipo":"Sistema viário"},"geometry":{"type":"LineString","coordinates":[[-46.303631,-23.7777336667,0.0],[-46.303456,-23.7781966667,0.0],[-46.303504,-23.7784806667,0.0],[-46.303575,-23.7786946667,0.0],[-46.303655,-23.7786706667,0.0],[-46.303556,-23.7783856667,0.0]]}},{"type":"Feature","properties":{"tipo":"Sistema viário"},"geometry":{"type":"LineString","coordinates":[[-46.303631,-23.7777336667,0.0],[-46.303456,-23.7781966667,0.0],[-46.303504,-23.7784806667,0.0],[-46.303575,-23.7786946667,0.0],[-46.303655,-23.7786706667,0.0],[-46.303556,-23.7783856667,0.0]]}},{"type":"Feature","properties":{"tipo":"Sistema viário"},"geometry":{"type":"LineString","coordinates":[[-46.303542,-23.7782246667,0.0],[-46.30361,-23.7782026667,0.0],[-46.303925,-23.7781626667,0.0]]}},{"type":"Feature","properties":{"tipo":"Sistema viário"},"geometry":{"type":"LineString","coordinates":[[-46.304317,-23.7782836667,0.0],[-46.304298,-23.7780656667,0.0],[-46.304313,-23.7780546667,0.0],[-46.304332,-23.7780556667,0.0]]}},{"type":"Feature","properties":{"tipo":"Sistema viário"},"geometry":{"type":"LineString","coordinates":[[-46.304179,-23.7780526667,0.0],[-46.30419,-23.7780676667,0.0],[-46.304194,-23.7782176667,0.0],[-46.304188,-23.7782336667,0.0],[-46.30413,-23.7782756667,0.0]]}},{"type":"Feature","properties":{"tipo":"Sistema viário"},"geometry":{"type":"LineString","coordinates":[[-46.303925,-23.7781626667,0.0],[-46.304071,-23.7780506667,0.0],[-46.30413,-23.7780436667,0.0],[-46.304179,-23.7780526667,0.0]]}},{"type":"Feature","properties":{"tipo":"Sistema viário"},"geometry":{"type":"LineString","coordinates":[[-46.303552,-23.7784466667,0.0],[-46.303547,-23.7784546667,0.0],[-46.30354,-23.7784486667,0.0],[-46.303524,-23.7784086667,0.0],[-46.303492,-23.7782306667,0.0],[-46.303491,-23.7781926667,0.0],[-46.303659,-23.7777446667,0.0]]}},{"type":"Feature","properties":{"tipo":"Sistema viário"},"geometry":{"type":"LineString","coordinates":[[-46.303552,-23.7784466667,0.0],[-46.303547,-23.7784546667,0.0],[-46.30354,-23.7784486667,0.0],[-46.303524,-23.7784086667,0.0],[-46.303492,-23.7782306667,0.0],[-46.303491,-23.7781926667,0.0],[-46.303659,-23.7777446667,0.0]]}},{"type":"Feature","properties":{"tipo":"Sistema viário"},"geometry":{"type":"LineString","coordinates":[[-46.303924,-23.7778156667,0.0],[-46.303831,-23.7781346667,0.0]]}},{"type":"Feature","properties":{"tipo":"Sistema viário"},"geometry":{"type":"LineString","coordinates":[[-46.30428,-23.7778216667,0.0],[-46.304228,-23.7779426667,0.0],[-46.30419,-23.7779816667,0.0],[-46.304035,-23.7780316667,0.0],[-46.303927,-23.7781356667,0.0],[-46.303909,-23.7781416667,0.0],[-46.303857,-23.7781346667,0.0],[-46.303959,-23.7777866667,0.0]]}},{"type":"Feature","properties":{"tipo":"Sistema viário"},"geometry":{"type":"LineString","coordinates":[[-46.304295,-23.7780046667,0.0],[-46.304296,-23.7779206667,0.0],[-46.304316,-23.7778736667,0.0]]}},{"type":"Feature","properties":{"tipo":"Sistema viário"},"geometry":{"type":"LineString","coordinates":[[-46.303924,-23.7778156667,0.0],[-46.303929,-23.7778026667,0.0]]}},{"type":"Feature","properties":{"tipo":"Sistema viário"},"geometry":{"type":"LineString","coordinates":[[-46.30428,-23.7778216667,0.0],[-46.304349,-23.7776836667,0.0],[-46.304178,-23.7776516667,0.0]]}},{"type":"Feature","properties":{"tipo":"Sistema viário"},"geometry":{"type":"LineString","coordinates":[[-46.304934,-23.7786656667,0.0],[-46.304667,-23.7786956667,0.0],[-46.304643,-23.7785026667,0.0],[-46.30482,-23.7784866667,0.0]]}},{"type":"Feature","properties":{"tipo":"Sistema viário"},"geometry":{"type":"LineString","coordinates":[[-46.307178,-23.7786866667,0.0],[-46.307189,-23.7786286667,0.0],[-46.307213,-23.7782706667,0.0]]}},{"type":"Feature","properties":{"tipo":"Sistema viário"},"geometry":{"type":"LineString","coordinates":[[-46.307116,-23.7786576667,0.0],[-46.307152,-23.7782186667,0.0]]}},{"type":"Feature","properties":{"tipo":"Sistema viário"},"geometry":{"type":"LineString","coordinates":[[-46.307213,-23.7782706667,0.0],[-46.307232,-23.7780156667,0.0]]}},{"type":"Feature","properties":{"tipo":"Sistema viário"},"geometry":{"type":"LineString","coordinates":[[-46.307152,-23.7782186667,0.0],[-46.307166,-23.7780016667,0.0]]}},{"type":"Feature","properties":{"tipo":"Sistema viário"},"geometry":{"type":"LineString","coordinates":[[-46.307072,-23.7787246667,0.0],[-46.307094,-23.7785826667,0.0],[-46.307126,-23.7782086667,0.0],[-46.307208,-23.7771206667,0.0]]}},{"type":"Feature","properties":{"tipo":"Sistema viário"},"geometry":{"type":"LineString","coordinates":[[-46.307166,-23.7780016667,0.0],[-46.307207,-23.7774726667,0.0]]}},{"type":"Feature","properties":{"tipo":"Sistema viário"},"geometry":{"type":"LineString","coordinates":[[-46.307254,-23.7781156667,0.0],[-46.307323,-23.7772076667,0.0]]}},{"type":"Feature","properties":{"tipo":"Sistema viário"},"geometry":{"type":"LineString","coordinates":[[-46.307232,-23.7780156667,0.0],[-46.307292,-23.7772076667,0.0]]}},{"type":"Feature","properties":{"tipo":"Sistema viário"},"geometry":{"type":"LineString","coordinates":[[-46.307207,-23.7774726667,0.0],[-46.307239,-23.7770476667,0.0],[-46.307281,-23.7768976667,0.0]]}},{"type":"Feature","properties":{"tipo":"Sistema viário"},"geometry":{"type":"LineString","coordinates":[[-46.304178,-23.7776516667,0.0],[-46.304021,-23.7776116667,0.0],[-46.303959,-23.7777866667,0.0]]}},{"type":"Feature","properties":{"tipo":"Sistema viário"},"geometry":{"type":"LineString","coordinates":[[-46.304316,-23.7778736667,0.0],[-46.304428,-23.7776566667,0.0],[-46.304444,-23.7776006667,0.0],[-46.304448,-23.7775126667,0.0]]}},{"type":"Feature","properties":{"tipo":"Sistema viário"},"geometry":{"type":"LineString","coordinates":[[-46.304403,-23.7773996667,0.0],[-46.304389,-23.7776256667,0.0],[-46.304371,-23.7776406667,0.0]]}},{"type":"Feature","properties":{"tipo":"Sistema viário"},"geometry":{"type":"LineString","coordinates":[[-46.303659,-23.7777446667,0.0],[-46.303805,-23.7773356667,0.0],[-46.303926,-23.7771056667,0.0]]}},{"type":"Feature","properties":{"tipo":"Sistema viário"},"geometry":{"type":"LineString","coordinates":[[-46.304371,-23.7776406667,0.0],[-46.304259,-23.7776396667,0.0],[-46.304025,-23.7775846667,0.0],[-46.30406,-23.7774596667,0.0],[-46.304086,-23.7771586667,0.0]]}},{"type":"Feature","properties":{"tipo":"Sistema viário"},"geometry":{"type":"LineString","coordinates":[[-46.303595,-23.7769276667,0.0],[-46.303556,-23.7769996667,0.0],[-46.303553,-23.7770626667,0.0],[-46.303701,-23.7775246667,0.0],[-46.303631,-23.7777336667,0.0]]}},{"type":"Feature","properties":{"tipo":"Sistema viário"},"geometry":{"type":"LineString","coordinates":[[-46.303595,-23.7769276667,0.0],[-46.303556,-23.7769996667,0.0],[-46.303553,-23.7770626667,0.0],[-46.303701,-23.7775246667,0.0],[-46.303631,-23.7777336667,0.0]]}},{"type":"Feature","properties":{"tipo":"Sistema viário"},"geometry":{"type":"LineString","coordinates":[[-46.304448,-23.7775126667,0.0],[-46.304449,-23.7772666667,0.0],[-46.304443,-23.7771316667,0.0],[-46.304434,-23.7771076667,0.0],[-46.304419,-23.7770946667,0.0],[-46.304394,-23.7770886667,0.0],[-46.304241,-23.7770756667,0.0],[-46.304237,-23.7770306667,0.0]]}},{"type":"Feature","properties":{"tipo":"Sistema viário"},"geometry":{"type":"LineString","coordinates":[[-46.304396,-23.7771406667,0.0],[-46.304406,-23.7771626667,0.0],[-46.304403,-23.7773996667,0.0]]}},{"type":"Feature","properties":{"tipo":"Sistema viário"},"geometry":{"type":"LineString","coordinates":[[-46.304214,-23.7769646667,0.0],[-46.304168,-23.7770136667,0.0],[-46.304126,-23.7770316667,0.0],[-46.30398,-23.7770626667,0.0],[-46.303942,-23.7770466667,0.0],[-46.303913,-23.7770796667,0.0],[-46.303765,-23.7773616667,0.0],[-46.303717,-23.7774786667,0.0],[-46.30371,-23.7774776667,0.0],[-46.303582,-23.7770596667,0.0],[-46.303584,-23.7770076667,0.0],[-46.303624,-23.7769396667,0.0]]}},{"type":"Feature","properties":{"tipo":"Sistema viário"},"geometry":{"type":"LineString","coordinates":[[-46.299148,-23.7796226667,0.0],[-46.299106,-23.7796206667,0.0]]}},{"type":"Feature","properties":{"tipo":"Sistema viário"},"geometry":{"type":"LineString","coordinates":[[-46.299106,-23.7796206667,0.0],[-46.299065,-23.7796026667,0.0]]}},{"type":"Feature","properties":{"tipo":"Sistema viário"},"geometry":{"type":"LineString","coordinates":[[-46.299065,-23.7796026667,0.0],[-46.299018,-23.7795696667,0.0]]}},{"type":"Feature","properties":{"tipo":"Sistema viário"},"geometry":{"type":"LineString","coordinates":[[-46.299018,-23.7795696667,0.0],[-46.298976,-23.7795346667,0.0]]}},{"type":"Feature","properties":{"tipo":"Sistema viário"},"geometry":{"type":"LineString","coordinates":[[-46.298976,-23.7795346667,0.0],[-46.298926,-23.7794896667,0.0]]}},{"type":"Feature","properties":{"tipo":"Sistema viário"},"geometry":{"type":"LineString","coordinates":[[-46.298926,-23.7794896667,0.0],[-46.298892,-23.7794546667,0.0]]}},{"type":"Feature","properties":{"tipo":"Sistema viário"},"geometry":{"type":"LineString","coordinates":[[-46.298914,-23.7794766667,0.0],[-46.298892,-23.7794546667,0.0]]}},{"type":"Feature","properties":{"tipo":"Sistema viário"},"geometry":{"type":"LineString","coordinates":[[-46.298892,-23.7794546667,0.0],[-46.298885,-23.7794376667,0.0]]}},{"type":"Feature","properties":{"tipo":"Sistema viário"},"geometry":{"type":"LineString","coordinates":[[-46.298885,-23.7794376667,0.0],[-46.298721,-23.7790906667,0.0]]}},{"type":"Feature","properties":{"tipo":"Sistema viário"},"geometry":{"type":"LineString","coordinates":[[-46.298892,-23.7794546667,0.0],[-46.298675,-23.7789926667,0.0]]}},{"type":"Feature","properties":{"tipo":"Sistema viário"},"geometry":{"type":"LineString","coordinates":[[-46.299685,-23.7800596667,0.0],[-46.299725,-23.7801226667,0.0]]}},{"type":"Feature","properties":{"tipo":"Sistema viário"},"geometry":{"type":"LineString","coordinates":[[-46.300443,-23.7797146667,0.0],[-46.299725,-23.7801226667,0.0]]}},{"type":"Feature","properties":{"tipo":"Sistema viário"},"geometry":{"type":"LineString","coordinates":[[-46.299685,-23.7800596667,0.0],[-46.300291,-23.7797266667,0.0]]}},{"type":"Feature","properties":{"tipo":"Sistema viário"},"geometry":{"type":"LineString","coordinates":[[-46.300285,-23.7796616667,0.0],[-46.300303,-23.7796746667,0.0],[-46.30031,-23.7796936667,0.0],[-46.300306,-23.7797126667,0.0],[-46.300291,-23.7797266667,0.0]]}},{"type":"Feature","properties":{"tipo":"Sistema viário"},"geometry":{"type":"LineString","coordinates":[[-46.300285,-23.7796616667,0.0],[-46.299828,-23.7795116667,0.0]]}},{"type":"Feature","properties":{"tipo":"Sistema viário"},"geometry":{"type":"LineString","coordinates":[[-46.299828,-23.7795116667,0.0],[-46.299148,-23.7796226667,0.0]]}},{"type":"Feature","properties":{"tipo":"Sistema viário"},"geometry":{"type":"LineString","coordinates":[[-46.300691,-23.7794986667,0.0],[-46.300402,-23.7790686667,0.0],[-46.300381,-23.7790206667,0.0],[-46.300447,-23.7787966667,0.0],[-46.30047,-23.7786696667,0.0],[-46.300465,-23.7785836667,0.0],[-46.300427,-23.7785096667,0.0],[-46.300407,-23.7784876667,0.0],[-46.300394,-23.7784276667,0.0],[-46.30031,-23.7781866667,0.0],[-46.300185,-23.7778896667,0.0],[-46.300169,-23.7778826667,0.0],[-46.299747,-23.7785356667,0.0],[-46.299319,-23.7791806667,0.0],[-46.299119,-23.7795066667,0.0],[-46.299126,-23.7795436667,0.0],[-46.299172,-23.7795646667,0.0],[-46.29984,-23.7794436667,0.0],[-46.300429,-23.7796306667,0.0],[-46.300691,-23.7794986667,0.0]]}},{"type":"Feature","properties":{"tipo":"Sistema viário"},"geometry":{"type":"LineString","coordinates":[[-46.300218,-23.7778896667,0.0],[-46.300254,-23.7779446667,0.0],[-46.300304,-23.7780886667,0.0]]}},{"type":"Feature","properties":{"tipo":"Sistema viário"},"geometry":{"type":"LineString","coordinates":[[-46.300203,-23.7778536667,0.0],[-46.300203,-23.7778576667,0.0]]}},{"type":"Feature","properties":{"tipo":"Sistema viário"},"geometry":{"type":"LineString","coordinates":[[-46.300203,-23.7778536667,0.0],[-46.300305,-23.7776816667,0.0]]}},{"type":"Feature","properties":{"tipo":"Sistema viário"},"geometry":{"type":"LineString","coordinates":[[-46.300864,-23.7798586667,0.0],[-46.300861,-23.7799676667,0.0],[-46.300871,-23.7800756667,0.0],[-46.300894,-23.7801816667,0.0],[-46.300914,-23.7802276667,0.0]]}},{"type":"Feature","properties":{"tipo":"Sistema viário"},"geometry":{"type":"LineString","coordinates":[[-46.300864,-23.7798586667,0.0],[-46.300868,-23.7797656667,0.0],[-46.300861,-23.7797356667,0.0],[-46.300766,-23.7795706667,0.0],[-46.300752,-23.7795596667,0.0],[-46.300726,-23.7795616667,0.0],[-46.300443,-23.7797146667,0.0]]}},{"type":"Feature","properties":{"tipo":"Sistema viário"},"geometry":{"type":"LineString","coordinates":[[-46.300937,-23.7797506667,0.0],[-46.300955,-23.7797626667,0.0],[-46.300976,-23.7797606667,0.0],[-46.301351,-23.7795446667,0.0],[-46.301388,-23.7794256667,0.0],[-46.301371,-23.7793466667,0.0],[-46.301323,-23.7792656667,0.0],[-46.301284,-23.7792586667,0.0],[-46.300808,-23.7795306667,0.0],[-46.300806,-23.7795586667,0.0],[-46.300937,-23.7797506667,0.0]]}},{"type":"Feature","properties":{"tipo":"Sistema viário"},"geometry":{"type":"LineString","coordinates":[[-46.300523,-23.7785186667,0.0],[-46.300527,-23.7787466667,0.0],[-46.300471,-23.7789516667,0.0],[-46.300466,-23.7790276667,0.0],[-46.30054,-23.7791916667,0.0]]}},{"type":"Feature","properties":{"tipo":"Sistema viário"},"geometry":{"type":"LineString","coordinates":[[-46.301849,-23.7781236667,0.0],[-46.301821,-23.7782616667,0.0],[-46.30182,-23.7783696667,0.0],[-46.301823,-23.7784276667,0.0],[-46.301902,-23.7786786667,0.0],[-46.301908,-23.7787346667,0.0],[-46.301904,-23.7788346667,0.0],[-46.301878,-23.7788686667,0.0],[-46.301461,-23.7790796667,0.0],[-46.30074,-23.7794886667,0.0],[-46.30054,-23.7791916667,0.0]]}},{"type":"Feature","properties":{"tipo":"Sistema viário"},"geometry":{"type":"LineString","coordinates":[[-46.300304,-23.7780886667,0.0],[-46.300446,-23.7784506667,0.0],[-46.300523,-23.7785186667,0.0]]}},{"type":"Feature","properties":{"tipo":"Sistema viário"},"geometry":{"type":"LineString","coordinates":[[-46.300523,-23.7785186667,0.0],[-46.300511,-23.7783516667,0.0],[-46.300491,-23.7782316667,0.0],[-46.300493,-23.7780706667,0.0],[-46.300533,-23.7779916667,0.0],[-46.300609,-23.7779056667,0.0],[-46.300702,-23.7778486667,0.0],[-46.3008,-23.7778316667,0.0],[-46.300857,-23.7778506667,0.0],[-46.300882,-23.7778836667,0.0],[-46.300842,-23.7779276667,0.0],[-46.30088,-23.7779636667,0.0],[-46.300915,-23.7779156667,0.0],[-46.300964,-23.7779636667,0.0],[-46.300988,-23.7780096667,0.0],[-46.301019,-23.7779556667,0.0],[-46.301024,-23.7778786667,0.0],[-46.300959,-23.7778446667,0.0],[-46.300876,-23.7778126667,0.0],[-46.300762,-23.7778116667,0.0],[-46.300679,-23.7778366667,0.0],[-46.300559,-23.7779226667,0.0],[-46.300515,-23.7779766667,0.0],[-46.300474,-23.7780506667,0.0],[-46.300459,-23.7781036667,0.0],[-46.300499,-23.7784986667,0.0]]}},{"type":"Feature","properties":{"tipo":"Sistema viário"},"geometry":{"type":"LineString","coordinates":[[-46.301157,-23.7774806667,0.0],[-46.300725,-23.7775736667,0.0],[-46.300658,-23.7775986667,0.0],[-46.300609,-23.7776546667,0.0],[-46.300538,-23.7777836667,0.0],[-46.300473,-23.7778726667,0.0],[-46.300406,-23.7778966667,0.0],[-46.300285,-23.7779046667,0.0],[-46.300218,-23.7778896667,0.0]]}},{"type":"Feature","properties":{"tipo":"Sistema viário"},"geometry":{"type":"LineString","coordinates":[[-46.301149,-23.7774496667,0.0],[-46.300717,-23.7775456667,0.0],[-46.30065,-23.7775706667,0.0],[-46.300601,-23.7776256667,0.0],[-46.30053,-23.7777546667,0.0],[-46.300464,-23.7778446667,0.0],[-46.300399,-23.7778676667,0.0],[-46.300307,-23.7778756667,0.0],[-46.300203,-23.7778576667,0.0]]}},{"type":"Feature","properties":{"tipo":"Sistema viário"},"geometry":{"type":"LineString","coordinates":[[-46.300305,-23.7776816667,0.0],[-46.300395,-23.7775456667,0.0]]}},{"type":"Feature","properties":{"tipo":"Sistema viário"},"geometry":{"type":"LineString","coordinates":[[-46.298721,-23.7790906667,0.0],[-46.298681,-23.7790076667,0.0]]}},{"type":"Feature","properties":{"tipo":"Sistema viário"},"geometry":{"type":"LineString","coordinates":[[-46.298675,-23.7789926667,0.0],[-46.298661,-23.7789526667,0.0]]}},{"type":"Feature","properties":{"tipo":"Sistema viário"},"geometry":{"type":"LineString","coordinates":[[-46.298661,-23.7789526667,0.0],[-46.298671,-23.7789046667,0.0]]}},{"type":"Feature","properties":{"tipo":"Sistema viário"},"geometry":{"type":"LineString","coordinates":[[-46.298671,-23.7789046667,0.0],[-46.298681,-23.7788786667,0.0]]}},{"type":"Feature","properties":{"tipo":"Sistema viário"},"geometry":{"type":"LineString","coordinates":[[-46.298681,-23.7788786667,0.0],[-46.298673,-23.7787546667,0.0]]}},{"type":"Feature","properties":{"tipo":"Sistema viário"},"geometry":{"type":"LineString","coordinates":[[-46.298673,-23.7787546667,0.0],[-46.298652,-23.7786346667,0.0]]}},{"type":"Feature","properties":{"tipo":"Sistema viário"},"geometry":{"type":"LineString","coordinates":[[-46.298652,-23.7786346667,0.0],[-46.298631,-23.7785656667,0.0]]}},{"type":"Feature","properties":{"tipo":"Sistema viário"},"geometry":{"type":"LineString","coordinates":[[-46.299739,-23.7775216667,0.0],[-46.2985,-23.7778166667,0.0],[-46.298732,-23.7786946667,0.0],[-46.298748,-23.7788786667,0.0],[-46.298735,-23.7789316667,0.0],[-46.298746,-23.7789696667,0.0],[-46.298892,-23.7792916667,0.0],[-46.299028,-23.7794666667,0.0],[-46.299043,-23.7794666667,0.0],[-46.29908,-23.7794176667,0.0],[-46.299898,-23.7781616667,0.0],[-46.299908,-23.7780936667,0.0],[-46.299751,-23.7775286667,0.0],[-46.299739,-23.7775216667,0.0]]}},{"type":"Feature","properties":{"tipo":"Sistema viário"},"geometry":{"type":"LineString","coordinates":[[-46.298631,-23.7785656667,0.0],[-46.298426,-23.7778326667,0.0],[-46.297417,-23.7780576667,0.0],[-46.29738,-23.7780566667,0.0],[-46.297352,-23.7780416667,0.0],[-46.297335,-23.7780166667,0.0],[-46.297196,-23.7775106667,0.0]]}},{"type":"Feature","properties":{"tipo":"Sistema viário"},"geometry":{"type":"LineString","coordinates":[[-46.299071,-23.7776166667,0.0],[-46.298815,-23.7776736667,0.0],[-46.298733,-23.7773866667,0.0],[-46.298997,-23.7773246667,0.0],[-46.299078,-23.7776056667,0.0],[-46.299071,-23.7776166667,0.0]]}},{"type":"Feature","properties":{"tipo":"Sistema viário"},"geometry":{"type":"LineString","coordinates":[[-46.299827,-23.7775086667,0.0],[-46.300412,-23.7773676667,0.0],[-46.300424,-23.7773746667,0.0],[-46.299978,-23.7780406667,0.0],[-46.299966,-23.7780336667,0.0],[-46.299827,-23.7775086667,0.0]]}},{"type":"Feature","properties":{"tipo":"Sistema viário"},"geometry":{"type":"LineString","coordinates":[[-46.299818,-23.7774386667,0.0],[-46.299806,-23.7774316667,0.0]]}},{"type":"Feature","properties":{"tipo":"Sistema viário"},"geometry":{"type":"LineString","coordinates":[[-46.299818,-23.7774386667,0.0],[-46.300393,-23.7773016667,0.0]]}},{"type":"Feature","properties":{"tipo":"Sistema viário"},"geometry":{"type":"LineString","coordinates":[[-46.299731,-23.7774496667,0.0],[-46.29965,-23.7771696667,0.0],[-46.299349,-23.7772416667,0.0],[-46.299429,-23.7775286667,0.0],[-46.299724,-23.7774606667,0.0],[-46.299731,-23.7774496667,0.0]]}},{"type":"Feature","properties":{"tipo":"Sistema viário"},"geometry":{"type":"LineString","coordinates":[[-46.299729,-23.7771576667,0.0],[-46.299806,-23.7774316667,0.0]]}},{"type":"Feature","properties":{"tipo":"Sistema viário"},"geometry":{"type":"LineString","coordinates":[[-46.299729,-23.7771576667,0.0],[-46.299736,-23.7771466667,0.0]]}},{"type":"Feature","properties":{"tipo":"Sistema viário"},"geometry":{"type":"LineString","coordinates":[[-46.29973,-23.7771246667,0.0],[-46.299718,-23.7771176667,0.0]]}},{"type":"Feature","properties":{"tipo":"Sistema viário"},"geometry":{"type":"LineString","coordinates":[[-46.299736,-23.7771466667,0.0],[-46.300311,-23.7770096667,0.0]]}},{"type":"Feature","properties":{"tipo":"Sistema viário"},"geometry":{"type":"LineString","coordinates":[[-46.29973,-23.7771246667,0.0],[-46.300305,-23.7769876667,0.0]]}},{"type":"Feature","properties":{"tipo":"Sistema viário"},"geometry":{"type":"LineString","coordinates":[[-46.299644,-23.7771356667,0.0],[-46.299565,-23.7768676667,0.0],[-46.299264,-23.7769406667,0.0],[-46.299342,-23.7772146667,0.0],[-46.299637,-23.7771466667,0.0],[-46.299644,-23.7771356667,0.0]]}},{"type":"Feature","properties":{"tipo":"Sistema viário"},"geometry":{"type":"LineString","coordinates":[[-46.300395,-23.7775456667,0.0],[-46.300456,-23.7774506667,0.0]]}},{"type":"Feature","properties":{"tipo":"Sistema viário"},"geometry":{"type":"LineString","coordinates":[[-46.300456,-23.7774506667,0.0],[-46.30053,-23.7773446667,0.0]]}},{"type":"Feature","properties":{"tipo":"Sistema viário"},"geometry":{"type":"LineString","coordinates":[[-46.300539,-23.7773386667,0.0],[-46.30053,-23.7773446667,0.0]]}},{"type":"Feature","properties":{"tipo":"Sistema viário"},"geometry":{"type":"LineString","coordinates":[[-46.300539,-23.7773386667,0.0],[-46.300608,-23.7773226667,0.0]]}},{"type":"Feature","properties":{"tipo":"Sistema viário"},"geometry":{"type":"LineString","coordinates":[[-46.3004,-23.7772906667,0.0],[-46.300393,-23.7773016667,0.0]]}},{"type":"Feature","properties":{"tipo":"Sistema viário"},"geometry":{"type":"LineString","coordinates":[[-46.300484,-23.7772796667,0.0],[-46.300472,-23.7772726667,0.0]]}},{"type":"Feature","properties":{"tipo":"Sistema viário"},"geometry":{"type":"LineString","coordinates":[[-46.301062,-23.7772226667,0.0],[-46.300608,-23.7773226667,0.0]]}},{"type":"Feature","properties":{"tipo":"Sistema viário"},"geometry":{"type":"LineString","coordinates":[[-46.300484,-23.7772796667,0.0],[-46.301064,-23.7771416667,0.0]]}},{"type":"Feature","properties":{"tipo":"Sistema viário"},"geometry":{"type":"LineString","coordinates":[[-46.300323,-23.7770166667,0.0],[-46.3004,-23.7772906667,0.0]]}},{"type":"Feature","properties":{"tipo":"Sistema viário"},"geometry":{"type":"LineString","coordinates":[[-46.300395,-23.7769996667,0.0],[-46.300472,-23.7772726667,0.0]]}},{"type":"Feature","properties":{"tipo":"Sistema viário"},"geometry":{"type":"LineString","coordinates":[[-46.299142,-23.7775906667,0.0],[-46.299154,-23.7775966667,0.0],[-46.2994,-23.7775346667,0.0],[-46.29932,-23.7772476667,0.0],[-46.299065,-23.7773076667,0.0],[-46.299142,-23.7775906667,0.0]]}},{"type":"Feature","properties":{"tipo":"Sistema viário"},"geometry":{"type":"LineString","coordinates":[[-46.299314,-23.7772146667,0.0],[-46.299307,-23.7772256667,0.0]]}},{"type":"Feature","properties":{"tipo":"Sistema viário"},"geometry":{"type":"LineString","coordinates":[[-46.298982,-23.7773016667,0.0],[-46.298727,-23.7773596667,0.0],[-46.298648,-23.7770846667,0.0],[-46.298912,-23.7770216667,0.0],[-46.298989,-23.7772906667,0.0],[-46.298982,-23.7773016667,0.0]]}},{"type":"Feature","properties":{"tipo":"Sistema viário"},"geometry":{"type":"LineString","coordinates":[[-46.29857,-23.7770326667,0.0],[-46.298582,-23.7770206667,0.0],[-46.298416,-23.7764346667,0.0],[-46.297794,-23.7765656667,0.0],[-46.297584,-23.7765486667,0.0],[-46.297497,-23.7765166667,0.0],[-46.297152,-23.7763396667,0.0],[-46.297037,-23.7763016667,0.0],[-46.296942,-23.7762886667,0.0],[-46.296932,-23.7762936667,0.0],[-46.29741,-23.7779926667,0.0],[-46.298761,-23.7776896667,0.0],[-46.298599,-23.7770856667,0.0],[-46.298588,-23.7770816667,0.0],[-46.298336,-23.7771416667,0.0]]}},{"type":"Feature","properties":{"tipo":"Sistema viário"},"geometry":{"type":"LineString","coordinates":[[-46.298336,-23.7771416667,0.0],[-46.298323,-23.7770916667,0.0]]}},{"type":"Feature","properties":{"tipo":"Sistema viário"},"geometry":{"type":"LineString","coordinates":[[-46.299307,-23.7772256667,0.0],[-46.299058,-23.7772806667,0.0],[-46.298981,-23.7770056667,0.0],[-46.299238,-23.7769466667,0.0],[-46.299314,-23.7772146667,0.0]]}},{"type":"Feature","properties":{"tipo":"Sistema viário"},"geometry":{"type":"LineString","coordinates":[[-46.29857,-23.7770326667,0.0],[-46.298323,-23.7770916667,0.0]]}},{"type":"Feature","properties":{"tipo":"Sistema viário"},"geometry":{"type":"LineString","coordinates":[[-46.299253,-23.7768756667,0.0],[-46.299241,-23.7768686667,0.0]]}},{"type":"Feature","properties":{"tipo":"Sistema viário"},"geometry":{"type":"LineString","coordinates":[[-46.298628,-23.7770176667,0.0],[-46.298551,-23.7767406667,0.0],[-46.298814,-23.7766776667,0.0],[-46.298894,-23.7769606667,0.0],[-46.29864,-23.7770246667,0.0],[-46.298628,-23.7770176667,0.0]]}},{"type":"Feature","properties":{"tipo":"Sistema viário"},"geometry":{"type":"LineString","coordinates":[[-46.299212,-23.7768856667,0.0],[-46.299219,-23.7768746667,0.0],[-46.299141,-23.7766016667,0.0],[-46.298884,-23.7766606667,0.0],[-46.298962,-23.7769416667,0.0],[-46.299212,-23.7768856667,0.0]]}},{"type":"Feature","properties":{"tipo":"Sistema viário"},"geometry":{"type":"LineString","coordinates":[[-46.301071,-23.7771306667,0.0],[-46.301064,-23.7771416667,0.0]]}},{"type":"Feature","properties":{"tipo":"Sistema viário"},"geometry":{"type":"LineString","coordinates":[[-46.301182,-23.7769646667,0.0],[-46.30113,-23.7770716667,0.0],[-46.301123,-23.7771016667,0.0],[-46.301138,-23.7771416667,0.0]]}},{"type":"Feature","properties":{"tipo":"Sistema viário"},"geometry":{"type":"LineString","coordinates":[[-46.300311,-23.7770096667,0.0],[-46.300323,-23.7770166667,0.0]]}},{"type":"Feature","properties":{"tipo":"Sistema viário"},"geometry":{"type":"LineString","coordinates":[[-46.300395,-23.7769996667,0.0],[-46.300402,-23.7769886667,0.0]]}},{"type":"Feature","properties":{"tipo":"Sistema viário"},"geometry":{"type":"LineString","coordinates":[[-46.300994,-23.7768566667,0.0],[-46.301071,-23.7771306667,0.0]]}},{"type":"Feature","properties":{"tipo":"Sistema viário"},"geometry":{"type":"LineString","coordinates":[[-46.300311,-23.7769766667,0.0],[-46.300304,-23.7769876667,0.0]]}},{"type":"Feature","properties":{"tipo":"Sistema viário"},"geometry":{"type":"LineString","coordinates":[[-46.301109,-23.7769676667,0.0],[-46.301099,-23.7769726667,0.0],[-46.30109,-23.7769656667,0.0]]}},{"type":"Feature","properties":{"tipo":"Sistema viário"},"geometry":{"type":"LineString","coordinates":[[-46.300396,-23.7769656667,0.0],[-46.300384,-23.7769596667,0.0]]}},{"type":"Feature","properties":{"tipo":"Sistema viário"},"geometry":{"type":"LineString","coordinates":[[-46.300402,-23.7769886667,0.0],[-46.300982,-23.7768496667,0.0]]}},{"type":"Feature","properties":{"tipo":"Sistema viário"},"geometry":{"type":"LineString","coordinates":[[-46.300396,-23.7769656667,0.0],[-46.300976,-23.7768276667,0.0]]}},{"type":"Feature","properties":{"tipo":"Sistema viário"},"geometry":{"type":"LineString","coordinates":[[-46.299718,-23.7771176667,0.0],[-46.299644,-23.7768556667,0.0]]}},{"type":"Feature","properties":{"tipo":"Sistema viário"},"geometry":{"type":"LineString","coordinates":[[-46.299644,-23.7768556667,0.0],[-46.299651,-23.7768446667,0.0]]}},{"type":"Feature","properties":{"tipo":"Sistema viário"},"geometry":{"type":"LineString","coordinates":[[-46.300311,-23.7769766667,0.0],[-46.300238,-23.7767146667,0.0]]}},{"type":"Feature","properties":{"tipo":"Sistema viário"},"geometry":{"type":"LineString","coordinates":[[-46.299253,-23.7768756667,0.0],[-46.299541,-23.7768066667,0.0]]}},{"type":"Feature","properties":{"tipo":"Sistema viário"},"geometry":{"type":"LineString","coordinates":[[-46.299548,-23.7767956667,0.0],[-46.299541,-23.7768066667,0.0]]}},{"type":"Feature","properties":{"tipo":"Sistema viário"},"geometry":{"type":"LineString","coordinates":[[-46.299637,-23.7767836667,0.0],[-46.299625,-23.7767776667,0.0]]}},{"type":"Feature","properties":{"tipo":"Sistema viário"},"geometry":{"type":"LineString","coordinates":[[-46.299651,-23.7768446667,0.0],[-46.300226,-23.7767076667,0.0]]}},{"type":"Feature","properties":{"tipo":"Sistema viário"},"geometry":{"type":"LineString","coordinates":[[-46.299637,-23.7767836667,0.0],[-46.300207,-23.7766476667,0.0]]}},{"type":"Feature","properties":{"tipo":"Sistema viário"},"geometry":{"type":"LineString","coordinates":[[-46.300226,-23.7767076667,0.0],[-46.300238,-23.7767146667,0.0]]}},{"type":"Feature","properties":{"tipo":"Sistema viário"},"geometry":{"type":"LineString","coordinates":[[-46.299548,-23.7767956667,0.0],[-46.299473,-23.7765286667,0.0]]}},{"type":"Feature","properties":{"tipo":"Sistema viário"},"geometry":{"type":"LineString","coordinates":[[-46.299241,-23.7768686667,0.0],[-46.299166,-23.7766016667,0.0]]}},{"type":"Feature","properties":{"tipo":"Sistema viário"},"geometry":{"type":"LineString","coordinates":[[-46.296043,-23.7759506667,0.0],[-46.296083,-23.7760136667,0.0],[-46.296193,-23.7761366667,0.0],[-46.296287,-23.7762166667,0.0],[-46.296354,-23.7762536667,0.0],[-46.296484,-23.7762856667,0.0],[-46.296706,-23.7762836667,0.0],[-46.296851,-23.7762926667,0.0],[-46.297196,-23.7775106667,0.0]]}},{"type":"Feature","properties":{"tipo":"Sistema viário"},"geometry":{"type":"LineString","coordinates":[[-46.299166,-23.7766016667,0.0],[-46.299173,-23.7765906667,0.0]]}},{"type":"Feature","properties":{"tipo":"Sistema viário"},"geometry":{"type":"LineString","coordinates":[[-46.299173,-23.7765906667,0.0],[-46.299461,-23.7765226667,0.0]]}},{"type":"Feature","properties":{"tipo":"Sistema viário"},"geometry":{"type":"LineString","coordinates":[[-46.299164,-23.7765576667,0.0],[-46.299152,-23.7765506667,0.0]]}},{"type":"Feature","properties":{"tipo":"Sistema viário"},"geometry":{"type":"LineString","coordinates":[[-46.298468,-23.7764166667,0.0],[-46.298725,-23.7763586667,0.0],[-46.298804,-23.7766446667,0.0],[-46.29854,-23.7767056667,0.0],[-46.298461,-23.7764276667,0.0],[-46.298468,-23.7764166667,0.0]]}},{"type":"Feature","properties":{"tipo":"Sistema viário"},"geometry":{"type":"LineString","coordinates":[[-46.299164,-23.7765576667,0.0],[-46.299452,-23.7764886667,0.0]]}},{"type":"Feature","properties":{"tipo":"Sistema viário"},"geometry":{"type":"LineString","coordinates":[[-46.299043,-23.7762826667,0.0],[-46.298794,-23.7763426667,0.0],[-46.298875,-23.7766276667,0.0],[-46.29913,-23.7765646667,0.0],[-46.299054,-23.7762886667,0.0],[-46.299043,-23.7762826667,0.0]]}},{"type":"Feature","properties":{"tipo":"Sistema viário"},"geometry":{"type":"LineString","coordinates":[[-46.299152,-23.7765506667,0.0],[-46.299077,-23.7762836667,0.0]]}},{"type":"Feature","properties":{"tipo":"Sistema viário"},"geometry":{"type":"LineString","coordinates":[[-46.297235,-23.7763016667,0.0],[-46.297354,-23.7763686667,0.0],[-46.297529,-23.7764506667,0.0],[-46.297648,-23.7764906667,0.0],[-46.297815,-23.7765016667,0.0],[-46.298081,-23.7764426667,0.0]]}},{"type":"Feature","properties":{"tipo":"Sistema viário"},"geometry":{"type":"LineString","coordinates":[[-46.300982,-23.7768496667,0.0],[-46.300994,-23.7768566667,0.0]]}},{"type":"Feature","properties":{"tipo":"Sistema viário"},"geometry":{"type":"LineString","coordinates":[[-46.30031,-23.7766976667,0.0],[-46.300384,-23.7769596667,0.0]]}},{"type":"Feature","properties":{"tipo":"Sistema viário"},"geometry":{"type":"LineString","coordinates":[[-46.300983,-23.7768166667,0.0],[-46.300976,-23.7768276667,0.0]]}},{"type":"Feature","properties":{"tipo":"Sistema viário"},"geometry":{"type":"LineString","coordinates":[[-46.30097,-23.7765396667,0.0],[-46.30109,-23.7769656667,0.0]]}},{"type":"Feature","properties":{"tipo":"Sistema viário"},"geometry":{"type":"LineString","coordinates":[[-46.30138,-23.7764476667,0.0],[-46.301109,-23.7769676667,0.0]]}},{"type":"Feature","properties":{"tipo":"Sistema viário"},"geometry":{"type":"LineString","coordinates":[[-46.30031,-23.7766976667,0.0],[-46.300317,-23.7766866667,0.0]]}},{"type":"Feature","properties":{"tipo":"Sistema viário"},"geometry":{"type":"LineString","coordinates":[[-46.300909,-23.7765546667,0.0],[-46.300983,-23.7768166667,0.0]]}},{"type":"Feature","properties":{"tipo":"Sistema viário"},"geometry":{"type":"LineString","coordinates":[[-46.300317,-23.7766866667,0.0],[-46.300897,-23.7765476667,0.0]]}},{"type":"Feature","properties":{"tipo":"Sistema viário"},"geometry":{"type":"LineString","coordinates":[[-46.300301,-23.7766276667,0.0],[-46.30088,-23.7764856667,0.0]]}},{"type":"Feature","properties":{"tipo":"Sistema viário"},"geometry":{"type":"LineString","coordinates":[[-46.300897,-23.7765476667,0.0],[-46.300909,-23.7765546667,0.0]]}},{"type":"Feature","properties":{"tipo":"Sistema viário"},"geometry":{"type":"LineString","coordinates":[[-46.300214,-23.7766366667,0.0],[-46.300207,-23.7766476667,0.0]]}},{"type":"Feature","properties":{"tipo":"Sistema viário"},"geometry":{"type":"LineString","coordinates":[[-46.300301,-23.7766276667,0.0],[-46.300289,-23.7766216667,0.0]]}},{"type":"Feature","properties":{"tipo":"Sistema viário"},"geometry":{"type":"LineString","coordinates":[[-46.299461,-23.7765226667,0.0],[-46.299473,-23.7765286667,0.0]]}},{"type":"Feature","properties":{"tipo":"Sistema viário"},"geometry":{"type":"LineString","coordinates":[[-46.300289,-23.7766216667,0.0],[-46.300212,-23.7763496667,0.0]]}},{"type":"Feature","properties":{"tipo":"Sistema viário"},"geometry":{"type":"LineString","coordinates":[[-46.29946,-23.7761916667,0.0],[-46.299625,-23.7767776667,0.0]]}},{"type":"Feature","properties":{"tipo":"Sistema viário"},"geometry":{"type":"LineString","coordinates":[[-46.299459,-23.7764776667,0.0],[-46.299452,-23.7764886667,0.0]]}},{"type":"Feature","properties":{"tipo":"Sistema viário"},"geometry":{"type":"LineString","coordinates":[[-46.300214,-23.7766366667,0.0],[-46.300051,-23.7760556667,0.0]]}},{"type":"Feature","properties":{"tipo":"Sistema viário"},"geometry":{"type":"LineString","coordinates":[[-46.299459,-23.7764776667,0.0],[-46.299383,-23.7762106667,0.0]]}},{"type":"Feature","properties":{"tipo":"Sistema viário"},"geometry":{"type":"LineString","coordinates":[[-46.300212,-23.7763496667,0.0],[-46.300219,-23.7763386667,0.0]]}},{"type":"Feature","properties":{"tipo":"Sistema viário"},"geometry":{"type":"LineString","coordinates":[[-46.300213,-23.7763166667,0.0],[-46.300201,-23.7763096667,0.0]]}},{"type":"Feature","properties":{"tipo":"Sistema viário"},"geometry":{"type":"LineString","coordinates":[[-46.30097,-23.7765396667,0.0],[-46.300977,-23.7765286667,0.0]]}},{"type":"Feature","properties":{"tipo":"Sistema viário"},"geometry":{"type":"LineString","coordinates":[[-46.300977,-23.7765286667,0.0],[-46.301369,-23.7764356667,0.0]]}},{"type":"Feature","properties":{"tipo":"Sistema viário"},"geometry":{"type":"LineString","coordinates":[[-46.300887,-23.7764746667,0.0],[-46.30088,-23.7764856667,0.0]]}},{"type":"Feature","properties":{"tipo":"Sistema viário"},"geometry":{"type":"LineString","coordinates":[[-46.30142,-23.7763726667,0.0],[-46.30139,-23.7763916667,0.0],[-46.301146,-23.7764476667,0.0]]}},{"type":"Feature","properties":{"tipo":"Sistema viário"},"geometry":{"type":"LineString","coordinates":[[-46.300809,-23.7762076667,0.0],[-46.300887,-23.7764746667,0.0]]}},{"type":"Feature","properties":{"tipo":"Sistema viário"},"geometry":{"type":"LineString","coordinates":[[-46.300219,-23.7763386667,0.0],[-46.300797,-23.7762006667,0.0]]}},{"type":"Feature","properties":{"tipo":"Sistema viário"},"geometry":{"type":"LineString","coordinates":[[-46.301146,-23.7764476667,0.0],[-46.300956,-23.7764866667,0.0],[-46.300877,-23.7761966667,0.0],[-46.301552,-23.7760236667,0.0],[-46.301576,-23.7760356667,0.0],[-46.301585,-23.7760536667,0.0],[-46.30142,-23.7763726667,0.0]]}},{"type":"Feature","properties":{"tipo":"Sistema viário"},"geometry":{"type":"LineString","coordinates":[[-46.300213,-23.7763166667,0.0],[-46.30079,-23.7761786667,0.0]]}},{"type":"Feature","properties":{"tipo":"Sistema viário"},"geometry":{"type":"LineString","coordinates":[[-46.300797,-23.7762006667,0.0],[-46.300809,-23.7762076667,0.0]]}},{"type":"Feature","properties":{"tipo":"Sistema viário"},"geometry":{"type":"LineString","coordinates":[[-46.300798,-23.7761676667,0.0],[-46.30079,-23.7761786667,0.0]]}},{"type":"Feature","properties":{"tipo":"Sistema viário"},"geometry":{"type":"LineString","coordinates":[[-46.299371,-23.7762046667,0.0],[-46.299383,-23.7762106667,0.0]]}},{"type":"Feature","properties":{"tipo":"Sistema viário"},"geometry":{"type":"LineString","coordinates":[[-46.29946,-23.7761916667,0.0],[-46.299467,-23.7761806667,0.0]]}},{"type":"Feature","properties":{"tipo":"Sistema viário"},"geometry":{"type":"LineString","coordinates":[[-46.300125,-23.7760386667,0.0],[-46.300201,-23.7763096667,0.0]]}},{"type":"Feature","properties":{"tipo":"Sistema viário"},"geometry":{"type":"LineString","coordinates":[[-46.299383,-23.7761356667,0.0],[-46.299376,-23.7761466667,0.0]]}},{"type":"Feature","properties":{"tipo":"Sistema viário"},"geometry":{"type":"LineString","coordinates":[[-46.299452,-23.7761276667,0.0],[-46.29944,-23.7761216667,0.0]]}},{"type":"Feature","properties":{"tipo":"Sistema viário"},"geometry":{"type":"LineString","coordinates":[[-46.300039,-23.7760486667,0.0],[-46.299467,-23.7761806667,0.0]]}},{"type":"Feature","properties":{"tipo":"Sistema viário"},"geometry":{"type":"LineString","coordinates":[[-46.30004,-23.7759916667,0.0],[-46.299452,-23.7761276667,0.0]]}},{"type":"Feature","properties":{"tipo":"Sistema viário"},"geometry":{"type":"LineString","coordinates":[[-46.300039,-23.7760486667,0.0],[-46.300051,-23.7760556667,0.0]]}},{"type":"Feature","properties":{"tipo":"Sistema viário"},"geometry":{"type":"LineString","coordinates":[[-46.300125,-23.7760386667,0.0],[-46.300132,-23.7760276667,0.0]]}},{"type":"Feature","properties":{"tipo":"Sistema viário"},"geometry":{"type":"LineString","coordinates":[[-46.300047,-23.7759806667,0.0],[-46.30004,-23.7759916667,0.0]]}},{"type":"Feature","properties":{"tipo":"Sistema viário"},"geometry":{"type":"LineString","coordinates":[[-46.299376,-23.7761466667,0.0],[-46.298081,-23.7764426667,0.0]]}},{"type":"Feature","properties":{"tipo":"Sistema viário"},"geometry":{"type":"LineString","coordinates":[[-46.299077,-23.7762836667,0.0],[-46.299084,-23.7762726667,0.0]]}},{"type":"Feature","properties":{"tipo":"Sistema viário"},"geometry":{"type":"LineString","coordinates":[[-46.299084,-23.7762726667,0.0],[-46.299371,-23.7762046667,0.0]]}},{"type":"Feature","properties":{"tipo":"Sistema viário"},"geometry":{"type":"LineString","coordinates":[[-46.297235,-23.7763016667,0.0],[-46.29702,-23.7762266667,0.0],[-46.29687,-23.7762086667,0.0],[-46.296457,-23.7761996667,0.0],[-46.296309,-23.7761246667,0.0]]}},{"type":"Feature","properties":{"tipo":"Sistema viário"},"geometry":{"type":"LineString","coordinates":[[-46.296309,-23.7761246667,0.0],[-46.296176,-23.7759896667,0.0],[-46.296112,-23.7759056667,0.0]]}},{"type":"Feature","properties":{"tipo":"Sistema viário"},"geometry":{"type":"LineString","coordinates":[[-46.296112,-23.7759056667,0.0],[-46.296043,-23.7759506667,0.0]]}},{"type":"Feature","properties":{"tipo":"Sistema viário"},"geometry":{"type":"LineString","coordinates":[[-46.299383,-23.7761356667,0.0],[-46.299232,-23.7755836667,0.0]]}},{"type":"Feature","properties":{"tipo":"Sistema viário"},"geometry":{"type":"LineString","coordinates":[[-46.299364,-23.7758456667,0.0],[-46.299371,-23.7758346667,0.0]]}},{"type":"Feature","properties":{"tipo":"Sistema viário"},"geometry":{"type":"LineString","coordinates":[[-46.298207,-23.7758336667,0.0],[-46.298198,-23.7758616667,0.0],[-46.298171,-23.7758846667,0.0],[-46.298135,-23.7758906667,0.0],[-46.298101,-23.7758786667,0.0],[-46.298081,-23.7758556667,0.0],[-46.298075,-23.7758226667,0.0],[-46.298087,-23.7757946667,0.0],[-46.298116,-23.7757736667,0.0]]}},{"type":"Feature","properties":{"tipo":"Sistema viário"},"geometry":{"type":"LineString","coordinates":[[-46.298207,-23.7758336667,0.0],[-46.298217,-23.7758116667,0.0],[-46.298236,-23.7758006667,0.0]]}},{"type":"Feature","properties":{"tipo":"Sistema viário"},"geometry":{"type":"LineString","coordinates":[[-46.300798,-23.7761676667,0.0],[-46.300725,-23.7758996667,0.0]]}},{"type":"Feature","properties":{"tipo":"Sistema viário"},"geometry":{"type":"LineString","coordinates":[[-46.300866,-23.7761626667,0.0],[-46.300785,-23.7758726667,0.0]]}},{"type":"Feature","properties":{"tipo":"Sistema viário"},"geometry":{"type":"LineString","coordinates":[[-46.300132,-23.7760276667,0.0],[-46.300713,-23.7758926667,0.0]]}},{"type":"Feature","properties":{"tipo":"Sistema viário"},"geometry":{"type":"LineString","coordinates":[[-46.300866,-23.7761626667,0.0],[-46.301461,-23.7760176667,0.0],[-46.301551,-23.7759876667,0.0],[-46.301551,-23.7759746667,0.0],[-46.301409,-23.7757256667,0.0],[-46.301345,-23.7757016667,0.0],[-46.301289,-23.7757066667,0.0],[-46.301238,-23.7757216667,0.0],[-46.300785,-23.7758726667,0.0]]}},{"type":"Feature","properties":{"tipo":"Sistema viário"},"geometry":{"type":"LineString","coordinates":[[-46.300713,-23.7758926667,0.0],[-46.300725,-23.7758996667,0.0]]}},{"type":"Feature","properties":{"tipo":"Sistema viário"},"geometry":{"type":"LineString","coordinates":[[-46.29944,-23.7761216667,0.0],[-46.299364,-23.7758456667,0.0]]}},{"type":"Feature","properties":{"tipo":"Sistema viário"},"geometry":{"type":"LineString","coordinates":[[-46.299973,-23.7757056667,0.0],[-46.300047,-23.7759806667,0.0]]}},{"type":"Feature","properties":{"tipo":"Sistema viário"},"geometry":{"type":"LineString","coordinates":[[-46.299961,-23.7756986667,0.0],[-46.299371,-23.7758346667,0.0]]}},{"type":"Feature","properties":{"tipo":"Sistema viário"},"geometry":{"type":"LineString","coordinates":[[-46.301264,-23.7756386667,0.0],[-46.301051,-23.7757266667,0.0],[-46.30098,-23.7757666667,0.0],[-46.30069,-23.7758476667,0.0],[-46.300115,-23.7759786667,0.0],[-46.300106,-23.7759716667,0.0],[-46.300026,-23.7756796667,0.0],[-46.299999,-23.7756496667,0.0],[-46.299956,-23.7756436667,0.0],[-46.29938,-23.7757716667,0.0],[-46.299352,-23.7757596667,0.0],[-46.299335,-23.7757386667,0.0],[-46.299281,-23.7755436667,0.0]]}},{"type":"Feature","properties":{"tipo":"Sistema viário"},"geometry":{"type":"LineString","coordinates":[[-46.299961,-23.7756986667,0.0],[-46.299973,-23.7757056667,0.0]]}},{"type":"Feature","properties":{"tipo":"Sistema viário"},"geometry":{"type":"LineString","coordinates":[[-46.299195,-23.7755636667,0.0],[-46.298236,-23.7758006667,0.0]]}},{"type":"Feature","properties":{"tipo":"Sistema viário"},"geometry":{"type":"LineString","coordinates":[[-46.299209,-23.7755046667,0.0],[-46.298116,-23.7757736667,0.0]]}},{"type":"Feature","properties":{"tipo":"Sistema viário"},"geometry":{"type":"LineString","coordinates":[[-46.299195,-23.7755636667,0.0],[-46.299217,-23.7755666667,0.0],[-46.299232,-23.7755836667,0.0]]}},{"type":"Feature","properties":{"tipo":"Sistema viário"},"geometry":{"type":"LineString","coordinates":[[-46.299209,-23.7755046667,0.0],[-46.299256,-23.7755116667,0.0],[-46.299281,-23.7755436667,0.0]]}},{"type":"Feature","properties":{"tipo":"Sistema viário"},"geometry":{"type":"LineString","coordinates":[[-46.307208,-23.7771206667,0.0],[-46.307222,-23.7769986667,0.0],[-46.307246,-23.7769106667,0.0]]}},{"type":"Feature","properties":{"tipo":"Sistema viário"},"geometry":{"type":"LineString","coordinates":[[-46.307323,-23.7772076667,0.0],[-46.307343,-23.7770126667,0.0],[-46.307371,-23.7769306667,0.0],[-46.307426,-23.7768186667,0.0],[-46.307484,-23.7767426667,0.0],[-46.307552,-23.7766776667,0.0],[-46.307644,-23.7766026667,0.0],[-46.307721,-23.7765666667,0.0]]}},{"type":"Feature","properties":{"tipo":"Sistema viário"},"geometry":{"type":"LineString","coordinates":[[-46.307292,-23.7772076667,0.0],[-46.307311,-23.7770256667,0.0],[-46.30734,-23.7769346667,0.0],[-46.307402,-23.7768106667,0.0],[-46.307451,-23.7767426667,0.0],[-46.307552,-23.7766326667,0.0],[-46.307697,-23.7765476667,0.0]]}},{"type":"Feature","properties":{"tipo":"Sistema viário"},"geometry":{"type":"LineString","coordinates":[[-46.307281,-23.7768976667,0.0],[-46.307313,-23.7768306667,0.0],[-46.30742,-23.7766796667,0.0]]}},{"type":"Feature","properties":{"tipo":"Sistema viário"},"geometry":{"type":"LineString","coordinates":[[-46.307268,-23.7768556667,0.0],[-46.30735,-23.7767206667,0.0],[-46.307433,-23.7766316667,0.0],[-46.307565,-23.7765206667,0.0],[-46.307692,-23.7764576667,0.0]]}},{"type":"Feature","properties":{"tipo":"Sistema viário"},"geometry":{"type":"LineString","coordinates":[[-46.30742,-23.7766796667,0.0],[-46.307523,-23.7765776667,0.0],[-46.307662,-23.7764926667,0.0]]}},{"type":"Feature","properties":{"tipo":"Sistema viário"},"geometry":{"type":"LineString","coordinates":[[-46.307721,-23.7765666667,0.0],[-46.308679,-23.7762016667,0.0]]}},{"type":"Feature","properties":{"tipo":"Sistema viário"},"geometry":{"type":"LineString","coordinates":[[-46.307697,-23.7765476667,0.0],[-46.307821,-23.7764936667,0.0],[-46.309068,-23.7760216667,0.0]]}},{"type":"Feature","properties":{"tipo":"Sistema viário"},"geometry":{"type":"LineString","coordinates":[[-46.307662,-23.7764926667,0.0],[-46.30876,-23.7760756667,0.0]]}},{"type":"Feature","properties":{"tipo":"Sistema viário"},"geometry":{"type":"LineString","coordinates":[[-46.307692,-23.7764576667,0.0],[-46.307966,-23.7763486667,0.0],[-46.308751,-23.7760556667,0.0]]}},{"type":"Feature","properties":{"tipo":"Sistema viário"},"geometry":{"type":"LineString","coordinates":[[-46.301421,-23.7765176667,0.0],[-46.301182,-23.7769646667,0.0]]}},{"type":"Feature","properties":{"tipo":"Sistema viário"},"geometry":{"type":"LineString","coordinates":[[-46.30186,-23.7766496667,0.0],[-46.301834,-23.7766976667,0.0]]}},{"type":"Feature","properties":{"tipo":"Sistema viário"},"geometry":{"type":"LineString","coordinates":[[-46.301658,-23.7766166667,0.0],[-46.301834,-23.7766976667,0.0]]}},{"type":"Feature","properties":{"tipo":"Sistema viário"},"geometry":{"type":"LineString","coordinates":[[-46.30186,-23.7766496667,0.0],[-46.301782,-23.7766136667,0.0]]}},{"type":"Feature","properties":{"tipo":"Sistema viário"},"geometry":{"type":"LineString","coordinates":[[-46.301421,-23.7765176667,0.0],[-46.301434,-23.7765136667,0.0]]}},{"type":"Feature","properties":{"tipo":"Sistema viário"},"geometry":{"type":"LineString","coordinates":[[-46.301439,-23.7765156667,0.0],[-46.301434,-23.7765136667,0.0]]}},{"type":"Feature","properties":{"tipo":"Sistema viário"},"geometry":{"type":"LineString","coordinates":[[-46.301471,-23.7764696667,0.0],[-46.301465,-23.7764666667,0.0]]}},{"type":"Feature","properties":{"tipo":"Sistema viário"},"geometry":{"type":"LineString","coordinates":[[-46.301465,-23.7764666667,0.0],[-46.30146,-23.7764546667,0.0]]}},{"type":"Feature","properties":{"tipo":"Sistema viário"},"geometry":{"type":"LineString","coordinates":[[-46.301369,-23.7764356667,0.0],[-46.301379,-23.7764386667,0.0],[-46.30138,-23.7764476667,0.0]]}},{"type":"Feature","properties":{"tipo":"Sistema viário"},"geometry":{"type":"LineString","coordinates":[[-46.303363,-23.7759176667,0.0],[-46.303158,-23.7761536667,0.0],[-46.302961,-23.7763366667,0.0],[-46.302612,-23.7766406667,0.0],[-46.302487,-23.7767976667,0.0]]}},{"type":"Feature","properties":{"tipo":"Sistema viário"},"geometry":{"type":"LineString","coordinates":[[-46.304086,-23.7771586667,0.0],[-46.304092,-23.7771156667,0.0],[-46.304109,-23.7770976667,0.0],[-46.304182,-23.7770906667,0.0]]}},{"type":"Feature","properties":{"tipo":"Sistema viário"},"geometry":{"type":"LineString","coordinates":[[-46.304182,-23.7770906667,0.0],[-46.304341,-23.7770996667,0.0],[-46.304376,-23.7771156667,0.0],[-46.304396,-23.7771406667,0.0]]}},{"type":"Feature","properties":{"tipo":"Sistema viário"},"geometry":{"type":"LineString","coordinates":[[-46.303702,-23.7769966667,0.0],[-46.303624,-23.7769396667,0.0]]}},{"type":"Feature","properties":{"tipo":"Sistema viário"},"geometry":{"type":"LineString","coordinates":[[-46.303702,-23.7769966667,0.0],[-46.303624,-23.7769396667,0.0]]}},{"type":"Feature","properties":{"tipo":"Sistema viário"},"geometry":{"type":"LineString","coordinates":[[-46.304214,-23.7769646667,0.0],[-46.304252,-23.7769056667,0.0],[-46.304275,-23.7767576667,0.0],[-46.304262,-23.7767006667,0.0],[-46.304278,-23.7766926667,0.0],[-46.304297,-23.7767726667,0.0],[-46.304266,-23.7769396667,0.0],[-46.304226,-23.7769966667,0.0],[-46.304237,-23.7770306667,0.0]]}},{"type":"Feature","properties":{"tipo":"Sistema viário"},"geometry":{"type":"LineString","coordinates":[[-46.303702,-23.7769966667,0.0],[-46.304045,-23.7766146667,0.0],[-46.30394,-23.7765396667,0.0],[-46.303595,-23.7769276667,0.0]]}},{"type":"Feature","properties":{"tipo":"Sistema viário"},"geometry":{"type":"LineString","coordinates":[[-46.303702,-23.7769966667,0.0],[-46.304045,-23.7766146667,0.0],[-46.30394,-23.7765396667,0.0],[-46.303595,-23.7769276667,0.0]]}},{"type":"Feature","properties":{"tipo":"Sistema viário"},"geometry":{"type":"LineString","coordinates":[[-46.303033,-23.7773816667,0.0],[-46.303075,-23.7771746667,0.0],[-46.303145,-23.7769426667,0.0],[-46.30324,-23.7766996667,0.0],[-46.303348,-23.7764956667,0.0],[-46.303443,-23.7763406667,0.0],[-46.303474,-23.7763526667,0.0],[-46.30377,-23.7759466667,0.0],[-46.303942,-23.7757656667,0.0],[-46.303986,-23.7758036667,0.0],[-46.303792,-23.7759986667,0.0],[-46.303627,-23.7761996667,0.0],[-46.303491,-23.7763866667,0.0],[-46.303309,-23.7767286667,0.0],[-46.303272,-23.7768146667,0.0],[-46.303181,-23.7770786667,0.0],[-46.303142,-23.7772386667,0.0],[-46.303066,-23.7776526667,0.0],[-46.303032,-23.7776516667,0.0],[-46.303033,-23.7773816667,0.0]]}},{"type":"Feature","properties":{"tipo":"Sistema viário"},"geometry":{"type":"LineString","coordinates":[[-46.303033,-23.7773816667,0.0],[-46.303075,-23.7771746667,0.0],[-46.303145,-23.7769426667,0.0],[-46.30324,-23.7766996667,0.0],[-46.303348,-23.7764956667,0.0],[-46.303443,-23.7763406667,0.0],[-46.303474,-23.7763526667,0.0],[-46.30377,-23.7759466667,0.0],[-46.303942,-23.7757656667,0.0],[-46.303986,-23.7758036667,0.0],[-46.303792,-23.7759986667,0.0],[-46.303627,-23.7761996667,0.0],[-46.303491,-23.7763866667,0.0],[-46.303309,-23.7767286667,0.0],[-46.303272,-23.7768146667,0.0],[-46.303181,-23.7770786667,0.0],[-46.303142,-23.7772386667,0.0],[-46.303066,-23.7776526667,0.0],[-46.303032,-23.7776516667,0.0],[-46.303033,-23.7773816667,0.0]]}},{"type":"Feature","properties":{"tipo":"Sistema viário"},"geometry":{"type":"LineString","coordinates":[[-46.304174,-23.7751976667,0.0],[-46.303636,-23.7756466667,0.0],[-46.303444,-23.7758236667,0.0],[-46.303363,-23.7759176667,0.0]]}},{"type":"Feature","properties":{"tipo":"Sistema viário"},"geometry":{"type":"LineString","coordinates":[[-46.308679,-23.7762016667,0.0],[-46.309541,-23.7758656667,0.0]]}},{"type":"Feature","properties":{"tipo":"Sistema viário"},"geometry":{"type":"LineString","coordinates":[[-46.309068,-23.7760216667,0.0],[-46.309278,-23.7759416667,0.0]]}},{"type":"Feature","properties":{"tipo":"Sistema viário"},"geometry":{"type":"LineString","coordinates":[[-46.30876,-23.7760756667,0.0],[-46.309261,-23.7758806667,0.0]]}},{"type":"Feature","properties":{"tipo":"Sistema viário"},"geometry":{"type":"LineString","coordinates":[[-46.308751,-23.7760556667,0.0],[-46.309304,-23.7758446667,0.0]]}},{"type":"Feature","properties":{"tipo":"Sistema viário"},"geometry":{"type":"LineString","coordinates":[[-46.309541,-23.7758656667,0.0],[-46.309985,-23.7756986667,0.0]]}},{"type":"Feature","properties":{"tipo":"Sistema viário"},"geometry":{"type":"LineString","coordinates":[[-46.309261,-23.7758806667,0.0],[-46.310012,-23.7755986667,0.0]]}},{"type":"Feature","properties":{"tipo":"Sistema viário"},"geometry":{"type":"LineString","coordinates":[[-46.31048,-23.7753956667,0.0],[-46.309304,-23.7758446667,0.0]]}},{"type":"Feature","properties":{"tipo":"Sistema viário"},"geometry":{"type":"LineString","coordinates":[[-46.309278,-23.7759416667,0.0],[-46.310687,-23.7754136667,0.0],[-46.310939,-23.7753076667,0.0],[-46.311182,-23.7751876667,0.0],[-46.311315,-23.7751126667,0.0],[-46.311487,-23.7750106667,0.0],[-46.311802,-23.7748056667,0.0]]}},{"type":"Feature","properties":{"tipo":"Sistema viário"},"geometry":{"type":"LineString","coordinates":[[-46.310012,-23.7755986667,0.0],[-46.310658,-23.7753526667,0.0],[-46.310906,-23.7752476667,0.0],[-46.31119,-23.7751056667,0.0],[-46.311447,-23.7749556667,0.0]]}},{"type":"Feature","properties":{"tipo":"Sistema viário"},"geometry":{"type":"LineString","coordinates":[[-46.309985,-23.7756986667,0.0],[-46.310773,-23.7754026667,0.0],[-46.311195,-23.7752126667,0.0],[-46.311463,-23.7750586667,0.0],[-46.311839,-23.7748096667,0.0]]}},{"type":"Feature","properties":{"tipo":"Sistema viário"},"geometry":{"type":"LineString","coordinates":[[-46.303363,-23.7759176667,0.0],[-46.303158,-23.7761536667,0.0],[-46.302961,-23.7763366667,0.0],[-46.302612,-23.7766406667,0.0],[-46.302487,-23.7767976667,0.0]]}},{"type":"Feature","properties":{"tipo":"Sistema viário"},"geometry":{"type":"LineString","coordinates":[[-46.301561,-23.7762536667,0.0],[-46.30146,-23.7764546667,0.0]]}},{"type":"Feature","properties":{"tipo":"Sistema viário"},"geometry":{"type":"LineString","coordinates":[[-46.303256,-23.7754226667,0.0],[-46.302325,-23.7755946667,0.0],[-46.302095,-23.7756066667,0.0],[-46.301599,-23.7756016667,0.0],[-46.301484,-23.7756196667,0.0],[-46.301448,-23.7756366667,0.0],[-46.301441,-23.7756596667,0.0],[-46.301451,-23.7756866667,0.0],[-46.301525,-23.7758306667,0.0],[-46.30165,-23.7760326667,0.0],[-46.301647,-23.7760666667,0.0],[-46.301561,-23.7762536667,0.0]]}},{"type":"Feature","properties":{"tipo":"Sistema viário"},"geometry":{"type":"LineString","coordinates":[[-46.301476,-23.7755516667,0.0],[-46.301264,-23.7756386667,0.0]]}},{"type":"Feature","properties":{"tipo":"Sistema viário"},"geometry":{"type":"LineString","coordinates":[[-46.304678,-23.7736216667,0.0],[-46.304824,-23.7744096667,0.0],[-46.304782,-23.7744946667,0.0],[-46.30469,-23.7745936667,0.0],[-46.304613,-23.7746406667,0.0],[-46.304267,-23.7749196667,0.0],[-46.304126,-23.7750256667,0.0],[-46.303928,-23.7751396667,0.0],[-46.303879,-23.7751786667,0.0],[-46.303666,-23.7752926667,0.0],[-46.30219,-23.7755346667,0.0],[-46.301768,-23.7755486667,0.0],[-46.301576,-23.7755436667,0.0],[-46.301476,-23.7755516667,0.0]]}},{"type":"Feature","properties":{"tipo":"Sistema viário"},"geometry":{"type":"LineString","coordinates":[[-46.304174,-23.7751976667,0.0],[-46.303636,-23.7756466667,0.0],[-46.303444,-23.7758236667,0.0],[-46.303363,-23.7759176667,0.0]]}},{"type":"Feature","properties":{"tipo":"Sistema viário"},"geometry":{"type":"LineString","coordinates":[[-46.303256,-23.7754226667,0.0],[-46.303592,-23.7753726667,0.0],[-46.303711,-23.7753316667,0.0],[-46.303842,-23.7752656667,0.0],[-46.304157,-23.7750746667,0.0],[-46.304382,-23.7749076667,0.0],[-46.304634,-23.7747026667,0.0]]}},{"type":"Feature","properties":{"tipo":"Sistema viário"},"geometry":{"type":"LineString","coordinates":[[-46.304789,-23.7747026667,0.0],[-46.304174,-23.7751976667,0.0]]}},{"type":"Feature","properties":{"tipo":"Sistema viário"},"geometry":{"type":"LineString","coordinates":[[-46.304789,-23.7747026667,0.0],[-46.304174,-23.7751976667,0.0]]}},{"type":"Feature","properties":{"tipo":"Sistema viário"},"geometry":{"type":"LineString","coordinates":[[-46.304777,-23.7736166667,0.0],[-46.30485,-23.7739836667,0.0],[-46.304869,-23.7741236667,0.0],[-46.304885,-23.7742526667,0.0],[-46.304886,-23.7743546667,0.0],[-46.304877,-23.7744376667,0.0],[-46.304849,-23.7745136667,0.0],[-46.30477,-23.7746106667,0.0],[-46.304634,-23.7747026667,0.0]]}},{"type":"Feature","properties":{"tipo":"Sistema viário"},"geometry":{"type":"LineString","coordinates":[[-46.311632,-23.7748126667,0.0],[-46.311118,-23.7751216667,0.0],[-46.310766,-23.7752856667,0.0],[-46.31048,-23.7753956667,0.0]]}},{"type":"Feature","properties":{"tipo":"Sistema viário"},"geometry":{"type":"LineString","coordinates":[[-46.311447,-23.7749556667,0.0],[-46.311728,-23.7747726667,0.0]]}},{"type":"Feature","properties":{"tipo":"Sistema viário"},"geometry":{"type":"LineString","coordinates":[[-46.311728,-23.7747726667,0.0],[-46.311901,-23.7746596667,0.0]]}},{"type":"Feature","properties":{"tipo":"Sistema viário"},"geometry":{"type":"LineString","coordinates":[[-46.311839,-23.7748096667,0.0],[-46.31277,-23.7742046667,0.0]]}},{"type":"Feature","properties":{"tipo":"Sistema viário"},"geometry":{"type":"LineString","coordinates":[[-46.311802,-23.7748056667,0.0],[-46.31277,-23.7741766667,0.0]]}},{"type":"Feature","properties":{"tipo":"Sistema viário"},"geometry":{"type":"LineString","coordinates":[[-46.305916,-23.7742636667,0.0],[-46.305768,-23.7742936667,0.0],[-46.305583,-23.7743476667,0.0],[-46.305339,-23.7744366667,0.0],[-46.305009,-23.7745676667,0.0],[-46.304789,-23.7747026667,0.0]]}},{"type":"Feature","properties":{"tipo":"Sistema viário"},"geometry":{"type":"LineString","coordinates":[[-46.305916,-23.7742636667,0.0],[-46.305768,-23.7742936667,0.0],[-46.305583,-23.7743476667,0.0],[-46.305339,-23.7744366667,0.0],[-46.305009,-23.7745676667,0.0],[-46.304789,-23.7747026667,0.0]]}},{"type":"Feature","properties":{"tipo":"Sistema viário"},"geometry":{"type":"LineString","coordinates":[[-46.31277,-23.7740696667,0.0],[-46.311632,-23.7748126667,0.0]]}},{"type":"Feature","properties":{"tipo":"Sistema viário"},"geometry":{"type":"LineString","coordinates":[[-46.311901,-23.7746596667,0.0],[-46.31277,-23.7740956667,0.0]]}},{"type":"Feature","properties":{"tipo":"Sistema viário"},"geometry":{"type":"LineString","coordinates":[[-46.307704,-23.7743046667,0.0],[-46.307652,-23.7743626667,0.0],[-46.307119,-23.7742696667,0.0],[-46.306896,-23.7742376667,0.0],[-46.306609,-23.7742086667,0.0],[-46.306523,-23.7742096667,0.0],[-46.305916,-23.7742636667,0.0]]}},{"type":"Feature","properties":{"tipo":"Sistema viário"},"geometry":{"type":"LineString","coordinates":[[-46.307704,-23.7743046667,0.0],[-46.307652,-23.7743626667,0.0],[-46.307119,-23.7742696667,0.0],[-46.306896,-23.7742376667,0.0],[-46.306609,-23.7742086667,0.0],[-46.306523,-23.7742096667,0.0],[-46.305916,-23.7742636667,0.0]]}},{"type":"Feature","properties":{"tipo":"Sistema viário"},"geometry":{"type":"LineString","coordinates":[[-46.307704,-23.7743046667,0.0],[-46.308286,-23.7736026667,0.0],[-46.307383,-23.7735926667,0.0]]}},{"type":"Feature","properties":{"tipo":"Sistema viário"},"geometry":{"type":"LineString","coordinates":[[-46.307704,-23.7743046667,0.0],[-46.308286,-23.7736026667,0.0],[-46.307383,-23.7735926667,0.0]]}},{"type":"Feature","properties":{"tipo":"Sistema viário"},"geometry":{"type":"LineString","coordinates":[[-46.307383,-23.7735926667,0.0],[-46.304777,-23.7736166667,0.0]]}},{"type":"Feature","properties":{"tipo":"Sistema viário"},"geometry":{"type":"LineString","coordinates":[[-46.307383,-23.7735926667,0.0],[-46.304777,-23.7736166667,0.0]]}}]}
