{"type":"FeatureCollection","features":[{"type":"Feature","properties":{"fonte":"Sub-bacias UGRHI 6","nome":"Billings - Tamanduateí","area_km2":824.082505827,"criticidade_iqa":"Em Alerta","criticidade_uso":"Crítica"},"geometry":{"type":"Polygon","coordinates":[[[-46.37898566483052,-23.680137147562096],[-46.37950902034972,-23.68056258391115],[-46.380420258190604,-23.680865089187538],[-46.38091767930022,-23.681290751624044],[-46.380961742402334,-23.681780190495473],[-46.38081085916227,-23.682235526886465],[-46.38081462676697,-23.682593906907066],[-46.381083600167976,-23.683499490037356],[-46.3808828406561,-23.684146425001416],[-46.381149051428544,-23.684789195258734],[-46.38187442364156,-23.685917700152284],[-46.38198272126399,-23.686346829422703],[-46.38175501510496,-23.68689842855711],[-46.38098224233748,-23.68743099607439],[-46.38014594693133,-23.68932609823734],[-46.37976130993159,-23.689759622476345],[-46.37921899710515,-23.6900033969334],[-46.37831145917667,-23.690059268711227],[-46.377373715711606,-23.689709198909004],[-46.37693266890144,-23.689713122089533],[-46.37639310651984,-23.690219699650147],[-46.37583210188838,-23.691156562335774],[-46.37511517219236,-23.692070913495524],[-46.3746458332948,-23.693090587541256],[-46.37452111242795,-23.693569581854373],[-46.374602449817644,-23.693903377681476],[-46.375492081768165,-23.694612304407915],[-46.37572909181329,-23.6949447161115],[-46.37615623398085,-23.696087844216205],[-46.37621163255045,-23.69642187129675],[-46.376163498295966,-23.696780711820992],[-46.375934246786976,-23.697188952903193],[-46.375962697455904,-23.69742764139699],[-46.37617201446158,-23.69759304028117],[-46.3766531341983,-23.697696286965762],[-46.37694003918213,-23.697837098982724],[-46.377261162610374,-23.698766117716936],[-46.37756462252541,-23.70048380063516],[-46.3775409340371,-23.700699060641455],[-46.37695018977995,-23.701277778187926],[-46.37687410711287,-23.701445714758304],[-46.37714510247913,-23.702542437723555],[-46.377096468970656,-23.702853495010707],[-46.37702113591555,-23.70309310741826],[-46.37650596412373,-23.703456103766584],[-46.37611801730798,-23.70357902508296],[-46.37559958380683,-23.703631422951513],[-46.37531542274845,-23.703753418801472],[-46.37505896017698,-23.70404242863844],[-46.374858144673205,-23.70468935876544],[-46.37460293088789,-23.70509782700975],[-46.374191282803466,-23.70543600259314],[-46.37367509222485,-23.705703421842514],[-46.372561866557646,-23.7059522424881],[-46.37209806479884,-23.706266980592147],[-46.372050167933246,-23.706649712629666],[-46.37215620562813,-23.706863821686845],[-46.372575863393145,-23.70729019558331],[-46.373726307394676,-23.70811628467278],[-46.37396333939046,-23.708448698498533],[-46.373994792042495,-23.70897409202629],[-46.37373941994858,-23.709673466124176],[-46.37365287896753,-23.709700872805254],[-46.37351107370751,-23.709979195800425],[-46.3734020493163,-23.710070742238674],[-46.37251378553626,-23.709822874123606],[-46.37205674773734,-23.709848238812594],[-46.37182778526299,-23.71009536401923],[-46.37153855029074,-23.710668039522595],[-46.370922921759245,-23.71132588636889],[-46.37059516327283,-23.711536586009196],[-46.370033649786144,-23.711536233015032],[-46.369468517221364,-23.712297829926914],[-46.36895591977691,-23.71254746071296],[-46.368300269555654,-23.712606908833084],[-46.36784193778576,-23.712509728475084],[-46.36726873293835,-23.71249880982129],[-46.367857822212905,-23.711257474721265],[-46.36787418676615,-23.711161423971205],[-46.367614119500494,-23.710646893372008],[-46.36783251387272,-23.710495776307535],[-46.36786579743757,-23.710356949345105],[-46.36731937702123,-23.71013799778919],[-46.367112907513395,-23.709766850715386],[-46.367069927826094,-23.709130833591477],[-46.36695211332807,-23.70893473313965],[-46.366638599896994,-23.708544886950552],[-46.366392210451444,-23.70841087552255],[-46.3662232742186,-23.708412367290812],[-46.36572183002553,-23.708521758270773],[-46.36460335992757,-23.70892331313356],[-46.363770868370736,-23.70902656015091],[-46.36356841971929,-23.70959845615212],[-46.36362544315719,-23.710072159074773],[-46.36292244296787,-23.710382056671254],[-46.362325836280775,-23.710904139737252],[-46.362249727835774,-23.711379016369825],[-46.3619828229714,-23.71197614500892],[-46.36150962491842,-23.712118842966206],[-46.360838846773134,-23.712188681513794],[-46.36020726454487,-23.712130297853818],[-46.36008047219015,-23.71218469210995],[-46.35956984474468,-23.712626089465264],[-46.35954614974969,-23.713132471099055],[-46.3594550830231,-23.713282460805317],[-46.35912368443154,-23.713528127513996],[-46.35848768444265,-23.713602978846186],[-46.358224402412986,-23.713893011274145],[-46.357916685928444,-23.714364590375975],[-46.35769772066523,-23.715021873488425],[-46.356263324402285,-23.717046474832664],[-46.35554477260484,-23.717537634999292],[-46.354904945695054,-23.717804319471856],[-46.3540429598498,-23.71730036349919],[-46.354091921516876,-23.716996230190713],[-46.353997051121645,-23.716778606721803],[-46.35385658731631,-23.716630647443896],[-46.35348480484988,-23.71650602600639],[-46.35166913488302,-23.71695748344211],[-46.35073566306675,-23.71702971351795],[-46.35032146922911,-23.717283754203578],[-46.35012038101334,-23.716869912319943],[-46.349747559979406,-23.716644055220982],[-46.34943611086508,-23.71619387845012],[-46.34922701135681,-23.71612643796806],[-46.34869474417489,-23.716157718024718],[-46.348426153891545,-23.715785740651025],[-46.34803531525507,-23.715496100029235],[-46.347200575122486,-23.715386150512828],[-46.346284422360675,-23.715804394886288],[-46.34583779059373,-23.71628248965625],[-46.34503750826706,-23.716710374416895],[-46.343736065139254,-23.71708539498433],[-46.34334261017079,-23.717104794398782],[-46.34295527489104,-23.716591326540875],[-46.34287288848366,-23.714764478296416],[-46.34258390460273,-23.714809611686352],[-46.34188390729792,-23.7153238568198],[-46.341440213937126,-23.71552484756064],[-46.340854977197154,-23.71547131148979],[-46.34057566066301,-23.71532987305839],[-46.34021477911036,-23.714571070498028],[-46.339397642706494,-23.7135825122993],[-46.337895117116645,-23.713035318532864],[-46.33697249037177,-23.7130360617191],[-46.3365302423153,-23.712810772280733],[-46.33581678922819,-23.712102955178676],[-46.335503335732106,-23.711450293954343],[-46.336332081156606,-23.710421054397628],[-46.3363279018888,-23.71001082056556],[-46.3360931167482,-23.709693156018556],[-46.33612408351432,-23.708755126795822],[-46.33606236361129,-23.708390809103186],[-46.336078882127005,-23.708179324012796],[-46.336450513742946,-23.707382365741815],[-46.336475795843114,-23.707081528488033],[-46.33614078453466,-23.70641571981982],[-46.33560798754477,-23.70563519666319],[-46.334417857199284,-23.704435148792772],[-46.33395480936239,-23.70451680550738],[-46.333382394769124,-23.7049273212925],[-46.333118189718036,-23.705205740213316],[-46.332960640094036,-23.70586277727876],[-46.33231255011677,-23.70684175974445],[-46.33220126594094,-23.707425124999748],[-46.33177337011778,-23.70831136519838],[-46.331570910092786,-23.70913290368453],[-46.33138636312571,-23.70943636451697],[-46.33128687622072,-23.709320802351268],[-46.33132697367013,-23.709126373713502],[-46.33123946283675,-23.708816465872022],[-46.330989101428145,-23.708620143395624],[-46.330830606188975,-23.7085865180161],[-46.33073468890519,-23.708844971258177],[-46.33035458820786,-23.709076840801067],[-46.329980227907214,-23.709076450358232],[-46.329790159680286,-23.708991006472683],[-46.32944518610657,-23.708626982901052],[-46.32891674218437,-23.708228763543822],[-46.32840590007088,-23.707213463419627],[-46.32809883248452,-23.705726185544528],[-46.3281338573995,-23.705230241277576],[-46.32832054462563,-23.704604650544407],[-46.328820842190815,-23.703780245740873],[-46.32891814121905,-23.70325850419965],[-46.32879574718564,-23.702834986182648],[-46.32864479771487,-23.702723786881304],[-46.32810087487958,-23.702571870157602],[-46.32617577757933,-23.702428654103425],[-46.32514814546449,-23.70240591961198],[-46.324943734135104,-23.702458348081255],[-46.32474042340049,-23.702619812475664],[-46.32436956006306,-23.703053047899573],[-46.32381695988572,-23.70453811996363],[-46.32383117967944,-23.704743379321847],[-46.324004595301105,-23.705119238491193],[-46.32446921651893,-23.705459970857543],[-46.32479416810423,-23.706026732103943],[-46.32490367163261,-23.707446831143905],[-46.32491451616701,-23.70852071297708],[-46.32484052162776,-23.70873593268667],[-46.32489155148857,-23.709383829182627],[-46.325222723258456,-23.709872361587706],[-46.32558842778507,-23.710070757000274],[-46.325925844652716,-23.71044321680991],[-46.32627857316198,-23.7108633157106],[-46.32635491884503,-23.71108104835542],[-46.32600922688582,-23.711356993620267],[-46.325797121650645,-23.7116454428856],[-46.32571091271647,-23.711919164628977],[-46.32576022451801,-23.71239646187031],[-46.326078321760974,-23.71297806607816],[-46.326158601545586,-23.71358476437092],[-46.32651313333377,-23.71418228646753],[-46.32660658958379,-23.714625081101236],[-46.32642779422883,-23.715274948742458],[-46.32629186481614,-23.71648868759075],[-46.326301211997176,-23.716679695596305],[-46.32663358040566,-23.71728423159988],[-46.32665089424059,-23.717529766145677],[-46.326484232158094,-23.717913370747183],[-46.326486165073895,-23.71810444227571],[-46.32666497886502,-23.718921855993933],[-46.32657135491887,-23.719195640776277],[-46.32623408616003,-23.719646795056995],[-46.326053557946146,-23.72012606126609],[-46.32617356752035,-23.720261522785467],[-46.32657477495052,-23.72033997687873],[-46.32679872495727,-23.72048819667913],[-46.327003818071695,-23.72097098103731],[-46.326927786135215,-23.721517597660096],[-46.3266747007411,-23.722154452373083],[-46.326671498183956,-23.722570776621378],[-46.325870346008195,-23.724016455784707],[-46.32600760438129,-23.72439062934673],[-46.32694965343738,-23.725153721943204],[-46.32719348849917,-23.725799963060147],[-46.32717315459646,-23.72672145165958],[-46.32637571996521,-23.727792922678056],[-46.3269034688677,-23.72790980179405],[-46.32730580601651,-23.72809743576044],[-46.327654786303775,-23.728142211809804],[-46.327579789425634,-23.728791188030154],[-46.32746557422367,-23.729228939920343],[-46.32693591663939,-23.729649782482156],[-46.32660445531712,-23.72987101140108],[-46.32537854356534,-23.730372891599696],[-46.32486922149156,-23.730674843849744],[-46.32447988334937,-23.731039880245273],[-46.32418217468159,-23.732400515980885],[-46.32428429439355,-23.732966078463885],[-46.32411157252708,-23.733486222946635],[-46.323510975117685,-23.734228417415178],[-46.322972971340526,-23.734560600418863],[-46.322799553469295,-23.735012505292858],[-46.32237353069827,-23.735284972725122],[-46.32159733709648,-23.735530469111243],[-46.321147482582866,-23.735779997890532],[-46.320524060228124,-23.73646777988508],[-46.31990680140579,-23.736295613572068],[-46.3196004341002,-23.736066192772544],[-46.31925802655272,-23.73593944851796],[-46.31893460381505,-23.736438570078327],[-46.318750731368155,-23.736590278575193],[-46.31751037537639,-23.737139995420023],[-46.31690546947215,-23.73745907801239],[-46.31686955816668,-23.737575402125355],[-46.31712112865615,-23.73825571493206],[-46.317171315274805,-23.738821726038672],[-46.31708905367402,-23.739491233515146],[-46.3172704569135,-23.73983091568416],[-46.317848965928235,-23.740363490626613],[-46.318519391518116,-23.741395106004983],[-46.31938936488439,-23.742356768627303],[-46.32046575162176,-23.743193820633607],[-46.320984672661496,-23.743753766919966],[-46.32197268942925,-23.743915932864258],[-46.32224275541486,-23.744220729190726],[-46.32232701735894,-23.744486163969285],[-46.321378573956686,-23.745306397824482],[-46.320778510413724,-23.74537294759819],[-46.32042420309263,-23.745539763240938],[-46.31996221920891,-23.745325324894882],[-46.31979179228336,-23.74534042976974],[-46.31919113778848,-23.745625805789974],[-46.31917994945939,-23.74598760197917],[-46.319062808828,-23.746138742409215],[-46.31862664505226,-23.746278954829627],[-46.31799595000359,-23.74625021140763],[-46.31787165796054,-23.746046348030816],[-46.31784412299742,-23.745521092892304],[-46.31774517588096,-23.745269428201834],[-46.31745952992471,-23.744889688492446],[-46.3172212621471,-23.744796175435493],[-46.31659091826963,-23.74480154560936],[-46.316344961541986,-23.744680799674857],[-46.31537975422347,-23.74383594771555],[-46.31500059193039,-23.74374362924294],[-46.31469880625286,-23.743971407352042],[-46.3144699263754,-23.744812774717946],[-46.314302579071594,-23.74513495271887],[-46.31408923232725,-23.745307379994685],[-46.31321744556698,-23.745642369707497],[-46.312924300278276,-23.745992913144434],[-46.31280041989314,-23.74621235069207],[-46.31259842848823,-23.747112190337035],[-46.312304161832216,-23.747935648200958],[-46.31207396436836,-23.747989502947355],[-46.31185479861128,-23.747609192683406],[-46.31156047911089,-23.747404092240185],[-46.311272703604274,-23.74734047905267],[-46.310340717826065,-23.747461620946527],[-46.309870351038604,-23.74759771818419],[-46.309095898469295,-23.748090250252126],[-46.30858549323711,-23.748232644212685],[-46.307750112245266,-23.74827274402111],[-46.30739069927536,-23.748223884989674],[-46.3070096471047,-23.748061972224406],[-46.30653842781704,-23.748113138417448],[-46.306143651003055,-23.748353557986437],[-46.30574882036111,-23.748866457285313],[-46.30519034312363,-23.748908919381083],[-46.304698466780145,-23.74946037991185],[-46.303679954705245,-23.74964826552668],[-46.303231810028066,-23.75047300619883],[-46.30287432957769,-23.750756560380815],[-46.30217927735362,-23.750859003021812],[-46.30143188209066,-23.750697548902746],[-46.30093467884168,-23.75069665124348],[-46.30013578152619,-23.75091179344572],[-46.299351561182604,-23.75149281294224],[-46.29852062684837,-23.75156123777939],[-46.298376146216015,-23.751476034220662],[-46.297885686311844,-23.750483810931904],[-46.29736446820877,-23.74989554980704],[-46.29613249447452,-23.748846654618376],[-46.29574159928321,-23.749111080704523],[-46.29498441777311,-23.749282563525462],[-46.29408600482036,-23.749691134564358],[-46.293184699119,-23.75092787072523],[-46.29284695028276,-23.751244361311475],[-46.292524231908935,-23.751951516509482],[-46.29211780167315,-23.75210403499473],[-46.29126303510716,-23.75212660638929],[-46.29092909200029,-23.752263087435747],[-46.29076013191137,-23.752696429143008],[-46.29036222372511,-23.753147108745612],[-46.29000688811324,-23.753381466847213],[-46.28937941494943,-23.75417146040437],[-46.28920725626632,-23.754280878219394],[-46.28839351264594,-23.754498489858225],[-46.28773132204447,-23.755352442587455],[-46.28671434379907,-23.756222538653173],[-46.28639072362972,-23.756842276598377],[-46.2863170905553,-23.75731081329557],[-46.286034026151924,-23.757508566057897],[-46.285705196374856,-23.757598717939292],[-46.285686118398814,-23.758065571228745],[-46.285148072994744,-23.758476266364053],[-46.285118955017126,-23.75949462943092],[-46.285027543230385,-23.759860473578005],[-46.28440101849312,-23.761016128418262],[-46.284398509389554,-23.761329812140847],[-46.28511491323534,-23.762007743263343],[-46.28508951481158,-23.76283582024579],[-46.2845282955207,-23.763765135077342],[-46.28329749475207,-23.764772916622615],[-46.28332755424002,-23.764988632961643],[-46.283813454100965,-23.76609527152161],[-46.28380128031511,-23.766563296099886],[-46.28297835457181,-23.767638138519413],[-46.28259346113396,-23.76771332355643],[-46.2823220496536,-23.767962394298618],[-46.28219381862698,-23.767994311650664],[-46.28165118966253,-23.76794225357258],[-46.281301437746535,-23.76818168817743],[-46.28049112587821,-23.76904931675785],[-46.27986838884085,-23.769378425532576],[-46.27894950912336,-23.769715127025943],[-46.27865200361942,-23.770154663529773],[-46.278534625659276,-23.770571011231702],[-46.27907096988452,-23.771583271929018],[-46.279613964040166,-23.772215195066167],[-46.28042428847824,-23.773596084559614],[-46.28082907646049,-23.773983075156718],[-46.28229013960694,-23.7749745644783],[-46.28281136259958,-23.775406589135965],[-46.28337397736832,-23.776517064826724],[-46.28356570953744,-23.777204908211694],[-46.2838681846026,-23.777577656934064],[-46.28458915929169,-23.777580388301498],[-46.28480800845694,-23.777648383235785],[-46.28530347441877,-23.77806489184691],[-46.285513097328334,-23.77815914523165],[-46.286104561122364,-23.778014586418543],[-46.28679875508554,-23.778187707029183],[-46.28730516139484,-23.77885748779404],[-46.287624670183156,-23.779513715844104],[-46.288117862842626,-23.779985226164303],[-46.28931624184186,-23.780549085940677],[-46.29055806584966,-23.781420142079952],[-46.29117161326037,-23.781589552526576],[-46.291773821244696,-23.782051411811462],[-46.29246270623163,-23.782891207430286],[-46.29265763996325,-23.783417562434483],[-46.29281148546259,-23.78362572322397],[-46.293242142150476,-23.784006106655095],[-46.29465416959259,-23.785681136786657],[-46.29485338565981,-23.78599597598714],[-46.29508576653823,-23.786949599744144],[-46.29565641073857,-23.787573158214254],[-46.29603840578351,-23.7878273985882],[-46.297025526734856,-23.788099685717583],[-46.297684204898886,-23.78803305988046],[-46.298407443020146,-23.788258242945957],[-46.29863002170611,-23.78822146290817],[-46.298728625923154,-23.788120273037258],[-46.29923658944912,-23.78705742024445],[-46.29943023048803,-23.78697288225853],[-46.29984291462607,-23.7869737710541],[-46.30070419086356,-23.7871415893464],[-46.3017473958855,-23.785877886234083],[-46.301888852607924,-23.785163008313045],[-46.30185671962825,-23.784569384654148],[-46.301949249168416,-23.783159540924824],[-46.301904757109234,-23.78208923004997],[-46.30237617076797,-23.781584000090632],[-46.3023623392425,-23.780591084192142],[-46.30246971048901,-23.78021991889871],[-46.30288050082025,-23.779799161692967],[-46.30330807385605,-23.779733053849572],[-46.303847010256526,-23.77975249200707],[-46.304105352124914,-23.779395835802244],[-46.304451381028485,-23.7791814263574],[-46.30464625888609,-23.779160683655423],[-46.305393155622774,-23.779425038538367],[-46.306165004142734,-23.77990129938522],[-46.30679704656163,-23.779702140890915],[-46.308020143243965,-23.779491029270382],[-46.30938606476067,-23.779945506482797],[-46.31003272302033,-23.78008032689802],[-46.310147180144234,-23.7800520514325],[-46.310523465706446,-23.77967923198618],[-46.31117261408536,-23.779528206281384],[-46.31203738532857,-23.779710091687377],[-46.31256886304525,-23.780025957142865],[-46.31291475201756,-23.780100094922133],[-46.313245408629356,-23.780008407236693],[-46.31330821410742,-23.77956846019917],[-46.31345260243218,-23.779399295273357],[-46.31363463337399,-23.77934176551239],[-46.31461746319181,-23.77962448983344],[-46.31555916022452,-23.780053107928822],[-46.3157299743078,-23.779486261896906],[-46.315927218212494,-23.77912631476127],[-46.31619242674268,-23.778866550564047],[-46.31626315255588,-23.77863643285415],[-46.3162408918179,-23.778239171473817],[-46.31644059310769,-23.777472324219474],[-46.31663879040322,-23.77720753154952],[-46.31717590088676,-23.776749519012878],[-46.31777607402971,-23.776509284632656],[-46.31783557118483,-23.775769855496478],[-46.31805731740284,-23.775426489755464],[-46.318692314087365,-23.775622591010062],[-46.31947320700621,-23.776071206359827],[-46.3196667349708,-23.776550970964603],[-46.319656160623474,-23.776707839964107],[-46.31999180906163,-23.77739907192582],[-46.32066442693711,-23.77751344092085],[-46.32122095447078,-23.77837635446886],[-46.32214958381716,-23.778715471567544],[-46.322634594032465,-23.779125561487504],[-46.322958244105095,-23.77922914808772],[-46.32331654813143,-23.779147707869505],[-46.32357616563758,-23.77893835926155],[-46.323990845409185,-23.778414199578247],[-46.32433782556526,-23.77841682087525],[-46.32534768943068,-23.77874271916442],[-46.325964791777764,-23.778793157171727],[-46.32673454481309,-23.77856602109651],[-46.327610096913865,-23.778535019433672],[-46.32783539355872,-23.77840079813461],[-46.328126994513006,-23.777929282724834],[-46.32834409968627,-23.777847242195865],[-46.329049906388356,-23.777817115859015],[-46.329303947309384,-23.777939196584025],[-46.329686212755014,-23.77900467055775],[-46.33017266331253,-23.779689996829955],[-46.33039760873192,-23.78030817730362],[-46.33033487035975,-23.78090586579378],[-46.33015250502608,-23.781187845530244],[-46.32968889641558,-23.781407671565326],[-46.32965984695523,-23.781500429728386],[-46.329910521425774,-23.781684880167333],[-46.3306003767826,-23.78184932842566],[-46.33136264240363,-23.78087234108171],[-46.332795077532865,-23.78031032300238],[-46.33331825981776,-23.780331570345584],[-46.33444509369877,-23.780743955361807],[-46.33496954689277,-23.780785698785145],[-46.335335640854396,-23.780726606053893],[-46.33558943623039,-23.780782630766268],[-46.33587718129289,-23.781063959807557],[-46.33628937533874,-23.78125470691963],[-46.33656030100474,-23.78126998881096],[-46.337478579819205,-23.78108794554641],[-46.33788865953904,-23.781225587930624],[-46.33837262967346,-23.781558995567796],[-46.33880110252654,-23.781686227730926],[-46.33932555499433,-23.781632051052032],[-46.33973735643768,-23.781455980863768],[-46.34001437975988,-23.7811603008071],[-46.34007268213417,-23.78086063189163],[-46.33992979260237,-23.780692539845656],[-46.338236603331815,-23.779572665110727],[-46.33808729797725,-23.77937640713709],[-46.33819996672891,-23.778991592229733],[-46.3386383597694,-23.778233937632695],[-46.338919145846724,-23.77811241353047],[-46.33956780885426,-23.778117881929344],[-46.33965564016598,-23.77770510618515],[-46.339655936900805,-23.77713496481305],[-46.3398068155982,-23.77688529303603],[-46.34000823707583,-23.7767762970551],[-46.340266166827384,-23.776790993796425],[-46.34066738059707,-23.777013292047616],[-46.340890975270035,-23.777271000407286],[-46.34150884048642,-23.777073717987907],[-46.34237964421797,-23.777004059167155],[-46.34195556193684,-23.776347330296883],[-46.341754026702226,-23.775846716351495],[-46.34167578148223,-23.77516524602377],[-46.34185067840958,-23.774266238361598],[-46.34212168162702,-23.77376151829351],[-46.342291944953786,-23.77360763240137],[-46.34251831439577,-23.773537929240632],[-46.34331111980486,-23.773643926226207],[-46.34358843839383,-23.77375440460984],[-46.34381972913283,-23.77416444492244],[-46.3439615138611,-23.77422529987335],[-46.34392319216137,-23.7740788773615],[-46.34405256988014,-23.773530231571755],[-46.34383378239619,-23.773142657202182],[-46.343814273327176,-23.77303558003614],[-46.34390498796484,-23.772904964609346],[-46.344303645436,-23.772878915442536],[-46.344606202014184,-23.773056909210553],[-46.344858290192036,-23.773698191713923],[-46.345429811453634,-23.773849896447093],[-46.34580149962064,-23.774185329875248],[-46.34616599627839,-23.77382090004315],[-46.346186588308825,-23.773436890021348],[-46.3464787944199,-23.77380124069453],[-46.34674992216482,-23.77390612208127],[-46.34699157926262,-23.774129797293266],[-46.34708642304873,-23.774399907305288],[-46.34773561744775,-23.774862742037435],[-46.347838955057256,-23.774765880846044],[-46.347954828037686,-23.77409881310088],[-46.34845365043619,-23.773072791670444],[-46.3491168878523,-23.773112154305807],[-46.34990806400174,-23.7730600853265],[-46.35069866652016,-23.77389734546886],[-46.351014307872966,-23.775339629577044],[-46.3517532672806,-23.776726036543643],[-46.35197479433223,-23.779002452295504],[-46.352180340951556,-23.779886849133973],[-46.35446170172091,-23.781486836435995],[-46.35483905173922,-23.781178716481705],[-46.35519453016924,-23.780537765012213],[-46.35536781626578,-23.77949200167976],[-46.355996841562096,-23.779260540978903],[-46.35673801898051,-23.779118558512927],[-46.35764934445335,-23.779404065769814],[-46.358099413094024,-23.78019034288781],[-46.35815999056431,-23.78070346231664],[-46.35830166732844,-23.780753016862874],[-46.3584484311416,-23.78070092435915],[-46.35909531797452,-23.780083811529973],[-46.36045698567586,-23.77999843861814],[-46.36169384769599,-23.77971659749647],[-46.361950372655045,-23.779595797939923],[-46.36232960856469,-23.777640636590206],[-46.36284165850447,-23.776716055375577],[-46.36318675444767,-23.776261446430286],[-46.36331492321299,-23.776192581833303],[-46.364256262250414,-23.77602725355872],[-46.367313541334006,-23.776694487813348],[-46.369111207490334,-23.777540456262795],[-46.369941467944095,-23.777702427686236],[-46.369984629567924,-23.778893039332807],[-46.36987925081096,-23.77937940485876],[-46.37049851613658,-23.779620009349994],[-46.370885801465384,-23.779678660990566],[-46.37174269253608,-23.780037944017423],[-46.37426030540742,-23.781319434632618],[-46.3753224056854,-23.781719497003294],[-46.376082189694486,-23.78174410599997],[-46.376313610329355,-23.781660765886354],[-46.377425122289175,-23.781573045372028],[-46.3777757005232,-23.78145407544335],[-46.37804129158662,-23.780975555584206],[-46.37842662483525,-23.781212162156557],[-46.378696458697945,-23.7811625648854],[-46.37876555319326,-23.781084770829853],[-46.37873070457605,-23.780881494241548],[-46.37833074060291,-23.780513868777252],[-46.37820149423386,-23.78001977705987],[-46.37821058267554,-23.77868898102092],[-46.378347064492004,-23.778318578255046],[-46.379087076455306,-23.77823858283042],[-46.37955185648155,-23.777856288507657],[-46.379942562040235,-23.777240607238575],[-46.38012331601849,-23.777085271584696],[-46.38041198766555,-23.77700520048932],[-46.380515249666665,-23.777039946003537],[-46.38071305755923,-23.777245081940386],[-46.38081791844936,-23.77748482309389],[-46.38112939169689,-23.77870819098927],[-46.381301700027976,-23.779061868167677],[-46.38209210146774,-23.779161796849365],[-46.38352593186351,-23.7791390108054],[-46.38379715474203,-23.77927467462592],[-46.38376058271792,-23.77949484629305],[-46.38341738046525,-23.779803466161354],[-46.38294665023557,-23.780075665279345],[-46.38250747469372,-23.780212958001123],[-46.38239061479143,-23.78033221354085],[-46.382515542229704,-23.780816238902272],[-46.38304026496483,-23.781916445474817],[-46.383187133599414,-23.781995460812844],[-46.38337595362754,-23.78198935092778],[-46.38357477742955,-23.7818898769964],[-46.38393513563929,-23.78157684305205],[-46.38424626046166,-23.78106081762663],[-46.384492680420905,-23.78108985687167],[-46.384615767333884,-23.781186287733984],[-46.384921198766456,-23.781675512516344],[-46.38505643163435,-23.78217365006037],[-46.38497744021579,-23.783392423702793],[-46.38508483847968,-23.78442909849244],[-46.38503395138701,-23.784735096939688],[-46.3843262437978,-23.785924792697827],[-46.38435517414972,-23.786580280223944],[-46.38391742707188,-23.787546285869094],[-46.38406408619536,-23.787791486654573],[-46.38420708065573,-23.78787669169758],[-46.38435769531214,-23.787936102361783],[-46.38492194575218,-23.787920149945393],[-46.385262063039114,-23.788090070608366],[-46.38552986318285,-23.788353121758743],[-46.38587982327586,-23.788973217254647],[-46.38607447123043,-23.78956866483784],[-46.38620320953251,-23.79046219560953],[-46.38590851017161,-23.791012956851596],[-46.385062391570536,-23.792100229788048],[-46.38504207584247,-23.79279715265166],[-46.38542861715945,-23.793065141286846],[-46.38573342741666,-23.79357816868119],[-46.38577629789231,-23.793852054368944],[-46.386758858308816,-23.793862618875817],[-46.387073503084316,-23.79450740541516],[-46.38788843704476,-23.79483373596833],[-46.38862110084047,-23.79473795309363],[-46.388980502866126,-23.794831666745505],[-46.389615957044505,-23.795508464844115],[-46.38929280312077,-23.795708421652936],[-46.38884616971482,-23.796135140070128],[-46.38860583383514,-23.79653285080868],[-46.38816270687126,-23.79689360882241],[-46.38723922319289,-23.798119276699033],[-46.38755934987053,-23.79848480015466],[-46.387822310885866,-23.799025346832707],[-46.38807010672481,-23.799329474993133],[-46.38822899794166,-23.799359656493767],[-46.38880196243991,-23.799127104412225],[-46.38944499309272,-23.799141986859244],[-46.390040207210674,-23.79931027240864],[-46.39049381582053,-23.799690688354495],[-46.39047953487186,-23.800038112264534],[-46.39029147374884,-23.800531807837245],[-46.390825632830314,-23.80246505673819],[-46.390801750634225,-23.802741302132752],[-46.38959351319926,-23.803268998651944],[-46.389873886984404,-23.80384529371074],[-46.39057361203477,-23.804115997408587],[-46.391013002283536,-23.80484796648756],[-46.39078278770858,-23.805267421924512],[-46.39100573887007,-23.80593932915126],[-46.39092582940651,-23.806878567987557],[-46.391141947657864,-23.807698466578685],[-46.391159354136924,-23.808488025895745],[-46.39111982313358,-23.80898319107989],[-46.39090786837864,-23.809766520626443],[-46.39156094453553,-23.810298099904344],[-46.39209959950978,-23.81036232811786],[-46.392384844548644,-23.810549936962563],[-46.39259446120273,-23.810812648356954],[-46.39301519637905,-23.81105691561676],[-46.393582485469615,-23.81155205859],[-46.3937265396951,-23.811989041745157],[-46.393909089349904,-23.81224369562098],[-46.39419442936011,-23.812439567562333],[-46.394495415979016,-23.812416174011556],[-46.39475550173874,-23.812351805482756],[-46.395107731090235,-23.812120910555763],[-46.396497666963995,-23.810921747500885],[-46.39669569252228,-23.81094062638285],[-46.39736145432983,-23.81139351699647],[-46.39800378879697,-23.81151597374095],[-46.4,-23.811251680288954],[-46.4,-23.679999999999996],[-46.37890939882204,-23.679999999999993],[-46.37898566483052,-23.680137147562096]]]}},{"type":"Feature","properties":{"fonte":"Sub-bacias UGRHI 6","nome":"Cabeceiras","area_km2":1859.23948444,"criticidade_iqa":"Crítica","criticidade_uso":"Crítica"},"geometry":{"type":"Polygon","coordinates":[[[-46.22,-23.74285264996268],[-46.220847041044564,-23.742276027185635],[-46.221558145586265,-23.74205177362683],[-46.22192377963609,-23.741521587415853],[-46.22227356666111,-23.740792183790184],[-46.2224838633719,-23.74070551013494],[-46.22319735715349,-23.740738448741997],[-46.22377668980748,-23.74063097627999],[-46.22489117549776,-23.740718804218396],[-46.22504366581967,-23.740576126731998],[-46.225172478789865,-23.740144268491896],[-46.22528997527906,-23.73916426879393],[-46.22552116189054,-23.738342271456943],[-46.2256516528783,-23.738090449820813],[-46.22589460358528,-23.737902041086535],[-46.22617353660323,-23.73782266370129],[-46.226467653040466,-23.73787177308307],[-46.2270652313487,-23.738008259668913],[-46.227332407891865,-23.73816689919507],[-46.227794497297225,-23.738233963818143],[-46.22810790354984,-23.738102865728067],[-46.228811974634986,-23.73713270791337],[-46.22974152867473,-23.736885461724363],[-46.230413896236584,-23.73700872029495],[-46.23131674581519,-23.7375817695689],[-46.23165202359962,-23.737546946809285],[-46.232585590537965,-23.737192262844726],[-46.23352420568712,-23.737088178842523],[-46.23416976254876,-23.73719843126645],[-46.23480285543555,-23.73760492246285],[-46.235040802371486,-23.737628743318375],[-46.23527747519312,-23.73751753545643],[-46.235498770195655,-23.737258550334683],[-46.236338489170144,-23.73605573131654],[-46.23694337092231,-23.735843833462198],[-46.23735419975442,-23.735813539070854],[-46.238094232488685,-23.735402497118926],[-46.23855407936183,-23.735380810195096],[-46.23881402993776,-23.735489700533684],[-46.23952603636154,-23.736040152229887],[-46.239868421829826,-23.736535783912906],[-46.2402226894079,-23.737265628230606],[-46.24032970455492,-23.73778481430188],[-46.2409986996749,-23.737938348367308],[-46.24114886207087,-23.738038264643468],[-46.24125308921119,-23.738221737363087],[-46.241563677958204,-23.739504909744245],[-46.24154441547845,-23.739912069505653],[-46.242000472394786,-23.74070310630148],[-46.242317815457,-23.74104003063254],[-46.243461102123234,-23.74151476790834],[-46.243930375674665,-23.741874814344058],[-46.24455838484804,-23.74267149397311],[-46.24500814192651,-23.7428917808791],[-46.24526021782308,-23.744468245796575],[-46.245723921555374,-23.745993326561237],[-46.24696399508477,-23.745903874663266],[-46.247333511203905,-23.74594422867566],[-46.247919478178986,-23.746215700021818],[-46.24795357227761,-23.747320517745422],[-46.24762420497176,-23.749055660609624],[-46.24777148849639,-23.74967563493762],[-46.24744881382744,-23.750431111704955],[-46.247018898747505,-23.75111849347542],[-46.246593610991134,-23.752217488131333],[-46.24657474117524,-23.75255315386897],[-46.24672897704258,-23.75300046461891],[-46.247377534846436,-23.754155512553183],[-46.24845271058578,-23.755675680318067],[-46.248367983770926,-23.75652025140801],[-46.24842633454003,-23.7567353427004],[-46.24859709876346,-23.75695392364148],[-46.24989891391154,-23.75779309186856],[-46.25113456897801,-23.758092190339713],[-46.252892251352364,-23.759131828329703],[-46.25340665138743,-23.75936328872809],[-46.25597013475531,-23.760047953005007],[-46.25594747068604,-23.760157227469065],[-46.255222920683906,-23.760760927221757],[-46.2549325492048,-23.761142916664152],[-46.254617644834155,-23.761798072428075],[-46.25465650011732,-23.7618937555716],[-46.25528548230382,-23.762202823650906],[-46.25518612548855,-23.763215983149358],[-46.255507661194905,-23.763610453507916],[-46.256672189212765,-23.764621192925304],[-46.2572442345952,-23.765419435444716],[-46.25867691291062,-23.7664462977021],[-46.25978760827352,-23.767695620550363],[-46.260240782175394,-23.767966827419215],[-46.260482223350465,-23.767921221596712],[-46.261153328464275,-23.76767574653914],[-46.26192187246568,-23.767206930642892],[-46.26225108574518,-23.767148481613138],[-46.26343597507219,-23.76755769463582],[-46.266406860303206,-23.76888374494375],[-46.26681080923651,-23.768967702643156],[-46.2679064740562,-23.768976165402744],[-46.26909841008764,-23.76878375983691],[-46.270567077379454,-23.76959639649126],[-46.27083841207614,-23.76969889060828],[-46.27122754579069,-23.769721867952896],[-46.271611046749236,-23.76965325808436],[-46.27420003761608,-23.768127771987686],[-46.275190021714565,-23.768486138243624],[-46.27639857267536,-23.769111323413398],[-46.27718881970165,-23.769898956422356],[-46.278200092185415,-23.77031196018252],[-46.278534625659276,-23.770571011231702],[-46.27865200361942,-23.770154663529773],[-46.27894950912336,-23.769715127025943],[-46.27986838884085,-23.769378425532576],[-46.28049112587821,-23.76904931675785],[-46.281301437746535,-23.76818168817743],[-46.28165118966253,-23.76794225357258],[-46.28219381862698,-23.767994311650664],[-46.2823220496536,-23.767962394298618],[-46.28259346113396,-23.76771332355643],[-46.28297835457181,-23.767638138519413],[-46.28380128031511,-23.766563296099886],[-46.283813454100965,-23.76609527152161],[-46.28332755424002,-23.764988632961643],[-46.28329749475207,-23.764772916622615],[-46.2845282955207,-23.763765135077342],[-46.28508951481158,-23.76283582024579],[-46.28511491323534,-23.762007743263343],[-46.284398509389554,-23.761329812140847],[-46.28440101849312,-23.761016128418262],[-46.285027543230385,-23.759860473578005],[-46.285118955017126,-23.75949462943092],[-46.285148072994744,-23.758476266364053],[-46.285686118398814,-23.758065571228745],[-46.285705196374856,-23.757598717939292],[-46.286034026151924,-23.757508566057897],[-46.2863170905553,-23.75731081329557],[-46.28639072362972,-23.756842276598377],[-46.28671434379907,-23.756222538653173],[-46.28773132204447,-23.755352442587455],[-46.28839351264594,-23.754498489858225],[-46.28920725626632,-23.754280878219394],[-46.28937941494943,-23.75417146040437],[-46.29000688811324,-23.753381466847213],[-46.29036222372511,-23.753147108745612],[-46.29076013191137,-23.752696429143008],[-46.29092909200029,-23.752263087435747],[-46.29126303510716,-23.75212660638929],[-46.29211780167315,-23.75210403499473],[-46.292524231908935,-23.751951516509482],[-46.29284695028276,-23.751244361311475],[-46.293184699119,-23.75092787072523],[-46.29408600482036,-23.749691134564358],[-46.29498441777311,-23.749282563525462],[-46.29574159928321,-23.749111080704523],[-46.29613249447452,-23.748846654618376],[-46.29736446820877,-23.74989554980704],[-46.297885686311844,-23.750483810931904],[-46.298376146216015,-23.751476034220662],[-46.29852062684837,-23.75156123777939],[-46.299351561182604,-23.75149281294224],[-46.30013578152619,-23.75091179344572],[-46.30093467884168,-23.75069665124348],[-46.30143188209066,-23.750697548902746],[-46.30217927735362,-23.750859003021812],[-46.30287432957769,-23.750756560380815],[-46.303231810028066,-23.75047300619883],[-46.303679954705245,-23.74964826552668],[-46.304698466780145,-23.74946037991185],[-46.30519034312363,-23.748908919381083],[-46.30574882036111,-23.748866457285313],[-46.306143651003055,-23.748353557986437],[-46.30653842781704,-23.748113138417448],[-46.3070096471047,-23.748061972224406],[-46.30739069927536,-23.748223884989674],[-46.307750112245266,-23.74827274402111],[-46.30858549323711,-23.748232644212685],[-46.309095898469295,-23.748090250252126],[-46.309870351038604,-23.74759771818419],[-46.310340717826065,-23.747461620946527],[-46.311272703604274,-23.74734047905267],[-46.31156047911089,-23.747404092240185],[-46.31185479861128,-23.747609192683406],[-46.31207396436836,-23.747989502947355],[-46.312304161832216,-23.747935648200958],[-46.31259842848823,-23.747112190337035],[-46.31280041989314,-23.74621235069207],[-46.312924300278276,-23.745992913144434],[-46.31321744556698,-23.745642369707497],[-46.31408923232725,-23.745307379994685],[-46.314302579071594,-23.74513495271887],[-46.3144699263754,-23.744812774717946],[-46.31469880625286,-23.743971407352042],[-46.31500059193039,-23.74374362924294],[-46.31537975422347,-23.74383594771555],[-46.316344961541986,-23.744680799674857],[-46.31659091826963,-23.74480154560936],[-46.3172212621471,-23.744796175435493],[-46.31745952992471,-23.744889688492446],[-46.31774517588096,-23.745269428201834],[-46.31784412299742,-23.745521092892304],[-46.31787165796054,-23.746046348030816],[-46.31799595000359,-23.74625021140763],[-46.31862664505226,-23.746278954829627],[-46.319062808828,-23.746138742409215],[-46.31917994945939,-23.74598760197917],[-46.31919113778848,-23.745625805789974],[-46.31979179228336,-23.74534042976974],[-46.31996221920891,-23.745325324894882],[-46.32042420309263,-23.745539763240938],[-46.320778510413724,-23.74537294759819],[-46.321378573956686,-23.745306397824482],[-46.32232701735894,-23.744486163969285],[-46.32224275541486,-23.744220729190726],[-46.32197268942925,-23.743915932864258],[-46.320984672661496,-23.743753766919966],[-46.32046575162176,-23.743193820633607],[-46.31938936488439,-23.742356768627303],[-46.318519391518116,-23.741395106004983],[-46.317848965928235,-23.740363490626613],[-46.3172704569135,-23.73983091568416],[-46.31708905367402,-23.739491233515146],[-46.317171315274805,-23.738821726038672],[-46.31712112865615,-23.73825571493206],[-46.31686955816668,-23.737575402125355],[-46.31690546947215,-23.73745907801239],[-46.31751037537639,-23.737139995420023],[-46.318750731368155,-23.736590278575193],[-46.31893460381505,-23.736438570078327],[-46.31925802655272,-23.73593944851796],[-46.3196004341002,-23.736066192772544],[-46.31990680140579,-23.736295613572068],[-46.320524060228124,-23.73646777988508],[-46.321147482582866,-23.735779997890532],[-46.32159733709648,-23.735530469111243],[-46.32237353069827,-23.735284972725122],[-46.322799553469295,-23.735012505292858],[-46.322972971340526,-23.734560600418863],[-46.323510975117685,-23.734228417415178],[-46.32411157252708,-23.733486222946635],[-46.32428429439355,-23.732966078463885],[-46.32418217468159,-23.732400515980885],[-46.32447988334937,-23.731039880245273],[-46.32486922149156,-23.730674843849744],[-46.32537854356534,-23.730372891599696],[-46.32660445531712,-23.72987101140108],[-46.32693591663939,-23.729649782482156],[-46.32746557422367,-23.729228939920343],[-46.327579789425634,-23.728791188030154],[-46.327654786303775,-23.728142211809804],[-46.32730580601651,-23.72809743576044],[-46.3269034688677,-23.72790980179405],[-46.32637571996521,-23.727792922678056],[-46.32717315459646,-23.72672145165958],[-46.32719348849917,-23.725799963060147],[-46.32694965343738,-23.725153721943204],[-46.32600760438129,-23.72439062934673],[-46.325870346008195,-23.724016455784707],[-46.326671498183956,-23.722570776621378],[-46.3266747007411,-23.722154452373083],[-46.326927786135215,-23.721517597660096],[-46.327003818071695,-23.72097098103731],[-46.32679872495727,-23.72048819667913],[-46.32657477495052,-23.72033997687873],[-46.32617356752035,-23.720261522785467],[-46.326053557946146,-23.72012606126609],[-46.32623408616003,-23.719646795056995],[-46.32657135491887,-23.719195640776277],[-46.32666497886502,-23.718921855993933],[-46.326486165073895,-23.71810444227571],[-46.326484232158094,-23.717913370747183],[-46.32665089424059,-23.717529766145677],[-46.32663358040566,-23.71728423159988],[-46.326301211997176,-23.716679695596305],[-46.32629186481614,-23.71648868759075],[-46.32642779422883,-23.715274948742458],[-46.32660658958379,-23.714625081101236],[-46.32651313333377,-23.71418228646753],[-46.326158601545586,-23.71358476437092],[-46.326078321760974,-23.71297806607816],[-46.32576022451801,-23.71239646187031],[-46.32571091271647,-23.711919164628977],[-46.325797121650645,-23.7116454428856],[-46.32600922688582,-23.711356993620267],[-46.32635491884503,-23.71108104835542],[-46.32627857316198,-23.7108633157106],[-46.325925844652716,-23.71044321680991],[-46.32558842778507,-23.710070757000274],[-46.325222723258456,-23.709872361587706],[-46.32489155148857,-23.709383829182627],[-46.32484052162776,-23.70873593268667],[-46.32491451616701,-23.70852071297708],[-46.32490367163261,-23.707446831143905],[-46.32479416810423,-23.706026732103943],[-46.32446921651893,-23.705459970857543],[-46.324004595301105,-23.705119238491193],[-46.32383117967944,-23.704743379321847],[-46.32381695988572,-23.70453811996363],[-46.32436956006306,-23.703053047899573],[-46.32474042340049,-23.702619812475664],[-46.324943734135104,-23.702458348081255],[-46.32514814546449,-23.70240591961198],[-46.32617577757933,-23.702428654103425],[-46.32810087487958,-23.702571870157602],[-46.32864479771487,-23.702723786881304],[-46.32879574718564,-23.702834986182648],[-46.32891814121905,-23.70325850419965],[-46.328820842190815,-23.703780245740873],[-46.32832054462563,-23.704604650544407],[-46.3281338573995,-23.705230241277576],[-46.32809883248452,-23.705726185544528],[-46.32840590007088,-23.707213463419627],[-46.32891674218437,-23.708228763543822],[-46.32944518610657,-23.708626982901052],[-46.329790159680286,-23.708991006472683],[-46.329980227907214,-23.709076450358232],[-46.33035458820786,-23.709076840801067],[-46.33073468890519,-23.708844971258177],[-46.330830606188975,-23.7085865180161],[-46.330989101428145,-23.708620143395624],[-46.33123946283675,-23.708816465872022],[-46.33132697367013,-23.709126373713502],[-46.33128687622072,-23.709320802351268],[-46.33138636312571,-23.70943636451697],[-46.331570910092786,-23.70913290368453],[-46.33177337011778,-23.70831136519838],[-46.33220126594094,-23.707425124999748],[-46.33231255011677,-23.70684175974445],[-46.332960640094036,-23.70586277727876],[-46.333118189718036,-23.705205740213316],[-46.333382394769124,-23.7049273212925],[-46.33395480936239,-23.70451680550738],[-46.334417857199284,-23.704435148792772],[-46.33560798754477,-23.70563519666319],[-46.33614078453466,-23.70641571981982],[-46.336475795843114,-23.707081528488033],[-46.336450513742946,-23.707382365741815],[-46.336078882127005,-23.708179324012796],[-46.33606236361129,-23.708390809103186],[-46.33612408351432,-23.708755126795822],[-46.3360931167482,-23.709693156018556],[-46.3363279018888,-23.71001082056556],[-46.336332081156606,-23.710421054397628],[-46.335503335732106,-23.711450293954343],[-46.33581678922819,-23.712102955178676],[-46.3365302423153,-23.712810772280733],[-46.33697249037177,-23.7130360617191],[-46.337895117116645,-23.713035318532864],[-46.339397642706494,-23.7135825122993],[-46.34021477911036,-23.714571070498028],[-46.34057566066301,-23.71532987305839],[-46.340854977197154,-23.71547131148979],[-46.341440213937126,-23.71552484756064],[-46.34188390729792,-23.7153238568198],[-46.34258390460273,-23.714809611686352],[-46.34287288848366,-23.714764478296416],[-46.34295527489104,-23.716591326540875],[-46.34334261017079,-23.717104794398782],[-46.343736065139254,-23.71708539498433],[-46.34503750826706,-23.716710374416895],[-46.34583779059373,-23.71628248965625],[-46.346284422360675,-23.715804394886288],[-46.347200575122486,-23.715386150512828],[-46.34803531525507,-23.715496100029235],[-46.348426153891545,-23.715785740651025],[-46.34869474417489,-23.716157718024718],[-46.34922701135681,-23.71612643796806],[-46.34943611086508,-23.71619387845012],[-46.349747559979406,-23.716644055220982],[-46.35012038101334,-23.716869912319943],[-46.35032146922911,-23.717283754203578],[-46.35073566306675,-23.71702971351795],[-46.35166913488302,-23.71695748344211],[-46.35348480484988,-23.71650602600639],[-46.35385658731631,-23.716630647443896],[-46.353997051121645,-23.716778606721803],[-46.354091921516876,-23.716996230190713],[-46.3540429598498,-23.71730036349919],[-46.354904945695054,-23.717804319471856],[-46.35554477260484,-23.717537634999292],[-46.356263324402285,-23.717046474832664],[-46.35769772066523,-23.715021873488425],[-46.357916685928444,-23.714364590375975],[-46.358224402412986,-23.713893011274145],[-46.35848768444265,-23.713602978846186],[-46.35912368443154,-23.713528127513996],[-46.3594550830231,-23.713282460805317],[-46.35954614974969,-23.713132471099055],[-46.35956984474468,-23.712626089465264],[-46.36008047219015,-23.71218469210995],[-46.36020726454487,-23.712130297853818],[-46.360838846773134,-23.712188681513794],[-46.36150962491842,-23.712118842966206],[-46.3619828229714,-23.71197614500892],[-46.362249727835774,-23.711379016369825],[-46.362325836280775,-23.710904139737252],[-46.36292244296787,-23.710382056671254],[-46.36362544315719,-23.710072159074773],[-46.36356841971929,-23.70959845615212],[-46.363770868370736,-23.70902656015091],[-46.36460335992757,-23.70892331313356],[-46.36572183002553,-23.708521758270773],[-46.3662232742186,-23.708412367290812],[-46.366392210451444,-23.70841087552255],[-46.366638599896994,-23.708544886950552],[-46.36695211332807,-23.70893473313965],[-46.367069927826094,-23.709130833591477],[-46.367112907513395,-23.709766850715386],[-46.36731937702123,-23.71013799778919],[-46.36786579743757,-23.710356949345105],[-46.36783251387272,-23.710495776307535],[-46.367614119500494,-23.710646893372008],[-46.36787418676615,-23.711161423971205],[-46.367857822212905,-23.711257474721265],[-46.36726873293835,-23.71249880982129],[-46.36784193778576,-23.712509728475084],[-46.368300269555654,-23.712606908833084],[-46.36895591977691,-23.71254746071296],[-46.369468517221364,-23.712297829926914],[-46.370033649786144,-23.711536233015032],[-46.37059516327283,-23.711536586009196],[-46.370922921759245,-23.71132588636889],[-46.37153855029074,-23.710668039522595],[-46.37182778526299,-23.71009536401923],[-46.37205674773734,-23.709848238812594],[-46.37251378553626,-23.709822874123606],[-46.3734020493163,-23.710070742238674],[-46.37351107370751,-23.709979195800425],[-46.37365287896753,-23.709700872805254],[-46.37373941994858,-23.709673466124176],[-46.373994792042495,-23.70897409202629],[-46.37396333939046,-23.708448698498533],[-46.373726307394676,-23.70811628467278],[-46.372575863393145,-23.70729019558331],[-46.37215620562813,-23.706863821686845],[-46.372050167933246,-23.706649712629666],[-46.37209806479884,-23.706266980592147],[-46.372561866557646,-23.7059522424881],[-46.37367509222485,-23.705703421842514],[-46.374191282803466,-23.70543600259314],[-46.37460293088789,-23.70509782700975],[-46.374858144673205,-23.70468935876544],[-46.37505896017698,-23.70404242863844],[-46.37531542274845,-23.703753418801472],[-46.37559958380683,-23.703631422951513],[-46.37611801730798,-23.70357902508296],[-46.37650596412373,-23.703456103766584],[-46.37702113591555,-23.70309310741826],[-46.37714510247913,-23.702542437723555],[-46.37687410711287,-23.701445714758304],[-46.37695018977995,-23.701277778187926],[-46.3775409340371,-23.700699060641455],[-46.37756462252541,-23.70048380063516],[-46.37715286776031,-23.698336984666156],[-46.37694003918213,-23.697837098982724],[-46.3766531341983,-23.697696286965762],[-46.37617201446158,-23.69759304028117],[-46.375962697455904,-23.69742764139699],[-46.37590930358514,-23.69728475011251],[-46.376163498295966,-23.696780711820992],[-46.37621163255045,-23.69642187129675],[-46.37602250159979,-23.695706724814688],[-46.37572909181329,-23.6949447161115],[-46.375492081768165,-23.694612304407915],[-46.374602449817644,-23.693903377681476],[-46.37452111242795,-23.693569581854373],[-46.374797247105505,-23.692683040465297],[-46.37511517219236,-23.692070913495524],[-46.37583210188838,-23.691156562335774],[-46.37639310651984,-23.690219699650147],[-46.37672687135461,-23.68988221307747],[-46.37693266890144,-23.689713122089533],[-46.377373715711606,-23.689709198909004],[-46.37831145917667,-23.690059268711227],[-46.3788822267241,-23.690054185360758],[-46.37921899710515,-23.6900033969334],[-46.37976130993159,-23.689759622476345],[-46.38014594693133,-23.68932609823734],[-46.38098224233748,-23.68743099607439],[-46.38175501510496,-23.68689842855711],[-46.381907909891574,-23.686634227966792],[-46.38198272126399,-23.686346829422703],[-46.38187442364156,-23.685917700152284],[-46.381149051428544,-23.684789195258734],[-46.3808828406561,-23.684146425001416],[-46.381083600167976,-23.683499490037356],[-46.38081462676697,-23.682593906907066],[-46.38081085916227,-23.682235526886465],[-46.380961742402334,-23.681780190495473],[-46.38091767930022,-23.681290751624044],[-46.380420258190604,-23.680865089187538],[-46.37950902034972,-23.68056258391115],[-46.37924784242954,-23.68039765022095],[-46.37890939882204,-23.679999999999993],[-46.22,-23.679999999999993],[-46.22,-23.74285264996268]]]}}]}