{"type":"FeatureCollection","features":[{"type":"Feature","properties":{"nome":"SE Henry Borden","tensao_kv":"230/13,8","concessionaria":"EMAE - Empresa Metropolitana de Águas e Energia S.A","ano_operacao":"1956","fonte":"EPE/SIN — subestações existentes"},"geometry":{"type":"Point","coordinates":[-46.450684,-23.877686]}},{"type":"Feature","properties":{"nome":"SE UTE Euzébio da Rocha","tensao_kv":"230/13,8","concessionaria":"PETROBRAS - Petroleo Brasileiro S.A","ano_operacao":"2009","fonte":"EPE/SIN — subestações existentes"},"geometry":{"type":"Point","coordinates":[-46.432053,-23.874934]}},{"type":"Feature","properties":{"nome":"SE Petrobras Cubatão","tensao_kv":"230","concessionaria":"CTEEP - Companhia de Transmissão de Energia Elétrica Paulista","ano_operacao":"2009","fonte":"EPE/SIN — subestações existentes"},"geometry":{"type":"Point","coordinates":[-46.431365,-23.874582]}},{"type":"Feature","properties":{"nome":"SE Carbocloro","tensao_kv":"230/138/13,8","concessionaria":"CTEEP - Companhia de Transmissão de Energia Elétrica Paulista","ano_operacao":"2004","fonte":"EPE/SIN — subestações existentes"},"geometry":{"type":"Point","coordinates":[-46.4143,-23.867119]}},{"type":"Feature","properties":{"nome":"SE Baixada Santista","tensao_kv":"345/230/138/88","concessionaria":"CTEEP - Companhia de Transmissão de Energia Elétrica Paulista","ano_operacao":"-","fonte":"EPE/SIN — subestações existentes"},"geometry":{"type":"Point","coordinates":[-46.42041,-23.859619]}},{"type":"Feature","properties":{"nome":"SE Embu-Guaçu","tensao_kv":"440/345/138/16/13,8","concessionaria":"CTEEP - Companhia de Transmissão de Energia Elétrica Paulista","ano_operacao":"-","fonte":"EPE/SIN — subestações existentes"},"geometry":{"type":"Point","coordinates":[-46.799832,-23.844664]}},{"type":"Feature","properties":{"nome":"SE Solvay","tensao_kv":"440/88","concessionaria":"CTEEP - Companhia de Transmissão de Energia Elétrica Paulista","ano_operacao":"2011","fonte":"EPE/SIN — subestações existentes"},"geometry":{"type":"Point","coordinates":[-46.374605,-23.768981]}},{"type":"Feature","properties":{"nome":"SE Interlagos","tensao_kv":"345/230","concessionaria":"CTEEP - Companhia de Transmissão de Energia Elétrica Paulista","ano_operacao":"-","fonte":"EPE/SIN — subestações existentes"},"geometry":{"type":"Point","coordinates":[-46.681419,-23.710087]}},{"type":"Feature","properties":{"nome":"SE Tijuco Preto","tensao_kv":"750/500/345","concessionaria":"FURNAS - Furnas Centrais Elétricas S.A.","ano_operacao":"1982","fonte":"EPE/SIN — subestações existentes"},"geometry":{"type":"Point","coordinates":[-46.273172,-23.709606]}},{"type":"Feature","properties":{"nome":"SE Piratininga 2","tensao_kv":"345/88","concessionaria":"IEP - INTERLIGAÇÃO ELÉTRICA PINHEIROS S.A","ano_operacao":"2011","fonte":"EPE/SIN — subestações existentes"},"geometry":{"type":"Point","coordinates":[-46.682747,-23.705646]}},{"type":"Feature","properties":{"nome":"SE UTE Piratininga","tensao_kv":"230","concessionaria":"BSE - Baixada Santista Energia S.A.","ano_operacao":"1954","fonte":"EPE/SIN — subestações existentes"},"geometry":{"type":"Point","coordinates":[-46.677782,-23.699596]}},{"type":"Feature","properties":{"nome":"SE Sul","tensao_kv":"345/88","concessionaria":"CTEEP - Companhia de Transmissão de Energia Elétrica Paulista","ano_operacao":"-","fonte":"EPE/SIN — subestações existentes"},"geometry":{"type":"Point","coordinates":[-46.521007,-23.699379]}},{"type":"Feature","properties":{"nome":"SE UTE Fernando Gasparian","tensao_kv":"230/13,8","concessionaria":"PETROBRAS - Petroleo Brasileiro S.A","ano_operacao":"-","fonte":"EPE/SIN — subestações existentes"},"geometry":{"type":"Point","coordinates":[-46.678704,-23.699338]}},{"type":"Feature","properties":{"nome":"SE Piratininga","tensao_kv":"230/88","concessionaria":"CTEEP - Companhia de Transmissão de Energia Elétrica Paulista","ano_operacao":"-","fonte":"EPE/SIN — subestações existentes"},"geometry":{"type":"Point","coordinates":[-46.677405,-23.698736]}},{"type":"Feature","properties":{"nome":"SE Xavantes","tensao_kv":"345","concessionaria":"CTEEP - Companhia de Transmissão de Energia Elétrica Paulista","ano_operacao":"-","fonte":"EPE/SIN — subestações existentes"},"geometry":{"type":"Point","coordinates":[-46.723389,-23.658088]}},{"type":"Feature","properties":{"nome":"SE Bandeirantes","tensao_kv":"345/88/34,5","concessionaria":"CTEEP - Companhia de Transmissão de Energia Elétrica Paulista","ano_operacao":"-","fonte":"EPE/SIN — subestações existentes"},"geometry":{"type":"Point","coordinates":[-46.692243,-23.598873]}},{"type":"Feature","properties":{"nome":"SE Leste","tensao_kv":"345/88","concessionaria":"CTEEP - Companhia de Transmissão de Energia Elétrica Paulista","ano_operacao":"-","fonte":"EPE/SIN — subestações existentes"},"geometry":{"type":"Point","coordinates":[-46.468532,-23.595511]}},{"type":"Feature","properties":{"nome":"SE Santo Angelo","tensao_kv":"440/345/138","concessionaria":"CTEEP - Companhia de Transmissão de Energia Elétrica Paulista","ano_operacao":"-","fonte":"EPE/SIN — subestações existentes"},"geometry":{"type":"Point","coordinates":[-46.253906,-23.586121]}},{"type":"Feature","properties":{"nome":"SE Ramom Reberte Filho","tensao_kv":"345/88","concessionaria":"CTEEP - Companhia de Transmissão de Energia Elétrica Paulista","ano_operacao":"-","fonte":"EPE/SIN — subestações existentes"},"geometry":{"type":"Point","coordinates":[-46.523561,-23.579408]}},{"type":"Feature","properties":{"nome":"SE Jandira","tensao_kv":"440/88","concessionaria":"IESJ - Interligação Elétrica Serra do Japi S.A.","ano_operacao":"2012","fonte":"EPE/SIN — subestações existentes"},"geometry":{"type":"Point","coordinates":[-46.906601,-23.563037]}},{"type":"Feature","properties":{"nome":"SE Miguel Reale","tensao_kv":"345/88/20","concessionaria":"CTEEP - Companhia de Transmissão de Energia Elétrica Paulista","ano_operacao":"-","fonte":"EPE/SIN — subestações existentes"},"geometry":{"type":"Point","coordinates":[-46.62528,-23.562452]}},{"type":"Feature","properties":{"nome":"SE Mogi","tensao_kv":"230/88","concessionaria":"CTEEP - Companhia de Transmissão de Energia Elétrica Paulista","ano_operacao":"-","fonte":"EPE/SIN — subestações existentes"},"geometry":{"type":"Point","coordinates":[-46.181981,-23.548427]}},{"type":"Feature","properties":{"nome":"SE Itapeti","tensao_kv":"345/230/88/13,8","concessionaria":"CTEEP - Companhia de Transmissão de Energia Elétrica Paulista","ano_operacao":"-","fonte":"EPE/SIN — subestações existentes"},"geometry":{"type":"Point","coordinates":[-46.176557,-23.547325]}},{"type":"Feature","properties":{"nome":"SE Centro - CTR","tensao_kv":"230/88/20","concessionaria":"CTEEP - Companhia de Transmissão de Energia Elétrica Paulista","ano_operacao":"-","fonte":"EPE/SIN — subestações existentes"},"geometry":{"type":"Point","coordinates":[-46.648299,-23.5368]}},{"type":"Feature","properties":{"nome":"SE Milton Fornasaro","tensao_kv":"345/88","concessionaria":"CTEEP - Companhia de Transmissão de Energia Elétrica Paulista","ano_operacao":"-","fonte":"EPE/SIN — subestações existentes"},"geometry":{"type":"Point","coordinates":[-46.751953,-23.528194]}},{"type":"Feature","properties":{"nome":"SE Centro - CTT","tensao_kv":"230","concessionaria":"CTEEP - Companhia de Transmissão de Energia Elétrica Paulista","ano_operacao":"-","fonte":"EPE/SIN — subestações existentes"},"geometry":{"type":"Point","coordinates":[-46.721444,-23.513014]}},{"type":"Feature","properties":{"nome":"SE Mogi das Cruzes","tensao_kv":"345/230","concessionaria":"FURNAS - Furnas Centrais Elétricas S.A.","ano_operacao":"1964","fonte":"EPE/SIN — subestações existentes"},"geometry":{"type":"Point","coordinates":[-46.169606,-23.503683]}},{"type":"Feature","properties":{"nome":"SE Pirituba","tensao_kv":"230/88","concessionaria":"CTEEP - Companhia de Transmissão de Energia Elétrica Paulista","ano_operacao":"-","fonte":"EPE/SIN — subestações existentes"},"geometry":{"type":"Point","coordinates":[-46.709394,-23.500973]}},{"type":"Feature","properties":{"nome":"SE Anhanguera","tensao_kv":"345/230/88","concessionaria":"CTEEP - Companhia de Transmissão de Energia Elétrica Paulista","ano_operacao":"-","fonte":"EPE/SIN — subestações existentes"},"geometry":{"type":"Point","coordinates":[-46.768299,-23.49316]}},{"type":"Feature","properties":{"nome":"SE Norte","tensao_kv":"345/88","concessionaria":"CTEEP - Companhia de Transmissão de Energia Elétrica Paulista","ano_operacao":"-","fonte":"EPE/SIN — subestações existentes"},"geometry":{"type":"Point","coordinates":[-46.558311,-23.483141]}},{"type":"Feature","properties":{"nome":"SE Nordeste","tensao_kv":"345/88","concessionaria":"CTEEP - Companhia de Transmissão de Energia Elétrica Paulista","ano_operacao":"-","fonte":"EPE/SIN — subestações existentes"},"geometry":{"type":"Point","coordinates":[-46.38129,-23.454216]}},{"type":"Feature","properties":{"nome":"SE Edgard de Souza","tensao_kv":"230/88","concessionaria":"CTEEP - Companhia de Transmissão de Energia Elétrica Paulista","ano_operacao":"-","fonte":"EPE/SIN — subestações existentes"},"geometry":{"type":"Point","coordinates":[-46.907799,-23.45319]}},{"type":"Feature","properties":{"nome":"SE Guarulhos","tensao_kv":"345","concessionaria":"FURNAS - Furnas Centrais Elétricas S.A.","ano_operacao":"1963","fonte":"EPE/SIN — subestações existentes"},"geometry":{"type":"Point","coordinates":[-46.585396,-23.442358]}},{"type":"Feature","properties":{"nome":"SE Água Azul","tensao_kv":"440/138","concessionaria":"AGUA AZUL SPE - SUBESTACAO AGUA AZUL SPE S.A.","ano_operacao":"2019","fonte":"EPE/SIN — subestações existentes"},"geometry":{"type":"Point","coordinates":[-46.401374,-23.37505]}},{"type":"Feature","properties":{"nome":"SE Bom Jardim","tensao_kv":"440/138/88/13,8","concessionaria":"CTEEP - Companhia de Transmissão de Energia Elétrica Paulista","ano_operacao":"-","fonte":"EPE/SIN — subestações existentes"},"geometry":{"type":"Point","coordinates":[-46.990191,-23.151775]}},{"type":"Feature","properties":{"nome":"SE Fernão Dias","tensao_kv":"500/440","concessionaria":"MSGT - MATA DE SANTA GENEBRA TRANSMISSAO S.A.","ano_operacao":"2020","fonte":"EPE/SIN — subestações existentes"},"geometry":{"type":"Point","coordinates":[-46.514692,-23.057929]}}]}